{
  "type": "FeatureCollection",
  "features": [
    {
      "type": "Feature",
      "geometry": {
        "type": "LineString",
        "coordinates": [
          [
            25.7632265,
            46.0299429
          ],
          [
            25.7613399,
            46.0280364
          ],
          [
            25.7592104,
            46.0271674
          ],
          [
            25.7572863,
            46.0272452
          ],
          [
            25.7542409,
            46.0280355
          ],
          [
            25.7535877,
            46.028205
          ],
          [
            25.7519065,
            46.0285552
          ],
          [
            25.7488803,
            46.0297354
          ],
          [
            25.7458355,
            46.0312917
          ],
          [
            25.7431082,
            46.0317586
          ],
          [
            25.7413896,
            46.0319661
          ],
          [
            25.738569,
            46.0323551
          ],
          [
            25.7352252,
            46.0329776
          ],
          [
            25.7322551,
            46.0330425
          ],
          [
            25.7287806,
            46.0328868
          ],
          [
            25.7274075,
            46.0328439
          ],
          [
            25.7265601,
            46.0329588
          ],
          [
            25.7258479,
            46.0330554
          ],
          [
            25.7245029,
            46.0333018
          ],
          [
            25.7223734,
            46.0339891
          ],
          [
            25.7204167,
            46.034316
          ],
          [
            25.7195008,
            46.035117
          ],
          [
            25.7177639,
            46.0352615
          ],
          [
            25.7155552,
            46.0347802
          ],
          [
            25.7143657,
            46.0347763
          ],
          [
            25.7137924,
            46.0351659
          ],
          [
            25.7129662,
            46.0350896
          ],
          [
            25.7123983,
            46.0354675
          ],
          [
            25.712048,
            46.0357993
          ],
          [
            25.7114478,
            46.0356728
          ],
          [
            25.7106362,
            46.0356932
          ],
          [
            25.7100699,
            46.0363095
          ],
          [
            25.7084008,
            46.0365827
          ],
          [
            25.7074084,
            46.0370294
          ],
          [
            25.7066924,
            46.0371712
          ],
          [
            25.7059435,
            46.0376355
          ],
          [
            25.7046895,
            46.0376272
          ],
          [
            25.7028497,
            46.0379781
          ],
          [
            25.702938,
            46.0384426
          ],
          [
            25.7032653,
            46.0385133
          ],
          [
            25.7030829,
            46.038666
          ],
          [
            25.7029648,
            46.0389713
          ],
          [
            25.7025464,
            46.0391091
          ],
          [
            25.7024069,
            46.0395001
          ],
          [
            25.7022588,
            46.0395852
          ],
          [
            25.7021572,
            46.0397249
          ],
          [
            25.7019558,
            46.0399124
          ],
          [
            25.7017126,
            46.0398654
          ],
          [
            25.7015133,
            46.039763
          ],
          [
            25.7011903,
            46.0398571
          ],
          [
            25.7008275,
            46.0400231
          ],
          [
            25.7004823,
            46.0402024
          ],
          [
            25.700271,
            46.0402467
          ],
          [
            25.6998204,
            46.0402135
          ],
          [
            25.6996051,
            46.0400363
          ],
          [
            25.6993141,
            46.0399561
          ],
          [
            25.6990429,
            46.0399865
          ],
          [
            25.698712,
            46.0401803
          ],
          [
            25.6980328,
            46.0402683
          ],
          [
            25.6979863,
            46.0402744
          ],
          [
            25.6972527,
            46.0400779
          ],
          [
            25.6968819,
            46.0402024
          ],
          [
            25.6966387,
            46.0402328
          ],
          [
            25.6964314,
            46.0401304
          ],
          [
            25.6961961,
            46.0399063
          ],
          [
            25.6960566,
            46.0398703
          ],
          [
            25.695933,
            46.0399173
          ],
          [
            25.6956658,
            46.0401055
          ],
          [
            25.6954824,
            46.0400862
          ],
          [
            25.6952255,
            46.0398592
          ],
          [
            25.6950059,
            46.0396974
          ],
          [
            25.6947946,
            46.039602
          ],
          [
            25.6945666,
            46.0394961
          ],
          [
            25.6943672,
            46.0393739
          ],
          [
            25.694176,
            46.0392878
          ],
          [
            25.6937704,
            46.0392075
          ],
          [
            25.6933161,
            46.0390784
          ],
          [
            25.6925776,
            46.038843
          ],
          [
            25.6925567,
            46.0388363
          ],
          [
            25.6920705,
            46.0386443
          ],
          [
            25.6916749,
            46.0384651
          ],
          [
            25.6916279,
            46.0384569
          ],
          [
            25.6914402,
            46.0385337
          ],
          [
            25.6913161,
            46.0385559
          ],
          [
            25.6911519,
            46.0387036
          ],
          [
            25.6908566,
            46.0389795
          ],
          [
            25.6904801,
            46.0392565
          ],
          [
            25.6895282,
            46.0395839
          ],
          [
            25.6894163,
            46.0396107
          ],
          [
            25.689214,
            46.0394819
          ],
          [
            25.6890285,
            46.0393805
          ],
          [
            25.6891072,
            46.0392088
          ],
          [
            25.6888627,
            46.0389435
          ],
          [
            25.6881124,
            46.0388499
          ],
          [
            25.6875589,
            46.0389084
          ],
          [
            25.6869182,
            46.0385788
          ],
          [
            25.6868226,
            46.0383369
          ],
          [
            25.6866276,
            46.0376983
          ],
          [
            25.6864906,
            46.0372839
          ],
          [
            25.6860845,
            46.0365062
          ],
          [
            25.6858595,
            46.0360986
          ],
          [
            25.6858742,
            46.0357216
          ],
          [
            25.685561,
            46.0352087
          ],
          [
            25.6851843,
            46.0345498
          ],
          [
            25.6851647,
            46.0336904
          ],
          [
            25.6851948,
            46.0336019
          ],
          [
            25.6852039,
            46.033575
          ],
          [
            25.685424,
            46.0334867
          ],
          [
            25.6851843,
            46.032573
          ],
          [
            25.6844444,
            46.0312132
          ],
          [
            25.6824883,
            46.0304736
          ],
          [
            25.6808421,
            46.0297341
          ],
          [
            25.6801836,
            46.0294472
          ],
          [
            25.6775561,
            46.0282908
          ],
          [
            25.6767039,
            46.0278874
          ],
          [
            25.6764005,
            46.0279322
          ],
          [
            25.6754063,
            46.0275109
          ],
          [
            25.6750892,
            46.02752
          ],
          [
            25.6748858,
            46.027845
          ],
          [
            25.6744565,
            46.0279069
          ],
          [
            25.6739336,
            46.0270381
          ],
          [
            25.6735509,
            46.0260296
          ],
          [
            25.673409,
            46.0252279
          ],
          [
            25.6726996,
            46.0239913
          ],
          [
            25.672592,
            46.0234682
          ],
          [
            25.6725969,
            46.0230163
          ],
          [
            25.6727192,
            46.0226494
          ],
          [
            25.6729296,
            46.0222791
          ],
          [
            25.6727534,
            46.0217526
          ],
          [
            25.672817,
            46.0213211
          ],
          [
            25.6729002,
            46.0212837
          ],
          [
            25.6723571,
            46.0211037
          ],
          [
            25.6721217,
            46.0210622
          ],
          [
            25.6720293,
            46.0210459
          ],
          [
            25.6720685,
            46.0206824
          ],
          [
            25.6725382,
            46.0205125
          ],
          [
            25.6726703,
            46.0199146
          ],
          [
            25.673047,
            46.019551
          ],
          [
            25.67314,
            46.0191909
          ],
          [
            25.6733261,
            46.0189997
          ],
          [
            25.6737515,
            46.0185624
          ],
          [
            25.6740695,
            46.0180493
          ],
          [
            25.673813,
            46.0173599
          ],
          [
            25.6735166,
            46.016805
          ],
          [
            25.6724339,
            46.016805
          ],
          [
            25.6717443,
            46.0166248
          ],
          [
            25.6713142,
            46.0157802
          ],
          [
            25.670365,
            46.0157235
          ],
          [
            25.6690894,
            46.0159501
          ],
          [
            25.6677797,
            46.0162905
          ],
          [
            25.6673793,
            46.0158291
          ],
          [
            25.6669193,
            46.0154327
          ],
          [
            25.667013,
            46.0151133
          ],
          [
            25.666766,
            46.0149772
          ],
          [
            25.6672516,
            46.0146222
          ],
          [
            25.6668767,
            46.0144448
          ],
          [
            25.666553,
            46.0147169
          ],
          [
            25.6663997,
            46.0145927
          ],
          [
            25.6663401,
            46.0144389
          ],
          [
            25.6668171,
            46.0139419
          ],
          [
            25.6667149,
            46.0134864
          ],
          [
            25.666093,
            46.0132498
          ],
          [
            25.6656075,
            46.0126759
          ],
          [
            25.6650465,
            46.0131163
          ],
          [
            25.6638002,
            46.0128751
          ],
          [
            25.6635105,
            46.0125438
          ],
          [
            25.6637661,
            46.0115676
          ],
          [
            25.6634424,
            46.0110884
          ],
          [
            25.6638002,
            46.0106447
          ],
          [
            25.6642517,
            46.0100472
          ],
          [
            25.6646605,
            46.00942
          ],
          [
            25.66481,
            46.0090518
          ],
          [
            25.6647963,
            46.0078676
          ],
          [
            25.6647347,
            46.0071357
          ],
          [
            25.6649558,
            46.0059748
          ],
          [
            25.6647831,
            46.0054169
          ],
          [
            25.6649372,
            46.0047357
          ],
          [
            25.6652781,
            46.0041064
          ],
          [
            25.6651847,
            46.0037496
          ],
          [
            25.6652788,
            46.0036702
          ],
          [
            25.6653686,
            46.0035037
          ],
          [
            25.6653546,
            46.0034808
          ],
          [
            25.6652688,
            46.0033407
          ],
          [
            25.665094,
            46.0031916
          ],
          [
            25.6650141,
            46.0030425
          ],
          [
            25.6649942,
            46.0029211
          ],
          [
            25.6648244,
            46.002772
          ],
          [
            25.6647196,
            46.0026853
          ],
          [
            25.6644949,
            46.0025951
          ],
          [
            25.6642553,
            46.0025674
          ],
          [
            25.6640555,
            46.0025882
          ],
          [
            25.6639743,
            46.0026095
          ],
          [
            25.6637782,
            46.0026109
          ],
          [
            25.6636496,
            46.0025173
          ],
          [
            25.6636789,
            46.0023669
          ],
          [
            25.6637449,
            46.0022603
          ],
          [
            25.6638184,
            46.0021506
          ],
          [
            25.6638608,
            46.0020229
          ],
          [
            25.6638059,
            46.001846
          ],
          [
            25.6635263,
            46.0018946
          ],
          [
            25.6633716,
            46.0018183
          ],
          [
            25.6632318,
            46.0016206
          ],
          [
            25.663072,
            46.0014541
          ],
          [
            25.6628323,
            46.0013882
          ],
          [
            25.6625877,
            46.0014576
          ],
          [
            25.662363,
            46.0015547
          ],
          [
            25.6621184,
            46.0016865
          ],
          [
            25.6618188,
            46.001735
          ],
          [
            25.661684,
            46.0016865
          ],
          [
            25.6614044,
            46.0014819
          ],
          [
            25.6611548,
            46.0011004
          ],
          [
            25.6608902,
            46.0004379
          ],
          [
            25.6605675,
            45.9999382
          ],
          [
            25.6603851,
            45.9998933
          ],
          [
            25.6601388,
            45.9999541
          ],
          [
            25.6599066,
            45.9998345
          ],
          [
            25.6597169,
            45.9996645
          ],
          [
            25.6594323,
            45.9993975
          ],
          [
            25.6590878,
            45.9990125
          ],
          [
            25.6589231,
            45.9988079
          ],
          [
            25.6588731,
            45.9985304
          ],
          [
            25.6589081,
            45.9982703
          ],
          [
            25.6588931,
            45.9981073
          ],
          [
            25.658304,
            45.9978784
          ],
          [
            25.6581592,
            45.9977951
          ],
          [
            25.6578996,
            45.9975281
          ],
          [
            25.6578013,
            45.9974371
          ],
          [
            25.6576599,
            45.9973859
          ],
          [
            25.6572905,
            45.9971188
          ],
          [
            25.656946,
            45.9968344
          ],
          [
            25.6568361,
            45.9966193
          ],
          [
            25.656896,
            45.99638
          ],
          [
            25.6572705,
            45.9960644
          ],
          [
            25.6577298,
            45.9957071
          ],
          [
            25.6580643,
            45.9954019
          ],
          [
            25.6582386,
            45.995319
          ],
          [
            25.6586783,
            45.9950812
          ],
          [
            25.6592074,
            45.9946179
          ],
          [
            25.6597438,
            45.9940489
          ],
          [
            25.6599033,
            45.9935453
          ],
          [
            25.6596061,
            45.9929411
          ],
          [
            25.6590697,
            45.9922965
          ],
          [
            25.6586133,
            45.992055
          ],
          [
            25.6583407,
            45.9919631
          ],
          [
            25.6581382,
            45.9918143
          ],
          [
            25.6578501,
            45.9915735
          ],
          [
            25.6575541,
            45.9913543
          ],
          [
            25.6571998,
            45.9911731
          ],
          [
            25.6567091,
            45.9910135
          ],
          [
            25.656234,
            45.9908674
          ],
          [
            25.6557629,
            45.9906969
          ],
          [
            25.6555253,
            45.9905914
          ],
          [
            25.65528,
            45.9903073
          ],
          [
            25.6551749,
            45.990145
          ],
          [
            25.6552021,
            45.989934
          ],
          [
            25.6553228,
            45.9895254
          ],
          [
            25.6553345,
            45.9892251
          ],
          [
            25.6551788,
            45.9891142
          ],
          [
            25.6549607,
            45.989098
          ],
          [
            25.6546609,
            45.9890763
          ],
          [
            25.6542589,
            45.9890577
          ],
          [
            25.6540423,
            45.9890007
          ],
          [
            25.653481,
            45.9887814
          ],
          [
            25.6531772,
            45.9886434
          ],
          [
            25.65315,
            45.9885055
          ],
          [
            25.6534063,
            45.9878277
          ],
          [
            25.6534377,
            45.9876958
          ],
          [
            25.6534437,
            45.987546
          ],
          [
            25.6533471,
            45.9873815
          ],
          [
            25.6533149,
            45.9872175
          ],
          [
            25.6534482,
            45.9869288
          ],
          [
            25.6535321,
            45.9866938
          ],
          [
            25.6533914,
            45.9864681
          ],
          [
            25.6526438,
            45.9861516
          ],
          [
            25.6516649,
            45.9860196
          ],
          [
            25.6514249,
            45.9861056
          ],
          [
            25.6511601,
            45.9861705
          ],
          [
            25.6509226,
            45.986184
          ],
          [
            25.650432,
            45.9857944
          ],
          [
            25.6504008,
            45.9856699
          ],
          [
            25.6505487,
            45.9854777
          ],
          [
            25.6508293,
            45.9854047
          ],
          [
            25.6510533,
            45.9853064
          ],
          [
            25.6510967,
            45.9850779
          ],
          [
            25.6508372,
            45.9846394
          ],
          [
            25.6507892,
            45.9845438
          ],
          [
            25.6507622,
            45.9844179
          ],
          [
            25.6510118,
            45.9835906
          ],
          [
            25.651095,
            45.9834794
          ],
          [
            25.6510502,
            45.983208
          ],
          [
            25.6506405,
            45.9827232
          ],
          [
            25.6502436,
            45.9820515
          ],
          [
            25.6498596,
            45.981838
          ],
          [
            25.6496099,
            45.9816378
          ],
          [
            25.6495011,
            45.9813887
          ],
          [
            25.6494179,
            45.9811708
          ],
          [
            25.6490722,
            45.9809528
          ],
          [
            25.6486945,
            45.9809306
          ],
          [
            25.6486241,
            45.9809973
          ],
          [
            25.6482592,
            45.981064
          ],
          [
            25.6480736,
            45.9810329
          ],
          [
            25.6481056,
            45.9808283
          ],
          [
            25.6480096,
            45.9806058
          ],
          [
            25.6477663,
            45.9805124
          ],
          [
            25.6475871,
            45.9803389
          ],
          [
            25.6472478,
            45.9801877
          ],
          [
            25.6473182,
            45.9800676
          ],
          [
            25.6473118,
            45.9799386
          ],
          [
            25.6470686,
            45.9798407
          ],
          [
            25.6469342,
            45.9797518
          ],
          [
            25.647011,
            45.9796895
          ],
          [
            25.6470814,
            45.9795827
          ],
          [
            25.6469598,
            45.9794982
          ],
          [
            25.6466461,
            45.9793825
          ],
          [
            25.6465117,
            45.9794092
          ],
          [
            25.6461276,
            45.9791245
          ],
          [
            25.6463068,
            45.97904
          ],
          [
            25.6465437,
            45.9788888
          ],
          [
            25.646358,
            45.9785062
          ],
          [
            25.6459548,
            45.9783639
          ],
          [
            25.6457115,
            45.9781414
          ],
          [
            25.6453786,
            45.9778478
          ],
          [
            25.645161,
            45.9779457
          ],
          [
            25.645161,
            45.9781103
          ],
          [
            25.645033,
            45.9783283
          ],
          [
            25.6447641,
            45.9784528
          ],
          [
            25.6444184,
            45.9785151
          ],
          [
            25.644028,
            45.9783994
          ],
          [
            25.6440024,
            45.9782793
          ],
          [
            25.6438551,
            45.9781904
          ],
          [
            25.6435671,
            45.9781548
          ],
          [
            25.6433878,
            45.9783327
          ],
          [
            25.6429013,
            45.978484
          ],
          [
            25.64237,
            45.9786219
          ],
          [
            25.6419475,
            45.9784884
          ],
          [
            25.6419475,
            45.9783461
          ],
          [
            25.641947,
            45.9780814
          ],
          [
            25.6416844,
            45.9778761
          ],
          [
            25.6413826,
            45.9778132
          ],
          [
            25.641274,
            45.9777905
          ],
          [
            25.6409293,
            45.977762
          ],
          [
            25.6404697,
            45.9775966
          ],
          [
            25.639969,
            45.9775567
          ],
          [
            25.6390005,
            45.9775453
          ],
          [
            25.6384999,
            45.9774141
          ],
          [
            25.6383768,
            45.9772772
          ],
          [
            25.638623,
            45.9769863
          ],
          [
            25.6389841,
            45.9765471
          ],
          [
            25.6387871,
            45.9761992
          ],
          [
            25.6387954,
            45.9755204
          ],
          [
            25.6387297,
            45.9752923
          ],
          [
            25.6384835,
            45.9752067
          ],
          [
            25.6382537,
            45.9752124
          ],
          [
            25.637753,
            45.9751668
          ],
          [
            25.6371539,
            45.9749444
          ],
          [
            25.6362018,
            45.9748987
          ],
          [
            25.6354713,
            45.9750356
          ],
          [
            25.6350199,
            45.9750869
          ],
          [
            25.6344372,
            45.9749386
          ],
          [
            25.6340104,
            45.9749044
          ],
          [
            25.6329681,
            45.9749501
          ],
          [
            25.631475,
            45.9749024
          ],
          [
            25.6308871,
            45.9748395
          ],
          [
            25.6302709,
            45.9747845
          ],
          [
            25.6291741,
            45.9747688
          ],
          [
            25.6283374,
            45.9746902
          ],
          [
            25.6277892,
            45.9745687
          ],
          [
            25.6272972,
            45.9745881
          ],
          [
            25.6267093,
            45.9745999
          ],
          [
            25.6263814,
            45.974702
          ],
          [
            25.6237809,
            45.975421
          ],
          [
            25.623289,
            45.9755899
          ],
          [
            25.6215535,
            45.9764543
          ],
          [
            25.6211125,
            45.9766861
          ],
          [
            25.6209033,
            45.9768314
          ],
          [
            25.6202589,
            45.9770161
          ],
          [
            25.6197218,
            45.9770711
          ],
          [
            25.619213,
            45.9770868
          ],
          [
            25.6187777,
            45.9770357
          ],
          [
            25.618235,
            45.9769964
          ],
          [
            25.6174944,
            45.97702
          ],
          [
            25.6169121,
            45.9770004
          ],
          [
            25.6164316,
            45.97691
          ],
          [
            25.6159397,
            45.9768275
          ],
          [
            25.6152387,
            45.9765761
          ],
          [
            25.6143455,
            45.9762893
          ],
          [
            25.6138198,
            45.976136
          ],
          [
            25.6130453,
            45.9760614
          ],
          [
            25.612639,
            45.9760586
          ],
          [
            25.6124856,
            45.9760575
          ],
          [
            25.6121407,
            45.9760143
          ],
          [
            25.6113775,
            45.9758807
          ],
          [
            25.6109083,
            45.9758021
          ],
          [
            25.6104052,
            45.9756489
          ],
          [
            25.6101621,
            45.9754681
          ],
          [
            25.6099416,
            45.9752481
          ],
          [
            25.6096476,
            45.9747924
          ],
          [
            25.6094498,
            45.9741873
          ],
          [
            25.6094158,
            45.9739948
          ],
          [
            25.6092689,
            45.9738809
          ],
          [
            25.6090993,
            45.9738337
          ],
          [
            25.6089862,
            45.9738298
          ],
          [
            25.6086131,
            45.9738219
          ],
          [
            25.6080364,
            45.9737551
          ],
          [
            25.6077255,
            45.9737158
          ],
          [
            25.6073411,
            45.9736805
          ],
          [
            25.6062783,
            45.9736805
          ],
          [
            25.6052211,
            45.9736648
          ],
          [
            25.6045314,
            45.973598
          ],
          [
            25.603836,
            45.9734919
          ],
          [
            25.6033951,
            45.9734801
          ],
          [
            25.6029202,
            45.9735548
          ],
          [
            25.602157,
            45.9737276
          ],
          [
            25.6014617,
            45.9739516
          ],
          [
            25.6009748,
            45.9740734
          ],
          [
            25.6007098,
            45.9741127
          ],
          [
            25.6002518,
            45.9741009
          ],
          [
            25.599777,
            45.974042
          ],
          [
            25.5991268,
            45.9738927
          ],
          [
            25.5986689,
            45.9737158
          ],
          [
            25.5982902,
            45.9734094
          ],
          [
            25.5980527,
            45.9732208
          ],
          [
            25.5978209,
            45.9731972
          ],
          [
            25.5975156,
            45.9732326
          ],
          [
            25.5972782,
            45.9732719
          ],
          [
            25.5970295,
            45.9731658
          ],
          [
            25.5967016,
            45.9729733
          ],
          [
            25.5964528,
            45.9729183
          ],
          [
            25.5958197,
            45.9730951
          ],
          [
            25.5951073,
            45.9730518
          ],
          [
            25.5940728,
            45.9731658
          ],
          [
            25.5930382,
            45.9728672
          ],
          [
            25.5926199,
            45.9725804
          ],
          [
            25.5915571,
            45.9723014
          ],
          [
            25.5906469,
            45.9722582
          ],
          [
            25.5896884,
            45.972785
          ],
          [
            25.5894914,
            45.9729312
          ],
          [
            25.5893189,
            45.9730363
          ],
          [
            25.5893118,
            45.9731104
          ],
          [
            25.5893261,
            45.973221
          ],
          [
            25.5892223,
            45.9734369
          ],
          [
            25.5892166,
            45.9735744
          ],
          [
            25.5891657,
            45.9737826
          ],
          [
            25.5890074,
            45.9739555
          ],
          [
            25.5887078,
            45.9740184
          ],
          [
            25.5883856,
            45.9740341
          ],
          [
            25.5879333,
            45.9739359
          ],
          [
            25.5873284,
            45.9736923
          ],
          [
            25.5866613,
            45.9733858
          ],
          [
            25.5857907,
            45.9731226
          ],
          [
            25.5852367,
            45.9728829
          ],
          [
            25.5847166,
            45.9725136
          ],
          [
            25.5845752,
            45.9723368
          ],
          [
            25.5842869,
            45.9722582
          ],
          [
            25.5825514,
            45.9717553
          ],
          [
            25.5820595,
            45.9716177
          ],
          [
            25.5815055,
            45.9715706
          ],
          [
            25.5811154,
            45.9715077
          ],
          [
            25.5807932,
            45.9713034
          ],
          [
            25.5806292,
            45.9711855
          ],
          [
            25.5804936,
            45.9709066
          ],
          [
            25.5803409,
            45.970714
          ],
          [
            25.5801487,
            45.9706158
          ],
          [
            25.5797643,
            45.9705333
          ],
          [
            25.5795269,
            45.970494
          ],
          [
            25.579312,
            45.9704154
          ],
          [
            25.5789954,
            45.9702543
          ],
          [
            25.5787241,
            45.9700854
          ],
          [
            25.5785545,
            45.9699911
          ],
          [
            25.5781588,
            45.9698968
          ],
          [
            25.5775934,
            45.9698653
          ],
          [
            25.5771185,
            45.9699164
          ],
          [
            25.5767059,
            45.9700028
          ],
          [
            25.5762084,
            45.9700107
          ],
          [
            25.5758353,
            45.9699203
          ],
          [
            25.5756317,
            45.9698142
          ],
          [
            25.5753717,
            45.9696138
          ],
          [
            25.5751682,
            45.9693977
          ],
          [
            25.5748459,
            45.9692681
          ],
          [
            25.5746085,
            45.9691738
          ],
          [
            25.5741788,
            45.9692052
          ],
          [
            25.5737718,
            45.9692484
          ],
          [
            25.5734043,
            45.9692209
          ],
          [
            25.5728729,
            45.9691109
          ],
          [
            25.572398,
            45.9689773
          ],
          [
            25.572008,
            45.9688044
          ],
          [
            25.5716631,
            45.9686944
          ],
          [
            25.5712391,
            45.9686905
          ],
          [
            25.5707247,
            45.9686826
          ],
          [
            25.5703233,
            45.9685804
          ],
          [
            25.5698541,
            45.9682779
          ],
          [
            25.5696619,
            45.9681521
          ],
          [
            25.5691757,
            45.9681168
          ],
          [
            25.5687121,
            45.9680814
          ],
          [
            25.5682033,
            45.9680814
          ],
          [
            25.5671574,
            45.9682072
          ],
          [
            25.5665525,
            45.9683211
          ],
          [
            25.5658572,
            45.9684861
          ],
          [
            25.5650827,
            45.9687494
          ],
          [
            25.5640142,
            45.9690716
          ],
          [
            25.5635337,
            45.9691502
          ],
          [
            25.5631323,
            45.9691423
          ],
          [
            25.562844,
            45.9690402
          ],
          [
            25.56268,
            45.9689105
          ],
          [
            25.562273,
            45.9684822
          ],
          [
            25.5619903,
            45.9681128
          ],
          [
            25.561685,
            45.967826
          ],
          [
            25.5612837,
            45.9676138
          ],
          [
            25.5608653,
            45.9674724
          ],
          [
            25.5601926,
            45.9673938
          ],
          [
            25.5596442,
            45.9673505
          ],
          [
            25.5592146,
            45.967378
          ],
          [
            25.5587227,
            45.9675234
          ],
          [
            25.558254,
            45.9676063
          ],
          [
            25.558111,
            45.9676316
          ],
          [
            25.5575525,
            45.9677867
          ],
          [
            25.5572868,
            45.9678614
          ],
          [
            25.5568119,
            45.9680971
          ],
          [
            25.5554274,
            45.9687175
          ],
          [
            25.5548512,
            45.9688854
          ],
          [
            25.5541078,
            45.9688596
          ],
          [
            25.55329,
            45.968795
          ],
          [
            25.5527881,
            45.9688338
          ],
          [
            25.5522584,
            45.9691309
          ],
          [
            25.5520353,
            45.9692924
          ],
          [
            25.5516543,
            45.9696864
          ],
          [
            25.5510781,
            45.9702354
          ],
          [
            25.5502138,
            45.9708426
          ],
          [
            25.549554,
            45.9712043
          ],
          [
            25.5489964,
            45.97165
          ],
          [
            25.5484388,
            45.972199
          ],
          [
            25.5482307,
            45.9726045
          ],
          [
            25.5478732,
            45.9733249
          ],
          [
            25.5474324,
            45.9735485
          ],
          [
            25.5469796,
            45.9735734
          ],
          [
            25.5439173,
            45.9747493
          ],
          [
            25.5420792,
            45.9755368
          ]
        ]
      },
      "properties": {
        "slug": "romsilva-covasna-aita",
        "sourceIds": [
          {
            "type": "way",
            "id": 667571196
          }
        ],
        "geometryHash": "080cb024d599bde1c9daf587b593314267c233a1ea56dbfb2528be1c15e6026c"
      }
    }
  ]
}
