{"type":"FeatureCollection","metadata":{"pipeline":"tier1_premap","pipeline_version":"1.0","generated_at":"2026-08-11T10:41:03.230524+00:00"},"features":[{"type":"Feature","id":"arges","geometry":{"type":"MultiLineString","coordinates":[[[25.7433025,44.4365394],[25.7448786,44.4357994],[25.7457154,44.4353551],[25.7465523,44.4347728],[25.747196,44.4342059],[25.7477324,44.4334551],[25.7480972,44.4326584],[25.7484835,44.4316777],[25.7486122,44.4310802],[25.7489341,44.4306818],[25.7495349,44.4304366],[25.7503717,44.4303447],[25.75123,44.4304519],[25.7518738,44.4306358],[25.7527964,44.4309423],[25.7536977,44.4310035],[25.7548564,44.4308963],[25.7565515,44.4307124],[25.7586544,44.4305132],[25.7603495,44.4306664],[25.761401,44.4307431],[25.7621309,44.4307077],[25.7651013,44.4299409],[25.7673351,44.4297578],[25.7691878,44.4302805],[25.7721341,44.431546],[25.7735396,44.4320547],[25.7749118,44.4320049],[25.7756921,44.4314432],[25.776622,44.4303883],[25.777697,44.4283864],[25.778271,44.4270938],[25.779812,44.4256815],[25.7841035,44.4255589],[25.7878027,44.425823],[25.790062,44.4252618],[25.791108,44.4247829],[25.7930394,44.4227252],[25.7962915,44.4186933],[25.7959725,44.4162856],[25.7945048,44.4134049],[25.7956048,44.411459],[25.7966348,44.4076575],[25.7990381,44.4069217],[25.7995029,44.4056724],[25.8001284,44.404561],[25.8009263,44.4023841],[25.8024962,44.4016637],[25.8052406,44.4010213],[25.8079644,44.3994406],[25.8096035,44.399172],[25.8117337,44.3998753],[25.8136293,44.4000539],[25.8163759,44.3995633],[25.8185385,44.3988796],[25.821354,44.3985821],[25.8244439,44.3976009],[25.8258172,44.3952704],[25.8252702,44.3928346],[25.8250986,44.392068],[25.8255706,44.391056],[25.8263322,44.3901186],[25.8289071,44.3890146],[25.8318254,44.3893826],[25.8349153,44.3902413],[25.8392726,44.3904443],[25.8417817,44.3898733],[25.843155,44.3881559],[25.8445294,44.3869397],[25.8451749,44.3864583],[25.8456229,44.3863034],[25.8460399,44.3862409],[25.8465926,44.3862455],[25.8475,44.3862769],[25.8480347,44.3862341],[25.8485485,44.3861241],[25.8497838,44.3855513],[25.85024,44.3855211],[25.8507171,44.3856773],[25.8510984,44.3860366],[25.85119,44.3862513],[25.8511841,44.3864373],[25.8510895,44.3865935],[25.8508668,44.3867376],[25.8507193,44.3868719],[25.8507387,44.3870173],[25.8508622,44.3872772],[25.8510587,44.3874476],[25.8515991,44.3875331],[25.8521227,44.3874008],[25.8530311,44.3878295],[25.8534415,44.3884977],[25.8541646,44.3888231],[25.8546293,44.3888665],[25.8549897,44.3888279],[25.8555501,44.3886185],[25.8569773,44.3878116],[25.8574862,44.3875154],[25.8577807,44.3871923],[25.8579396,44.3866902],[25.8580458,44.386195],[25.8579641,44.3856998],[25.8570643,44.3847017],[25.8567878,44.3844277],[25.856739,44.3840723],[25.8568686,44.383785],[25.8571129,44.3835126],[25.8575843,44.383197],[25.8577136,44.3828587],[25.8577177,44.3825241],[25.8575284,44.3819342],[25.8568879,44.3809178],[25.8566063,44.3804426],[25.8564146,44.3800801],[25.8560919,44.379364],[25.8559923,44.3787202],[25.8560383,44.3780971],[25.8566502,44.3772531],[25.8566621,44.3766734],[25.8560773,44.3753758],[25.8569163,44.3734065],[25.8573465,44.3723174],[25.8577567,44.3719496],[25.8583314,44.3715949],[25.8614911,44.3705704],[25.8637699,44.3689353],[25.8650616,44.3679229],[25.8658983,44.3666971],[25.8661869,44.3657456],[25.8661633,44.3649793],[25.8657545,44.3638104],[25.8657556,44.3634637],[25.8660009,44.3630824],[25.8664154,44.3628409],[25.8669025,44.3624681],[25.8673284,44.3619573],[25.8677029,44.3609003],[25.8679689,44.3603564],[25.8696126,44.3581526],[25.8701926,44.357612],[25.8714698,44.3567235],[25.8731767,44.3557186],[25.8738269,44.3555145],[25.8747131,44.3555314],[25.8759921,44.355754],[25.8786625,44.3565522],[25.8802813,44.3572513],[25.8811987,44.3574967],[25.8822737,44.3576571],[25.8833584,44.3576555],[25.8847617,44.3575635],[25.8872455,44.3577182],[25.8891767,44.3576569],[25.8908504,44.35735],[25.8917087,44.3568591],[25.8926529,44.3560613],[25.8932537,44.3547725],[25.8932537,44.3539747],[25.89261,44.3526245],[25.8912741,44.3509798],[25.8895076,44.3485121],[25.8888017,44.3477645],[25.8878725,44.3472746],[25.8866704,44.3467306],[25.886318,44.3464173],[25.8861292,44.3460535],[25.8860597,44.3456729],[25.8861355,44.3452299],[25.8863405,44.3448132],[25.8867453,44.3443379],[25.8871924,44.3440753],[25.8876392,44.3438745],[25.8881813,44.3437526],[25.8886365,44.3436995],[25.8891346,44.3437001],[25.8896369,44.3437786],[25.8907548,44.3442558],[25.8932885,44.3448769],[25.8950539,44.3449632],[25.8963226,44.3446183],[25.8973306,44.3439702],[25.89814,44.3427086],[25.8996453,44.3411924],[25.9013356,44.3394022],[25.9025651,44.3385416],[25.9052656,44.3373016],[25.9098619,44.3350998],[25.9123081,44.3341175],[25.915913,44.3330431],[25.9198907,44.3321495],[25.9241527,44.3315082],[25.9297623,44.3309822],[25.9351391,44.330311],[25.9413014,44.3293295],[25.9453119,44.3286119],[25.945398,44.3285963],[25.9456711,44.328547],[25.9488984,44.3280157],[25.9507,44.3277365],[25.9522751,44.3275425],[25.9531039,44.3271196],[25.9535017,44.326562],[25.9536036,44.3249295],[25.9534936,44.32373],[25.953374,44.3232249],[25.9524528,44.3226304],[25.951235,44.3222038],[25.950142,44.3217352],[25.9493689,44.3210424],[25.9488958,44.3203009],[25.9486761,44.3193502],[25.9485895,44.3183685],[25.9491774,44.3174719],[25.9502219,44.3167143],[25.9509745,44.3165116],[25.9523655,44.3166502],[25.9535328,44.3166797],[25.9542511,44.3164809],[25.9553556,44.3160127],[25.9592652,44.3155904],[25.9617586,44.3154646],[25.9646622,44.3159309],[25.9674517,44.3173434],[25.9696507,44.3190916],[25.9700611,44.3198017],[25.9702713,44.3205585],[25.9697906,44.3217955],[25.9679453,44.3238065],[25.9679453,44.3252648],[25.96872,44.326913],[25.9703936,44.3276206],[25.9731971,44.3276559],[25.9746305,44.3273911],[25.9758428,44.3262008],[25.976421,44.32396],[25.9779092,44.3222439],[25.9833304,44.3195541],[25.9867207,44.3188633],[25.9914414,44.3175123],[25.9929188,44.3168126],[25.9938972,44.3159136],[25.9956739,44.3135307],[25.9964009,44.3120079],[25.996593,44.3110734],[25.9965537,44.3101757],[25.996236,44.3092806],[25.9958583,44.308524],[25.9957907,44.307839],[25.9957544,44.3074708],[25.9960152,44.3066472],[25.9964605,44.3061516],[25.9969284,44.3059438],[25.9974191,44.3058192],[25.9980275,44.3057196],[25.9983523,44.305667],[25.9987246,44.3055689],[25.9993315,44.3054026],[26.0001364,44.3052744],[26.0009589,44.305294],[26.0014256,44.3053823],[26.002063,44.3056589],[26.0025143,44.3056967],[26.0032653,44.3057044],[26.0040017,44.3056621],[26.0071941,44.3049713],[26.0089799,44.304188],[26.0099808,44.3030484],[26.0101204,44.3022433],[26.0101159,44.3009747],[26.0101287,44.2993382],[26.0103532,44.298291],[26.0112612,44.2970628],[26.0125848,44.2957108],[26.0138551,44.2951998],[26.0157625,44.2944604],[26.0167698,44.2939511],[26.0182022,44.293706],[26.0201206,44.2931137],[26.0221978,44.292762],[26.0258248,44.292235],[26.0272053,44.292121],[26.0284104,44.2923143],[26.0294688,44.292676],[26.030112,44.2927447],[26.0307468,44.2926408],[26.0310349,44.2923974],[26.0319869,44.2913446],[26.0335246,44.2896957],[26.0340401,44.2887538],[26.0345001,44.2880418],[26.035276,44.287169],[26.0363094,44.2852631],[26.039292,44.2827899],[26.0439269,44.2781659],[26.0493203,44.2734679],[26.0537835,44.270518],[26.0568093,44.268837],[26.0575786,44.2684982],[26.0592767,44.2679366],[26.0624411,44.267291],[26.0727065,44.2675369],[26.0773352,44.2682686],[26.0783381,44.2682853],[26.0791505,44.2681848],[26.0806198,44.2677688],[26.0821348,44.2675506],[26.0832382,44.2675452],[26.083875,44.2675225],[26.0846351,44.2672369],[26.0852826,44.2667593],[26.0869048,44.265361],[26.0875932,44.2632928],[26.0887305,44.2597277],[26.0900041,44.2558888],[26.0928718,44.2537647],[26.0968249,44.2519295],[26.1004035,44.2506754],[26.1028496,44.2487388],[26.1065618,44.2468482],[26.1112359,44.2457137],[26.1114388,44.2458253],[26.1127415,44.2465836],[26.1132786,44.2466421],[26.1205177,44.2444135],[26.1214862,44.2442717],[26.1246789,44.2440479],[26.1252781,44.2438947],[26.1298869,44.2416064],[26.135151,44.2383045],[26.1390273,44.235903],[26.1396146,44.2356757],[26.1402839,44.2354954],[26.1448208,44.2346116],[26.1475157,44.2339841],[26.1491588,44.2334156],[26.1502467,44.2329359],[26.1515057,44.2321737],[26.152838,44.2307279],[26.1547357,44.2269522],[26.1555983,44.2253377],[26.1568723,44.2237339],[26.1573964,44.2221443],[26.1575025,44.2214281],[26.1576733,44.2209721],[26.158031,44.2204143],[26.1585328,44.2194993],[26.1588705,44.2192377],[26.1590415,44.2191053],[26.1612892,44.2168539],[26.162052,44.2163664],[26.1628158,44.2160516],[26.1636616,44.2158797],[26.1650327,44.2157665],[26.1674071,44.2156414],[26.1698349,44.2152686],[26.1741962,44.2148069],[26.1762073,44.2143578],[26.177608,44.2137042],[26.1796405,44.211872],[26.1831623,44.2099306],[26.1854402,44.2082697],[26.186302,44.2073251],[26.18792,44.205652],[26.1890137,44.2046314],[26.189882,44.2037744],[26.1919993,44.202268],[26.193672,44.2009463],[26.1944107,44.2003492],[26.1950012,44.1997398],[26.1959259,44.1983092],[26.1961756,44.1977689],[26.1962436,44.1973649],[26.1962791,44.1967227],[26.1962576,44.1963216],[26.1960483,44.195217],[26.1961159,44.1936939],[26.1959746,44.1932057],[26.1959453,44.1927022],[26.1959891,44.1925056],[26.1960955,44.1923417],[26.1965543,44.192097],[26.1972134,44.1915412],[26.1984466,44.1909009],[26.1992421,44.1905361],[26.2000736,44.1902396],[26.2005804,44.1899105],[26.2013692,44.1892953],[26.2016553,44.1889734],[26.2019422,44.1887757],[26.2022862,44.1886311],[26.2034003,44.1883632],[26.2055603,44.1877521],[26.2065899,44.1874334],[26.2098257,44.186177],[26.2116944,44.1855621],[26.2143775,44.1846769],[26.2160662,44.1841376],[26.2169923,44.1837668],[26.2183479,44.1830386],[26.2189705,44.1828696],[26.2228624,44.182747],[26.2282268,44.1821468],[26.2330333,44.180962],[26.239535,44.1791461],[26.240451,44.1780409],[26.2410993,44.1776052],[26.2420194,44.1773255],[26.2433702,44.1771558],[26.2452053,44.177188],[26.2463156,44.1772071],[26.2477499,44.176959],[26.2498728,44.176282],[26.251539,44.1758542],[26.2551991,44.1742831],[26.2582676,44.1733751],[26.2653271,44.1737598],[26.2719651,44.1728397],[26.2778016,44.1730859],[26.2831231,44.1730859],[26.287243,44.1713622],[26.2925645,44.1708697],[26.298401,44.1719778],[26.3047525,44.1744402],[26.3097307,44.1770257],[26.3147088,44.1809652],[26.320717,44.1834272],[26.3280984,44.1863816],[26.3318409,44.1869267],[26.3342227,44.1867644],[26.3394281,44.185643],[26.3440629,44.1845351],[26.3471528,44.1846582],[26.3497278,44.1858892],[26.3535043,44.188228],[26.3555964,44.189499],[26.3577173,44.1912975],[26.3585441,44.1916392],[26.3598789,44.1917387],[26.3608183,44.1919582],[26.3621184,44.1920281],[26.3633588,44.1920946],[26.3650115,44.1917053],[26.3656194,44.1911254],[26.370751,44.1894857],[26.3736682,44.1891438],[26.3758203,44.1893358],[26.3822228,44.1910574],[26.3864633,44.1924129],[26.3910981,44.1937668],[26.396299,44.1953825],[26.4011061,44.1980147],[26.4036839,44.199648],[26.4051158,44.2001882],[26.4066948,44.200427],[26.4081385,44.2003166],[26.4096632,44.1997642],[26.4113542,44.1994281],[26.4166968,44.1986632],[26.4181341,44.1987001],[26.421932,44.1993924],[26.4278337,44.2006588],[26.4316102,44.2028739],[26.4340985,44.2064514],[26.4370318,44.2106512],[26.439842,44.2148244],[26.4427682,44.2196077],[26.4438809,44.2213616],[26.4453322,44.2228306],[26.4467852,44.2236915],[26.4511223,44.2249137],[26.4558714,44.2255896],[26.457006,44.2257502],[26.4589844,44.2257287],[26.4604708,44.225147],[26.4628983,44.2248564],[26.4649024,44.2247991],[26.4673194,44.22536],[26.4695474,44.2264967],[26.4718732,44.2274171],[26.4745256,44.2277268],[26.4805337,44.2287108],[26.4868014,44.2291991],[26.4923784,44.2277268],[26.497115,44.2250879],[26.4981624,44.2246456],[26.4997062,44.2240966],[26.5013047,44.2236674],[26.5035527,44.2234631],[26.5053142,44.2234082],[26.5064546,44.2232983],[26.5079972,44.2230737],[26.5101453,44.2225432],[26.5107461,44.2223142],[26.514866,44.2197307],[26.5195009,44.2172702],[26.5225908,44.2151786],[26.5242502,44.214569],[26.5251657,44.2144404],[26.526878,44.214485],[26.529415,44.2151091],[26.5326784,44.2159273],[26.533769,44.2160245],[26.5346575,44.2159189],[26.5374451,44.2152729],[26.5394332,44.2144862],[26.5411302,44.2134561],[26.5433983,44.2124541],[26.5438112,44.2121288],[26.5443454,44.2112646],[26.5451547,44.2106976],[26.546061,44.2102582],[26.5501403,44.2093669],[26.5511618,44.2093094],[26.5555497,44.2076731],[26.558983,44.205212],[26.5631028,44.2012741],[26.5673944,44.1980744],[26.5699693,44.1961052],[26.5701329,44.1956359],[26.5706675,44.195043],[26.5706559,44.194136],[26.5720292,44.192536],[26.5734025,44.1901974],[26.5734025,44.1879818],[26.5718576,44.1852737],[26.5702046,44.1818269],[26.5697976,44.1783799],[26.5711709,44.1749327],[26.5742608,44.1725934],[26.5777282,44.1711874],[26.5806319,44.1696825],[26.5816508,44.1686251],[26.5825364,44.166737],[26.5814706,44.163851],[26.5809556,44.1610187],[26.5811273,44.1584326],[26.5838739,44.1564621],[26.5878221,44.1541221],[26.5886804,44.1517819],[26.5902253,44.1493186],[26.5917703,44.1477173],[26.5945169,44.1464855],[26.5988084,44.1453769],[26.6080781,44.1422974],[26.6108247,44.1409423],[26.6143271,44.1371208],[26.6170737,44.1358249],[26.6204377,44.1352753],[26.6249009,44.1342897],[26.6279908,44.1324416],[26.6303941,44.129731],[26.6307374,44.1264042],[26.628828,44.1226381],[26.6285571,44.1208034],[26.6287928,44.1186312],[26.629454,44.1169159],[26.6310807,44.1155599],[26.634514,44.1128485],[26.6352092,44.1116166],[26.6354864,44.110396],[26.6352802,44.1088661],[26.6346856,44.1049601],[26.6360589,44.1020017],[26.6367289,44.0987809],[26.6356016,44.0968221],[26.6306776,44.0939487],[26.6264428,44.0911451],[26.6228288,44.0883987],[26.6206856,44.0850868],[26.6180724,44.0809489],[26.6175125,44.0804577],[26.6166241,44.0801446],[26.6153341,44.0799107],[26.6128385,44.0795142],[26.6097863,44.0790085],[26.6069562,44.0782536],[26.6062684,44.0779637],[26.6057541,44.0775023],[26.6056188,44.0768841],[26.6056508,44.0765225],[26.6059494,44.075816],[26.6064299,44.0751269],[26.6071923,44.0747799],[26.6079336,44.0745969],[26.6089966,44.0744991],[26.6117519,44.0748845],[26.612795,44.0748869],[26.6136862,44.0748114],[26.6160514,44.0743593],[26.6183125,44.0744059],[26.6196655,44.0743034],[26.6204761,44.0741073],[26.6214322,44.073889],[26.6223341,44.0732264],[26.6225876,44.0718949],[26.622841,44.0701894],[26.622326,44.0669825],[26.620793,44.0643964],[26.618153,44.0619805],[26.6161702,44.059373],[26.6162588,44.0587774],[26.6180774,44.0553948]],[[24.6143317,45.4312865],[24.615767,45.4275885],[24.6168828,45.4256608],[24.6180415,45.4243657],[24.6195006,45.42295],[24.6209168,45.4216247],[24.6217752,45.4204499],[24.6222472,45.4192149],[24.6229339,45.4158411],[24.6233201,45.4123164],[24.6234059,45.409635],[24.6231484,45.405899],[24.6229339,45.4034886],[24.6225905,45.4008068],[24.6220756,45.3980346],[24.621861,45.3965278],[24.621861,45.394569],[24.6219561,45.3923986],[24.6225476,45.3901388],[24.623878,45.3870044],[24.6252942,45.3840506],[24.6266246,45.3815789],[24.6281266,45.3789262],[24.6297574,45.3764242],[24.6315169,45.3746154],[24.6325469,45.3733794],[24.6332336,45.3722338],[24.6335769,45.3709676],[24.6336511,45.3703087],[24.6336627,45.369641],[24.6334589,45.3690877],[24.6331048,45.3685255],[24.6326254,45.368146],[24.6311309,45.3670974],[24.6308874,45.3668726],[24.6307556,45.3666549]],[[24.9213942,44.837329],[24.9222711,44.8373581],[24.9231698,44.83731],[24.9240948,44.837204],[24.9249545,44.8369901],[24.9258407,44.8366249],[24.9267398,44.8361376],[24.9275391,44.8352859],[24.928435,44.8333248],[24.9290408,44.8321786],[24.9294238,44.8313704],[24.9300008,44.8307699],[24.9317073,44.8299884],[24.9336905,44.8290978],[24.9359371,44.828631]],[[24.9039003,44.845621],[24.9051738,44.8451532],[24.9057463,44.8449751],[24.9062003,44.8449297],[24.9065776,44.8449524],[24.911168,44.8454214],[24.9116701,44.8453815],[24.9120842,44.845235],[24.9283608,44.8357944],[24.9295835,44.8342877],[24.930413,44.8339111],[24.9317652,44.8326701],[24.932467,44.8313761],[24.9342897,44.8294147],[24.9359371,44.828631]],[[24.9359371,44.828631],[24.9369048,44.8281668],[24.9381178,44.8273106],[24.9391692,44.8265953],[24.9404567,44.8258267],[24.9414974,44.8252408],[24.9428079,44.8246441],[24.9444483,44.824157],[24.9464696,44.8239158],[24.9480403,44.8240653],[24.9496067,44.8243324],[24.9519928,44.8244614],[24.9529391,44.8242244],[24.95477,44.8235856],[24.9785815,44.8174742],[24.9960919,44.8076255],[25.0016248,44.8040268],[25.00267,44.8033795],[25.0033675,44.8028597],[25.0039236,44.802574],[25.0044114,44.8024624],[25.0051809,44.8023354],[25.0073717,44.8011003],[25.008456,44.8008897],[25.0097271,44.8010635],[25.0109143,44.8016636],[25.0124651,44.8026319],[25.0142063,44.8033299],[25.0162622,44.8037552],[25.0178652,44.8037529],[25.0190781,44.803405],[25.0200603,44.8031398],[25.0209971,44.8024951],[25.0222974,44.8014104],[25.0229255,44.8006708],[25.0231536,44.7996929],[25.0230514,44.7980606],[25.0239183,44.7970987],[25.0277635,44.7958378],[25.0296346,44.7957925],[25.0317179,44.7960936],[25.0337716,44.7965687],[25.036405,44.7975851],[25.0372787,44.7974852],[25.0379041,44.7973959],[25.0381605,44.796946],[25.0388278,44.7962148],[25.0392474,44.7954622],[25.0393149,44.7944098],[25.0394726,44.7932551],[25.0376053,44.7909133],[25.0377531,44.7902859],[25.0396468,44.7900617],[25.0410654,44.7896045],[25.0428025,44.7896122],[25.0457879,44.7891376],[25.0477319,44.7880906],[25.0493928,44.7869446],[25.0505063,44.7863767],[25.0529977,44.7860918],[25.0553238,44.7863055],[25.0562845,44.7866675],[25.0568204,44.7866935],[25.0572892,44.7864573],[25.0596925,44.7856044],[25.0619155,44.7846986],[25.0623241,44.7843128]],[[25.3849908,44.6604651],[25.3881584,44.6564328],[25.3891596,44.6557151],[25.3912483,44.654804],[25.3917312,44.6543306],[25.3918257,44.6534705],[25.3916264,44.6512667],[25.3916241,44.6501559],[25.3928658,44.6494348],[25.3944377,44.648907],[25.3953373,44.6483499],[25.3958356,44.647615],[25.3960231,44.6469353],[25.3961515,44.6463774],[25.3967132,44.6458908],[25.3973416,44.6456298],[25.3980865,44.6456176],[25.3998889,44.6455047],[25.4020388,44.6456566],[25.4039831,44.6451177],[25.4083061,44.6437482],[25.4097005,44.6432984],[25.410321,44.6428405],[25.4105919,44.6421891],[25.4107852,44.6414273],[25.4114644,44.6409082],[25.4125419,44.6408006],[25.4128427,44.6409694],[25.413765,44.6418095],[25.4144786,44.6420223],[25.4151267,44.6420596],[25.4157421,44.6416569],[25.4163993,44.6402879],[25.4167473,44.6397002],[25.4172507,44.6391677],[25.4179368,44.6388546],[25.4189789,44.6387809],[25.4200598,44.6391494],[25.4215096,44.639753],[25.4222295,44.6397751],[25.4231824,44.6397143],[25.4242518,44.6399298],[25.4252435,44.6407119],[25.4261073,44.6414545],[25.4269712,44.6416998],[25.4283205,44.6417378],[25.4295144,44.6415823],[25.4308226,44.6412452],[25.4315155,44.6408141],[25.4327522,44.6392224],[25.433141,44.6390479],[25.4336463,44.6390669],[25.4346371,44.6399288],[25.4352977,44.6401274],[25.4360334,44.6400855],[25.4365652,44.6397733],[25.4368035,44.6391567],[25.4368282,44.6385401],[25.4370859,44.6381446],[25.4377908,44.6379873],[25.4386191,44.6382195],[25.4393114,44.6381616],[25.4399386,44.6377556],[25.4406824,44.6373219],[25.4414213,44.636045],[25.4418684,44.6353236],[25.4422668,44.6349629],[25.4427428,44.6347128],[25.4436388,44.6346216],[25.444729,44.6346962],[25.4470633,44.636421],[25.4480244,44.6368663],[25.4499177,44.6374498],[25.4512929,44.637627],[25.4526019,44.6372596],[25.4533089,44.6367264],[25.455372,44.6342076],[25.4562598,44.6335496],[25.4571671,44.6332647],[25.4605603,44.6333443],[25.4618951,44.6332304],[25.4634269,44.632632],[25.464018,44.6321532],[25.4642984,44.631398],[25.4634398,44.6288903],[25.4638968,44.6251851],[25.4645712,44.6241773],[25.4655812,44.6239403],[25.4667016,44.62419],[25.4711117,44.6257631],[25.4715681,44.6260293],[25.4721238,44.6260206],[25.4725051,44.6257637],[25.4727108,44.6254234],[25.4738052,44.6226593],[25.4743692,44.6223395],[25.475628,44.6223573],[25.4792887,44.6225239],[25.4804345,44.6222352],[25.4811529,44.6215492],[25.4811212,44.620769],[25.4807262,44.6201092],[25.4794046,44.6196693],[25.4772571,44.6189575],[25.4766759,44.6181359],[25.476574,44.6173722],[25.4769794,44.616585],[25.4784963,44.6161412],[25.4799637,44.6163216],[25.4815962,44.61748],[25.4826551,44.6187954],[25.4835392,44.6191887],[25.4842539,44.6192811],[25.4850016,44.6193029],[25.4858707,44.6191087],[25.4864376,44.6187761],[25.4867729,44.6183571],[25.4868398,44.6174688],[25.4867519,44.6168636],[25.4864434,44.6162585],[25.4855844,44.6153926],[25.4848024,44.6136339],[25.4850071,44.6129979],[25.4853411,44.6125936],[25.486028,44.6124248],[25.4864815,44.6124014],[25.4871555,44.6125193],[25.4889066,44.6134468],[25.4910665,44.6138345],[25.4921428,44.6138464],[25.4928706,44.6137367],[25.4935611,44.6135206],[25.4939685,44.6132945],[25.4943901,44.6128063],[25.4946541,44.6123657],[25.4947553,44.6119855],[25.4946748,44.6115982],[25.4945036,44.611324],[25.4941413,44.6110144],[25.4934084,44.6107872],[25.4924917,44.6107105],[25.4918368,44.610649],[25.4913606,44.6105553],[25.4906012,44.6102499],[25.4886439,44.6094436],[25.4881486,44.6091302],[25.4878302,44.6088067],[25.4876085,44.6084204],[25.4874504,44.6080542],[25.4873706,44.6077288],[25.4873545,44.6074084],[25.4874143,44.6071406],[25.4876224,44.6067399],[25.4879083,44.60645],[25.4890596,44.6055961],[25.4897794,44.6049212],[25.49004,44.6044071],[25.4905953,44.6040424],[25.4912492,44.603783],[25.4933079,44.6035927],[25.4940356,44.6032444],[25.4947792,44.6026653],[25.4955812,44.6009463],[25.4961405,44.6003111],[25.4975814,44.599404],[25.4986014,44.5988302],[25.4989639,44.5984804],[25.4991801,44.5981306],[25.4992673,44.5977714],[25.499091,44.5973706],[25.4986267,44.5968619],[25.4984497,44.5964475],[25.4983752,44.5960747],[25.4984795,44.5957461],[25.498974,44.5953492],[25.5004072,44.5949599],[25.5007037,44.5946925],[25.5009124,44.5943626],[25.5009873,44.5937024],[25.5006776,44.5931877],[25.5001473,44.592893],[25.4993841,44.592786],[25.4986702,44.5927667],[25.4974642,44.5928686],[25.4970674,44.5926835],[25.4968524,44.5924775],[25.4966876,44.5919634],[25.4969542,44.5915985],[25.4980975,44.5910322],[25.5017206,44.5900928],[25.5037325,44.5885883],[25.5042602,44.5880399],[25.5046572,44.5874782],[25.5047452,44.5868195],[25.5046744,44.5862539],[25.5041818,44.5857725],[25.5035866,44.5854441],[25.502699,44.5852784],[25.5014752,44.5854055],[25.5008162,44.5854596],[25.500288,44.5854007],[25.4999187,44.5852452],[25.4997082,44.5850232],[25.4995997,44.5848237],[25.4996219,44.5846375],[25.4997519,44.5844686],[25.4999566,44.584313],[25.5012138,44.5839937],[25.502775,44.583713],[25.5036361,44.5837553],[25.5048105,44.5842246],[25.5056999,44.5846881],[25.5065238,44.5854643],[25.5070193,44.5857529],[25.5075428,44.5858486],[25.5086278,44.5857445],[25.5093322,44.5854319],[25.5126928,44.5828717],[25.5139165,44.5821669],[25.5174376,44.5817656],[25.5177786,44.5817634],[25.5183831,44.5814902],[25.5187813,44.5807666],[25.5191672,44.5793219],[25.5195954,44.5787721],[25.5201478,44.5781702],[25.5211784,44.5776782],[25.5217342,44.577442],[25.5221878,44.5770893],[25.5223193,44.5768201],[25.522112,44.5753414],[25.5221457,44.5745796],[25.522496,44.5739818],[25.5239724,44.5728309],[25.5243571,44.5722872],[25.5245638,44.5715128],[25.5247562,44.5710154],[25.5251049,44.5704767],[25.5256966,44.5699203],[25.525871,44.5693536],[25.5258103,44.5688015],[25.5254299,44.5681358],[25.5252781,44.5676445],[25.5253486,44.567116],[25.5255826,44.5667262],[25.5261386,44.566357],[25.5267476,44.5662237],[25.5273423,44.5662032],[25.5279778,44.5663335],[25.5284179,44.5666858],[25.528599,44.5670074],[25.5288511,44.5677401],[25.5289017,44.5684523],[25.5286426,44.5693801],[25.5281964,44.5698441],[25.5279229,44.5699901],[25.5275958,44.5703968],[25.5275277,44.5707216],[25.5276053,44.5711608],[25.5279131,44.571477],[25.528506,44.5716761],[25.5291278,44.5715881],[25.5299654,44.571295],[25.5305584,44.5708686],[25.5313182,44.5704337],[25.5319916,44.5701629],[25.5348459,44.5694819],[25.5360881,44.5690471],[25.5368723,44.5685847],[25.5372823,44.5679992],[25.5373249,44.5672589],[25.5373958,44.5666296],[25.5375243,44.5662669],[25.5377536,44.5658939],[25.5386272,44.5652416],[25.5391121,44.5644252],[25.5393047,44.5636539],[25.5392958,44.5632313],[25.5391429,44.5628497],[25.5389046,44.5625641],[25.5382632,44.5623194],[25.5376713,44.5623429],[25.5369482,44.5627181],[25.5366753,44.5633369],[25.536057,44.564653],[25.5353812,44.5650257],[25.5349045,44.5651042],[25.5339817,44.5650903],[25.5335034,44.5649396],[25.532741,44.5647383],[25.5320649,44.5643729],[25.5315621,44.5637548],[25.53108,44.5632576],[25.5305547,44.5629553],[25.5300291,44.5627683],[25.5297339,44.5625505],[25.5294422,44.5622821],[25.5294663,44.5618254],[25.5294872,44.5613328],[25.5295971,44.5609586],[25.5299335,44.5605228],[25.530176,44.5602071],[25.5315556,44.5584571],[25.5320007,44.5574488],[25.5323307,44.5566251],[25.532758,44.5560023],[25.5331116,44.5556079],[25.5332038,44.555205],[25.5331528,44.5548483],[25.5328258,44.5545457],[25.5322716,44.5542739],[25.5311655,44.5541132],[25.5305711,44.5538284],[25.530362,44.5534932],[25.5303168,44.5531409],[25.5303543,44.55263],[25.5305417,44.5522292],[25.5308811,44.5517914],[25.5315563,44.5512127],[25.5321575,44.5509597],[25.5331346,44.5508378],[25.5358281,44.5508001],[25.5391959,44.5504041],[25.5407873,44.5498661],[25.542062,44.5496563],[25.5436835,44.5494605],[25.5450458,44.5494698],[25.5465532,44.549639],[25.5470805,44.5493973],[25.5475017,44.5490179],[25.5479399,44.5485654],[25.5481174,44.5482161],[25.5482505,44.5477881],[25.5484124,44.5471678],[25.5479925,44.546229],[25.548048,44.5456906],[25.5482289,44.5452554],[25.5484285,44.5449404],[25.548731,44.5447071],[25.5495453,44.5444533],[25.55009,44.5442494],[25.5505679,44.5440144],[25.5507047,44.5435212],[25.5506186,44.543082],[25.5503007,44.5425188],[25.5482408,44.5404388],[25.5479727,44.5388843],[25.5478702,44.5372615],[25.548175,44.536522],[25.5504279,44.534334],[25.5530473,44.532363],[25.5568239,44.532363],[25.5586002,44.5316618],[25.5597695,44.5313979],[25.5616713,44.5307815],[25.5637853,44.5292082],[25.5649384,44.52913],[25.5657502,44.5293036],[25.5661167,44.5297665],[25.5659219,44.5305274],[25.5652434,44.5317049],[25.5653142,44.5323264],[25.5659061,44.532912],[25.5707284,44.5355445],[25.5733898,44.537598],[25.574505,44.537747],[25.5759674,44.537265],[25.5762216,44.5355445],[25.5766892,44.5346779],[25.577588,44.5341298],[25.5794441,44.5339616],[25.5803952,44.5327241],[25.580407,44.530526],[25.5825265,44.5289508],[25.5821885,44.5272563],[25.5825731,44.5264889],[25.5835157,44.5262046],[25.585663,44.5261218],[25.5868646,44.5255099],[25.5904695,44.5251427],[25.5932161,44.525877],[25.595276,44.5275904],[25.596821,44.5290589],[25.5990526,44.529426],[25.6016275,44.5283246],[25.6014558,44.5266113],[25.6016275,44.5250203],[25.6009408,44.5236741],[25.6017991,44.5224502],[25.6030008,44.5218382],[25.6031724,44.5206143],[25.6017991,44.5202471],[25.6004258,44.5208591],[25.5978509,44.5207367],[25.59503,44.5192431],[25.5953841,44.5183397],[25.5980974,44.518459],[25.6005975,44.518044],[25.600915,44.5173633],[25.6005819,44.5156122],[25.6012841,44.5133926],[25.6038591,44.5127805],[25.6062623,44.5138822],[25.6083223,44.5153511],[25.6100389,44.5171872],[25.6126272,44.5187124],[25.6157037,44.518656],[25.6172487,44.51682],[25.6172872,44.5156057],[25.6189653,44.512903],[25.6189653,44.509965],[25.6206819,44.5082512],[25.6223985,44.5064148],[25.6246301,44.5048233],[25.6275483,44.504456],[25.6335565,44.5037214],[25.6363031,44.5029869],[25.6381913,44.5023747],[25.6400796,44.5031093],[25.6407663,44.5042112],[25.6421396,44.5048233],[25.6435128,44.5043336],[25.6459161,44.5001709],[25.6454011,44.4987016],[25.6462594,44.4975996],[25.6478044,44.4982119],[25.6510659,44.4990689],[25.6532975,44.4983343],[25.6546708,44.4967425],[25.6563875,44.4960079],[25.6570758,44.4947027],[25.6560441,44.4931915],[25.6534409,44.4924848],[25.6525075,44.4909262],[25.6538125,44.4896403],[25.656173,44.4891731],[25.6598207,44.4896403],[25.6627389,44.4907425],[25.6653138,44.4929466],[25.6684037,44.4947834],[25.6719583,44.4953838],[25.6759568,44.4945385],[25.6770652,44.4930282],[25.675737,44.4909671],[25.6732867,44.4892984],[25.6716659,44.486677],[25.6715307,44.4853716],[25.6719046,44.4844554],[25.6726632,44.4836942],[25.6732841,44.4833141],[25.6740552,44.4829953],[25.6775018,44.4821698],[25.6786096,44.4819091],[25.6791715,44.4816874],[25.6795188,44.481435],[25.6797535,44.4811259],[25.6798595,44.4808015],[25.6799728,44.479804],[25.6790719,44.4759278],[25.6782732,44.4721784],[25.6765379,44.4697154],[25.6761857,44.4692988],[25.6758719,44.4688356],[25.6756182,44.4678977],[25.6759636,44.4669509],[25.6759568,44.4655109],[25.676749,44.4646056],[25.6779889,44.4639473],[25.6795519,44.4638801],[25.6818357,44.4642509],[25.6852501,44.4641441],[25.6888373,44.4632417],[25.6896495,44.4620837],[25.690701,44.4605321],[25.6905202,44.4588202],[25.690466,44.4575735],[25.689872,44.4565286],[25.6890287,44.4540133],[25.6893822,44.4526857],[25.691063,44.4519107],[25.6935413,44.4519296],[25.6971312,44.4524687],[25.7007532,44.4522229],[25.7054707,44.4514256],[25.7092741,44.4504599],[25.7120057,44.4500726],[25.7142373,44.4505627],[25.7165761,44.4508428],[25.7199138,44.4499253],[25.7221338,44.4501951],[25.7234908,44.4500547],[25.7249264,44.4494964],[25.725893,44.4487067],[25.7268084,44.4466492],[25.7259619,44.4437213],[25.7241583,44.4421879],[25.7227183,44.4402455],[25.7226987,44.4389205],[25.7238504,44.4376945],[25.7272836,44.4362236],[25.7298683,44.4365319],[25.7323189,44.4376578],[25.7356824,44.4392171],[25.7376249,44.4393922],[25.7413588,44.4377168],[25.7433025,44.4365394]],[[25.0623241,44.7843128],[25.0633746,44.7834694],[25.0637046,44.7828554],[25.0637908,44.7820006],[25.0641013,44.7813736],[25.065529,44.7799997],[25.0679323,44.7796342],[25.0706788,44.7802434],[25.0718132,44.7797833],[25.0742837,44.7787812],[25.0775453,44.776466],[25.0797769,44.7737851],[25.0828668,44.7730539],[25.0850984,44.7714697],[25.0864717,44.7681792],[25.0880166,44.7662292],[25.0916215,44.764401],[25.1015779,44.7631822],[25.1077577,44.7633041],[25.1108476,44.7624509],[25.1142808,44.7591599],[25.120289,44.7572096],[25.1278421,44.7563563],[25.130417,44.7574534],[25.1328203,44.7570877],[25.1377984,44.7534307],[25.141575,44.7518459],[25.1451799,44.7518459],[25.1492997,44.7531869],[25.1529046,44.7523336],[25.1565793,44.7537126],[25.1574254,44.7537165],[25.1581442,44.7535679],[25.1586485,44.7534193],[25.1600701,44.7532898],[25.1607299,44.7531488],[25.161713,44.7531107],[25.1634669,44.7534806],[25.1642382,44.7535907],[25.1646137,44.7535946],[25.1650604,44.753545],[25.1704141,44.7514802],[25.1762506,44.7496516],[25.1822587,44.7485543],[25.1865503,44.7458722],[25.1872369,44.7419706],[25.1899835,44.7381907],[25.1927301,44.7350202],[25.19376,44.7318496],[25.1936051,44.7293482],[25.1946183,44.7277032],[25.1962491,44.7266818],[25.1980516,44.7259958],[25.2013239,44.7252259],[25.2029385,44.7241168],[25.2035554,44.7238462],[25.2048429,44.7237433],[25.205787,44.7238385],[25.2062264,44.7237299],[25.2063976,44.7234689],[25.2064395,44.7227943],[25.2068881,44.7221159],[25.2080856,44.7210031],[25.2090379,44.7202633],[25.2102395,44.7200041],[25.2116128,44.7200193],[25.214692,44.7207893],[25.215679,44.7209951],[25.2165749,44.7209875],[25.219748,44.7206978],[25.2212594,44.7207435],[25.2222987,44.7206368],[25.2235647,44.7203395],[25.2247449,44.7198592],[25.2255174,44.7194094],[25.2289506,44.7170918],[25.2371904,44.7139203],[25.2385637,44.7123344],[25.2406236,44.7117244],[25.2445718,44.7127004],[25.2481767,44.7117244],[25.2498933,44.7103825],[25.2565881,44.7094065],[25.2622529,44.7070886],[25.2643129,44.7050145],[25.2696344,44.7041604],[25.2790757,44.7012322],[25.2868005,44.6984258],[25.2900621,44.6957413],[25.2925654,44.6924558],[25.2941462,44.690943],[25.2952169,44.6898314],[25.295606,44.6896048],[25.2962997,44.6894389],[25.2979422,44.6895525],[25.2986706,44.6894234],[25.3006414,44.6885289],[25.3028317,44.6880331],[25.3048593,44.6875361],[25.3060438,44.6871404],[25.3072282,44.6865886],[25.3077067,44.6862094],[25.308039,44.6857783],[25.3089128,44.6837092],[25.3093934,44.6831595],[25.3097163,44.6828707],[25.3100116,44.6827104],[25.3110827,44.6822176],[25.3120711,44.6818954],[25.3131582,44.6814494],[25.313568,44.6812208],[25.3138363,44.6809782],[25.3141335,44.6807622],[25.314761,44.6804288],[25.3154956,44.6801688],[25.3173076,44.6798138],[25.318128,44.6794915],[25.3187754,44.6790601],[25.31948,44.678592],[25.3201295,44.6782162],[25.3209039,44.6777869],[25.321708,44.6775918],[25.3224128,44.6775083],[25.3230626,44.6774974],[25.3242852,44.6775504],[25.3253843,44.6777735],[25.326747,44.6780354],[25.3278007,44.6780775],[25.3294835,44.6779156],[25.3303996,44.6780368],[25.331132,44.6782279],[25.3317974,44.6785663],[25.3326302,44.6789654],[25.3330741,44.6791106],[25.3336031,44.6791206],[25.3340465,44.6790678],[25.3345224,44.6788993],[25.3351431,44.6786555],[25.3354928,44.6784533],[25.3358016,44.6781644],[25.3360985,44.6778531],[25.336305,44.6775628],[25.3365823,44.6770683],[25.3368399,44.6766269],[25.3370936,44.6762973],[25.3379175,44.675814],[25.338879,44.675353],[25.3398319,44.6750215],[25.3408983,44.6749173],[25.3419646,44.6750256],[25.3440611,44.6755984],[25.3451948,44.6756785],[25.3462498,44.6756747],[25.3484385,44.6754153],[25.3504341,44.674805],[25.3515713,44.6739352],[25.3522794,44.6728671],[25.3525155,44.671509],[25.3525155,44.6697999],[25.3526803,44.6691101],[25.3531377,44.6684723],[25.3546398,44.6676787],[25.3559916,44.6674651],[25.3585236,44.6674651],[25.361356,44.6674498],[25.3626006,44.6671751],[25.3637807,44.6665342],[25.3644479,44.6660014],[25.364847,44.6655032],[25.3653493,44.6644411],[25.3657334,44.6635582],[25.366184,44.6627951],[25.3671925,44.6621083],[25.3676002,44.6619862],[25.3692524,44.6617726],[25.3718059,44.6621083],[25.3732243,44.6626555],[25.3754752,44.6634819],[25.3774064,44.6642145],[25.3789942,44.6645807],[25.3801122,44.6645327],[25.3812709,44.6642885],[25.3822129,44.6639703],[25.3833737,44.6632507],[25.3839102,44.6625792],[25.383908,44.6620015],[25.3839295,44.6615131],[25.3840368,44.6612537],[25.3849908,44.6604651]],[[25.8507387,44.3870173],[25.8502348,44.3872037],[25.8500524,44.3874184],[25.8499827,44.3876139],[25.8500095,44.3877557],[25.8501061,44.3878707],[25.8503099,44.3879206],[25.8505781,44.3879206],[25.8508356,44.3879627],[25.8511253,44.3880969],[25.851415,44.3882656],[25.851769,44.3883499],[25.8524879,44.3884074],[25.8529975,44.3884458],[25.8534415,44.3884977]],[[24.6640124,45.0794235],[24.6641886,45.0792616]],[[24.6641886,45.0792616],[24.6648376,45.0783947]],[[24.6649851,45.1249059],[24.6602312,45.1144149],[24.6601544,45.1141585],[24.6601543,45.1139021],[24.6606394,45.1079033],[24.6604765,45.1063476],[24.6604133,45.1055002],[24.6602927,45.1042754],[24.6602706,45.1039857],[24.6602327,45.1034901],[24.6600395,45.1027628],[24.6599578,45.1025923],[24.6594683,45.1018337],[24.658714,45.1007599],[24.6580802,45.0995803],[24.6577862,45.0990409],[24.657463,45.0982845],[24.6573685,45.0975624],[24.6574057,45.097016],[24.6575533,45.0963157],[24.6578193,45.0955764],[24.6582316,45.0950644],[24.658922,45.0945937],[24.6599607,45.094067],[24.6606651,45.0933638],[24.6609711,45.0927633],[24.6611307,45.0919561],[24.6631026,45.0816754],[24.6634835,45.0803482],[24.6640124,45.0794235]],[[24.6709303,45.1447097],[24.6710873,45.1433539],[24.6710993,45.14209],[24.6710696,45.1417885],[24.6710016,45.14146],[24.6708364,45.1411115],[24.6706138,45.140763],[24.6698483,45.139932],[24.6689041,45.1384805],[24.6688401,45.13831],[24.6685681,45.1375852],[24.6684479,45.1372753],[24.6681609,45.1369794],[24.6677553,45.1366044],[24.6676438,45.1363134],[24.6666834,45.1291837],[24.6666064,45.1285197],[24.6665418,45.1282568],[24.6664374,45.128017],[24.6652888,45.1255537],[24.6651985,45.1253611]],[[24.6651985,45.1253611],[24.6649851,45.1249059]],[[24.6629915,45.1980303],[24.6629743,45.1976853],[24.6629695,45.1974821],[24.6630134,45.1972902],[24.6631841,45.1969453],[24.6635488,45.1964236],[24.6639673,45.1958566],[24.6641067,45.1953879],[24.6640531,45.1948813],[24.6638707,45.1943218],[24.6637741,45.1939967],[24.6636561,45.193407],[24.6637634,45.1929836],[24.6637312,45.1926282],[24.6635059,45.1922653],[24.6632484,45.1917587],[24.6630982,45.1911841],[24.6630231,45.1906472],[24.6628085,45.1899214],[24.6626476,45.189135],[24.6625511,45.1883486],[24.662476,45.1876],[24.6625725,45.1871236],[24.6629158,45.1864884],[24.6631304,45.1860196],[24.6633128,45.1855054],[24.6634201,45.1847719],[24.6634952,45.1839779],[24.6636454,45.183441],[24.6637312,45.1829495],[24.6637527,45.1824806],[24.6638385,45.18211],[24.6639458,45.181679],[24.663978,45.1811723],[24.6638171,45.1807186],[24.6635918,45.1803631],[24.6632484,45.1800379],[24.6628622,45.1797354],[24.6627585,45.1795965],[24.662712,45.1794329],[24.6627339,45.1792657],[24.6628085,45.1791077],[24.6630875,45.1786918],[24.6636561,45.1779658],[24.6639243,45.1774439],[24.664096,45.1768313],[24.664375,45.1762641],[24.6647075,45.1758784],[24.6652547,45.1753641],[24.6655122,45.174933],[24.6655659,45.1746153],[24.6655551,45.1740935],[24.6655229,45.1736775],[24.6654908,45.1728152],[24.6653835,45.1719454],[24.665244,45.1715975],[24.6650509,45.1712496],[24.6648148,45.1707201],[24.6647612,45.1705235],[24.6647539,45.1702732],[24.6646285,45.1700536],[24.6643885,45.1699002],[24.6639243,45.1695402],[24.6635918,45.1692905],[24.6634366,45.1690978],[24.6633772,45.1689123],[24.6633772,45.1687157],[24.6632699,45.1684358],[24.6629587,45.16805],[24.6623365,45.1674222],[24.6617249,45.166923],[24.6614284,45.1666033],[24.6612743,45.1663178]],[[24.6502411,45.2399271],[24.6507175,45.2396004],[24.651378,45.2395241],[24.653456,45.2389209],[24.6541941,45.2386321],[24.6546153,45.2383683],[24.6549304,45.2380549],[24.6551174,45.2376794],[24.6552554,45.237242],[24.6554553,45.2359116],[24.6556592,45.234461],[24.6562243,45.2315619],[24.6572145,45.2290216],[24.6564463,45.2269467],[24.6572318,45.2215862],[24.6575332,45.2195296],[24.658094,45.2150654],[24.6582155,45.2146655],[24.6637085,45.2055567],[24.6638591,45.2054462],[24.6648871,45.2051164],[24.6651067,45.2049595],[24.6652136,45.2047943],[24.6653103,45.2044626],[24.6653719,45.2034872],[24.6653475,45.2030086],[24.6652572,45.2024551],[24.665048,45.201838],[24.6647408,45.2013607],[24.6645728,45.2009603],[24.6644499,45.2005599],[24.6643062,45.1998017],[24.6641296,45.1989194],[24.6639961,45.1986016],[24.6638521,45.1984009],[24.6636589,45.1982753],[24.6632724,45.1981224],[24.6629915,45.1980303],[24.662229,45.1977965],[24.6619971,45.1977065],[24.6617838,45.1975616],[24.661598,45.1973993],[24.6614746,45.1972415],[24.6614162,45.1970888],[24.6614276,45.1968957],[24.6622474,45.1944852],[24.6622987,45.1939606],[24.6621915,45.1934363],[24.6603337,45.190523],[24.6602466,45.1902081],[24.6602919,45.1898932],[24.6614334,45.1825455],[24.6601245,45.1795992],[24.6597017,45.1711965],[24.6591202,45.1634099],[24.659307,45.1629237],[24.6673857,45.1526222],[24.6676666,45.1521158],[24.6687669,45.1489583],[24.6701379,45.1453039],[24.6709303,45.1447097]],[[24.6464737,45.2503388],[24.6465745,45.2496646],[24.646714,45.2487355],[24.6469179,45.2476931],[24.6471003,45.2467414],[24.6471642,45.2461105],[24.6473594,45.2455917],[24.6480529,45.244376]],[[24.6507013,45.2459045],[24.6509982,45.2447935],[24.6509999,45.2441877],[24.6509393,45.2437814],[24.6507631,45.2434757],[24.6505808,45.2431918],[24.6504897,45.2429692],[24.650412,45.2427182],[24.6501325,45.2417638],[24.6500682,45.2413505],[24.650106,45.2407786],[24.6502411,45.2399271]],[[24.6480529,45.244376],[24.6484816,45.2432435],[24.6492863,45.2414985],[24.6498146,45.2404866],[24.6502411,45.2399271]],[[24.6594425,45.2768609],[24.6594498,45.2767768],[24.6594249,45.2767021],[24.6593549,45.2766001],[24.6592536,45.2765199],[24.6588114,45.2762719],[24.6582296,45.2758821],[24.6580096,45.2756499],[24.6577115,45.2752047],[24.6574113,45.2750282],[24.6571058,45.2749347],[24.6567052,45.2748984],[24.6562552,45.2747074],[24.6553268,45.2740904],[24.6539971,45.2731935],[24.6534375,45.2726694],[24.65317,45.2723216],[24.6529807,45.2719625],[24.6528749,45.2716255],[24.6528486,45.2713023],[24.6528953,45.2709498],[24.6530297,45.2706402],[24.6532998,45.2703747],[24.6543311,45.2698908],[24.6550122,45.2694662],[24.6556447,45.2687632],[24.6558647,45.2682501],[24.6559852,45.2677771],[24.6559711,45.2674046],[24.6558944,45.2670467],[24.6555117,45.2664053],[24.6551527,45.2660246],[24.6549084,45.2657615],[24.6547138,45.2652023],[24.6544965,45.2644992],[24.6543084,45.2638463],[24.6538836,45.2629606],[24.6537337,45.2624414],[24.6535333,45.2616046],[24.6534199,45.2613092],[24.6532544,45.2611092],[24.6525181,45.2604906],[24.6523365,45.2602098],[24.6523117,45.259862],[24.6523495,45.2595729],[24.6528068,45.2587944],[24.6536436,45.2573127],[24.6537452,45.2570548],[24.6537581,45.2567969],[24.6536429,45.2565215],[24.6532511,45.2560844],[24.6528879,45.2556027],[24.6528584,45.2552474],[24.6529333,45.2548995],[24.6534092,45.2542697],[24.6534501,45.254093],[24.6533888,45.2539366],[24.6531038,45.2536958],[24.6528814,45.2534771],[24.6524403,45.2527214],[24.6518306,45.2520752],[24.6508608,45.2512601],[24.650724,45.2510914],[24.6504825,45.250814],[24.6503841,45.2506368],[24.6503259,45.2501264],[24.650344,45.2495633],[24.6505009,45.2485241],[24.6504995,45.2480649],[24.6506797,45.2472841],[24.6506357,45.2466823],[24.6507013,45.2459045]],[[24.630695,45.3664356],[24.6307318,45.3661495],[24.6306697,45.3658873],[24.6304872,45.3655767],[24.6303618,45.3654468],[24.6303253,45.3651688],[24.6304282,45.3646873],[24.6304697,45.3642737],[24.6307662,45.3637467],[24.6308297,45.363257],[24.6308041,45.3630557],[24.6307452,45.3628313],[24.6304815,45.3623535],[24.6301087,45.3618739],[24.6300148,45.3617143],[24.6299891,45.3614218],[24.6300371,45.3611924],[24.6304829,45.3607904],[24.6309716,45.3601691],[24.6310703,45.3599243],[24.6310722,45.3597329],[24.6309536,45.3595436],[24.6303746,45.3588425],[24.6301791,45.3586888],[24.6294652,45.3582202],[24.6288949,45.3578687],[24.6282693,45.3576471],[24.6280343,45.3575138],[24.6278547,45.3573566],[24.6277972,45.3571878],[24.6278341,45.3569394],[24.6279378,45.3567902],[24.6280854,45.3566472],[24.6289827,45.3561305],[24.6293086,45.3560014],[24.6300019,45.3558214],[24.630946,45.3555123],[24.6312436,45.3553959],[24.6316279,45.3552],[24.631933,45.3550836],[24.6323311,45.354973],[24.6325748,45.3549353],[24.6328242,45.3548976],[24.633044,45.3549279],[24.6332243,45.35503],[24.6334012,45.3551112],[24.6338664,45.3552784],[24.6344018,45.3556882],[24.634667,45.355816],[24.6349073,45.3558549],[24.6351573,45.3558471],[24.6355979,45.3557422],[24.6361432,45.3554055],[24.6363773,45.3552155],[24.636745,45.3551332],[24.6373404,45.3551127],[24.637535,45.3550301],[24.6376301,45.3548715],[24.6377589,45.3542533],[24.637952,45.3538602],[24.6381891,45.3535967],[24.638939,45.3532882],[24.6395866,45.3527105],[24.6399094,45.3525084],[24.6400055,45.3523644],[24.6400477,45.3522101],[24.6399889,45.3520388],[24.6399154,45.3519262],[24.639707,45.3517571],[24.6393078,45.351616],[24.6386999,45.3515423],[24.6381237,45.3514849],[24.6377606,45.351501],[24.6375079,45.3515343],[24.6370362,45.3516577],[24.6367027,45.3516785],[24.6358096,45.3515672],[24.6351385,45.3514525],[24.6347815,45.3514017],[24.6346189,45.3513449],[24.6345449,45.3512663],[24.6344881,45.3511773],[24.6343837,45.350915],[24.6343256,45.35077],[24.6342726,45.3506483],[24.6342649,45.3505267],[24.6344792,45.3502257],[24.6344894,45.35005],[24.634419,45.3498846],[24.6342608,45.3497511],[24.6340384,45.3496157],[24.633386,45.3494697],[24.6329418,45.3493403],[24.6327105,45.3492468],[24.6325514,45.3491298],[24.6324695,45.348976],[24.6323684,45.3487488],[24.6323681,45.3486193],[24.6324093,45.3484955],[24.6325311,45.3483172],[24.632693,45.3480139],[24.6327569,45.3478827],[24.632902,45.3477248],[24.6329931,45.347654],[24.6331068,45.3475831],[24.6332789,45.3475375],[24.6336334,45.347562],[24.6337466,45.3475305],[24.6338128,45.347455],[24.6338799,45.3471691],[24.6339262,45.3468567],[24.6339253,45.34658],[24.6338682,45.3463321],[24.633875,45.3462449],[24.6339138,45.3461444],[24.634008,45.3460802],[24.634409,45.3459331],[24.6345077,45.3458618],[24.634518,45.3457526],[24.6344669,45.3456732],[24.6343366,45.3455802],[24.6342704,45.3454845],[24.6342934,45.3453904],[24.6343918,45.3452089],[24.6345623,45.3449988],[24.6346667,45.3447501],[24.6346324,45.3440529],[24.6346462,45.3439707],[24.6351713,45.3431111],[24.6355098,45.3425929],[24.6360098,45.3421792],[24.6364593,45.3415751],[24.6365863,45.3413404],[24.6366024,45.3410003],[24.6364775,45.3406291],[24.6364775,45.340272],[24.6365879,45.3399842],[24.6367153,45.3393708],[24.6366645,45.3388407],[24.6365302,45.3385233],[24.6363846,45.3381862],[24.6361952,45.3379141],[24.6355487,45.3370307],[24.6349857,45.3362589],[24.6347943,45.3359702],[24.634687,45.3356942],[24.6346336,45.3355245],[24.6345722,45.3352611],[24.6345671,45.3350796],[24.6346272,45.3348593],[24.634772,45.3346208],[24.6349836,45.3343604],[24.6352508,45.3341178],[24.6354871,45.3339748],[24.6357207,45.3338956],[24.6361126,45.3337714],[24.6363897,45.3335887],[24.6366069,45.33335],[24.6378447,45.3317513],[24.6384006,45.3310439],[24.6387474,45.3302814],[24.6387935,45.3301377],[24.6388522,45.3294877],[24.6391469,45.3287899],[24.6394086,45.3280591],[24.6397836,45.3273817],[24.6405054,45.3260188],[24.6408077,45.3253294],[24.6409931,45.3246264],[24.6411544,45.3243939],[24.6412496,45.3241921],[24.6409668,45.3233507],[24.6408704,45.3231097],[24.6408056,45.3228612],[24.6407604,45.3225668],[24.6407615,45.3221893],[24.6412183,45.3208951],[24.6416385,45.3203324],[24.6426162,45.3194991],[24.6429423,45.3189986],[24.6434062,45.3187625],[24.6439727,45.3184695],[24.6445009,45.318112],[24.6446086,45.3180068],[24.6448031,45.3177554],[24.6449392,45.3175485],[24.6451909,45.317241],[24.6456338,45.31674],[24.6461571,45.3158736],[24.646656,45.3153356],[24.6470655,45.3150259],[24.648145,45.3137089],[24.6482044,45.3135747],[24.6482825,45.3134004],[24.6483463,45.3133058],[24.6487561,45.3129117],[24.6489827,45.3127034],[24.6491287,45.3125892],[24.6492586,45.3124989],[24.6496955,45.3121755],[24.6497777,45.3121031],[24.6498426,45.312019],[24.6499598,45.311825],[24.6503663,45.3109775],[24.6504578,45.3106776],[24.6505362,45.3104207],[24.6505747,45.3101048],[24.6505409,45.3098594],[24.6504908,45.3096407],[24.6503694,45.3091112],[24.6503625,45.3089675],[24.6503972,45.3088035],[24.6504977,45.3086036],[24.6506352,45.3083309],[24.6507501,45.3081624],[24.6508757,45.3080146],[24.6511971,45.3077317],[24.6515436,45.3075589],[24.6516958,45.3075056],[24.6518588,45.3074749],[24.6520866,45.307464],[24.6522675,45.3074763],[24.6523366,45.3074988],[24.6523869,45.3074967],[24.6524932,45.3074659],[24.6534873,45.3069465],[24.6540024,45.3065821],[24.6542493,45.30638],[24.6543795,45.3062439],[24.6546117,45.305921],[24.6548277,45.3055661],[24.6550438,45.3052527],[24.6553536,45.3049271],[24.6557746,45.3045498],[24.6559488,45.3043725],[24.656435,45.303661],[24.6581038,45.3021083],[24.6588234,45.3013391],[24.6589586,45.3009401],[24.6591842,45.3005461],[24.6596005,45.3001779],[24.6599267,45.2998392],[24.6602581,45.2995251],[24.6604577,45.2991361],[24.6614696,45.2973929],[24.6617057,45.2968926],[24.6617808,45.2963692],[24.6616842,45.2955816],[24.6614481,45.2938306],[24.6610619,45.29294],[24.6603084,45.2920317],[24.6602658,45.2917471],[24.6603359,45.291469],[24.6608688,45.2910229],[24.6610485,45.2907889],[24.661153,45.2905797],[24.6611652,45.2904356],[24.6611492,45.2902816],[24.6610529,45.2901315],[24.6609331,45.2899813],[24.6597255,45.2890193],[24.6593249,45.2885827],[24.6588696,45.2882135],[24.6584226,45.2879282],[24.6580191,45.2877549],[24.657221,45.2874602],[24.6567612,45.2873255],[24.656568,45.2872514],[24.6564241,45.2871629],[24.6563092,45.2869978],[24.6562765,45.2868384],[24.6562651,45.2866959],[24.6563276,45.2865534],[24.6565125,45.2863671],[24.6570058,45.2859725],[24.6571907,45.2857618],[24.6572426,45.2855512],[24.6572599,45.2852849],[24.6571933,45.2849248],[24.6571145,45.2845441],[24.6570672,45.284188],[24.6570922,45.2837614],[24.6571494,45.2834812],[24.6571618,45.2833273],[24.6571277,45.2831115],[24.6570413,45.2828641],[24.6564914,45.2818138],[24.6564765,45.2815915],[24.656499,45.2813955],[24.6565903,45.2812265],[24.6567489,45.2810891],[24.657119,45.2809121],[24.6580578,45.2805456],[24.6584189,45.280269],[24.6586218,45.2800676],[24.6587185,45.2799156],[24.6588098,45.2797371],[24.659002,45.2785978],[24.6590574,45.2779814],[24.6591689,45.2775336],[24.6592698,45.2772404],[24.6593851,45.2770091],[24.6594425,45.2768609]],[[24.6307556,45.3666549],[24.630695,45.3664356]],[[24.6648376,45.0783947],[24.6719388,45.0763932],[24.6723322,45.076244],[24.6727208,45.076032],[24.6730326,45.0757967],[24.6846763,45.0633454],[24.6877351,45.0598822],[24.6881404,45.05928],[24.6929633,45.0516466],[24.6985048,45.0429688],[24.6981598,45.0404421],[24.7002734,45.0371583],[24.7017626,45.0346552],[24.7047559,45.0279869],[24.7073743,45.021881],[24.7088878,45.0185381],[24.7090648,45.0180878],[24.709149,45.017654],[24.7093397,45.0131298],[24.7095597,45.0107562],[24.7106002,45.0052475],[24.7153055,45.002093],[24.7436318,44.9758844],[24.7436886,44.9758555],[24.7439708,44.9757101],[24.7443657,44.975331],[24.7449858,44.9749368],[24.7477641,44.9732959],[24.7490501,44.9724664],[24.750718,44.9715093],[24.7510068,44.9712906],[24.7512234,44.971072],[24.7580321,44.9630682],[24.7635013,44.9566734],[24.7636199,44.956541],[24.7646203,44.9554235],[24.7658954,44.9539192],[24.774828,44.9437257],[24.7785139,44.9394388],[24.7803611,44.9381689],[24.7803652,44.9378478],[24.7888825,44.9335709],[24.8283563,44.9136234],[24.8298937,44.9128463],[24.8318117,44.9113994],[24.8318755,44.9109922],[24.8320655,44.9103889],[24.8333237,44.9089741],[24.8343625,44.9078578],[24.8368623,44.9056331],[24.8386061,44.9038164],[24.8401825,44.9024537],[24.8417967,44.9011308],[24.8439235,44.8995979],[24.8451485,44.8990846],[24.8467844,44.8983411],[24.8483431,44.8967612],[24.8492039,44.8959625],[24.850612,44.8951972],[24.8515911,44.8946827],[24.852006,44.8944018],[24.8524208,44.8940559],[24.852793,44.8936131],[24.8531285,44.8931052],[24.853681,44.8917678],[24.8544143,44.8905118],[24.8546362,44.8901176],[24.8547765,44.8897747],[24.8549031,44.8893136],[24.8549396,44.8891346],[24.8549445,44.8890069],[24.8549063,44.888897],[24.8547639,44.8887709],[24.8545855,44.88867],[24.8544795,44.8885371],[24.8544013,44.8883469],[24.854382,44.888132],[24.8544274,44.8878944],[24.8544313,44.8877091],[24.8543928,44.8875187],[24.8538842,44.8861266],[24.8538386,44.8859708],[24.8538166,44.8858206],[24.8538075,44.8856673],[24.8537911,44.8853935],[24.8538128,44.8846503],[24.8540866,44.8836327],[24.8542731,44.883078],[24.8548679,44.8818905],[24.8551734,44.8815969],[24.8555905,44.8813485],[24.8561476,44.8812402],[24.8571011,44.8810547],[24.8598831,44.880697],[24.8605044,44.8805481],[24.861046,44.8803426],[24.8649942,44.87718],[24.8661884,44.8764727],[24.8673316,44.8759059],[24.8687708,44.8752337],[24.8728285,44.8735121],[24.8734846,44.873073],[24.8740247,44.8724476],[24.8743573,44.871777],[24.8748664,44.8701305],[24.8751786,44.8690477],[24.8753536,44.8687208],[24.8756403,44.8683938],[24.8759418,44.8681303],[24.8763709,44.8678668],[24.8770341,44.8676199],[24.8776716,44.8674637],[24.878359,44.8673761],[24.879168,44.8673429],[24.8797919,44.8672903],[24.8802023,44.8672009],[24.8807727,44.8669729],[24.8815614,44.8665437],[24.8834417,44.8652338],[24.8840202,44.8647324],[24.8843611,44.8643007],[24.8863145,44.8613597],[24.8925261,44.8526642],[24.893489,44.8515288],[24.8945543,44.8505295],[24.8968396,44.8487061],[24.8982511,44.8477535],[24.9000515,44.8468325],[24.9012782,44.8463811],[24.9030053,44.8459375],[24.9036256,44.8457429],[24.9039003,44.845621],[24.9047698,44.845076],[24.9063797,44.8443233],[24.9093573,44.8426913],[24.9117221,44.8414539],[24.9121759,44.8411215],[24.9125016,44.8408072],[24.9127609,44.840442],[24.9129626,44.8400587],[24.9132266,44.8393096],[24.9134816,44.8382586],[24.9137023,44.837637],[24.9140816,44.8369383],[24.9142246,44.8367263],[24.9144673,44.8365271],[24.914746,44.8363881],[24.9151379,44.8363037],[24.9157606,44.8362654],[24.9166585,44.8363765],[24.9182753,44.8367021],[24.9213942,44.837329]],[[25.9957907,44.307839],[25.9959322,44.3076277],[25.9961039,44.3074127],[25.9963562,44.3072749],[25.9968122,44.3070983],[25.9972036,44.3069559],[25.9975147,44.3068637],[25.9978207,44.3068104],[25.9979495,44.3067835],[25.9981638,44.3066948],[25.9984427,44.3065182],[25.9986466,44.3063225],[25.9987807,44.3061996],[25.9990275,44.3060576],[25.9992742,44.306],[25.9996178,44.3059735],[25.9999019,44.3059539],[26.0002398,44.3059117],[26.0005939,44.3058157],[26.001372,44.3056971],[26.002063,44.3056589]]]},"properties":{"name":"Argeș","name_ro":"Argeș","type":"river","source":"manual_premap","source_detail":"HOTOSM Waterways HDX snapshot 2026-08-07, waterway=river name match (23 segments, 2211 points), ANCPI validation: see README","osm_type":"way","osm_id":"way/1099718619","geocode_tier":"tier1","confidence":"high"}}]}