{"type":"FeatureCollection","metadata":{"pipeline":"tier1_premap","pipeline_version":"1.0","generated_at":"2026-08-11T10:41:03.262944+00:00"},"features":[{"type":"Feature","id":"bistrita","geometry":{"type":"MultiLineString","coordinates":[[[25.371471,47.3452436],[25.3718856,47.3451044],[25.3721655,47.3449994],[25.3724544,47.344815],[25.3729959,47.3443391],[25.373417,47.3438037],[25.373724,47.3435533],[25.3740944,47.3433695],[25.3750177,47.343035],[25.3757667,47.3428259],[25.3766856,47.3426679],[25.3779884,47.3425728],[25.3788834,47.3425176],[25.3798745,47.3424828],[25.3816746,47.3424724],[25.382019,47.3425028],[25.3823634,47.3425494],[25.3826385,47.3426015],[25.3828956,47.3427065],[25.383444,47.3432179],[25.3836439,47.3434117],[25.3841006,47.3436789],[25.3848758,47.3440642],[25.3855092,47.3443926],[25.3861577,47.3446763],[25.3868553,47.3449643],[25.3875318,47.3451455],[25.3881615,47.3452065],[25.3886995,47.3451651],[25.3891853,47.345067],[25.3902107,47.3445458],[25.3911219,47.3441326],[25.3922154,47.3437101],[25.3929693,47.3435136],[25.3939736,47.3432915],[25.3948513,47.3430858],[25.3956027,47.3428801],[25.3969427,47.3424396],[25.3991565,47.3417277],[25.3996244,47.3416919],[25.4000923,47.3417328],[25.4006411,47.3418526],[25.4011346,47.3420573],[25.4018089,47.342962],[25.4023673,47.3433633],[25.4029445,47.3436879],[25.4048484,47.3440096],[25.4054761,47.3440643],[25.4060489,47.3440489],[25.4066769,47.3440048],[25.4073415,47.3439317],[25.4082811,47.3437817],[25.4095949,47.34349],[25.4108356,47.3431321],[25.4117164,47.3427922],[25.4124051,47.3424564],[25.4131317,47.3419781],[25.4137599,47.3413626],[25.4145507,47.3403902],[25.4150629,47.3400618],[25.4157131,47.3398459],[25.4163926,47.339822],[25.4169794,47.3399229],[25.4177702,47.3403996],[25.4182692,47.3407014],[25.4187326,47.3409429],[25.4200486,47.3412706],[25.4208781,47.3415443],[25.422784,47.3423437],[25.4243905,47.3429352],[25.4269834,47.3436711],[25.4298304,47.3445314],[25.4307036,47.3450857],[25.4318065,47.3459047],[25.4322609,47.3465431],[25.4326247,47.3472072],[25.4328018,47.3477931],[25.4328059,47.3484221],[25.4324812,47.3490692],[25.4319873,47.3497526],[25.4310313,47.3507851],[25.4291451,47.3523663],[25.4288748,47.3529417],[25.4289638,47.353393],[25.4303886,47.3542908],[25.432176,47.3556696],[25.4334489,47.3564375],[25.4368383,47.3572432],[25.4377057,47.3576473],[25.4397043,47.3592643],[25.4413704,47.3600963],[25.443555,47.3607192],[25.4456468,47.3614024],[25.4471661,47.3622894],[25.447544,47.3630098],[25.4476749,47.3638586],[25.4475193,47.3649059],[25.4475884,47.3659994],[25.4480697,47.3676369],[25.4486165,47.368358],[25.4492985,47.3689421],[25.4504102,47.3692887],[25.4518892,47.3691849],[25.452616,47.3689442],[25.4535416,47.3688246],[25.4552379,47.3691041],[25.4569631,47.3695892],[25.4592795,47.3703388],[25.4608928,47.3711833],[25.4628671,47.3722506],[25.4643233,47.3732485],[25.4656083,47.3742921],[25.4675272,47.3751634],[25.4695093,47.3755252],[25.4718285,47.3757386],[25.4745643,47.3759565],[25.4751145,47.3763732],[25.4753123,47.37706],[25.4753598,47.379502],[25.4753573,47.3818356],[25.4763543,47.3836517],[25.4772822,47.3840744],[25.4783549,47.384262],[25.4807753,47.3841114],[25.4821272,47.3840368],[25.48348,47.3840779],[25.4844199,47.3843087],[25.485005,47.3849031],[25.4854025,47.3860828],[25.4852599,47.3874108],[25.4848649,47.3883631],[25.484109,47.3892651],[25.4831716,47.3901287],[25.4828442,47.391165],[25.4832149,47.3917226],[25.4839731,47.3921198],[25.4861772,47.3927325],[25.4882143,47.3930572],[25.4902875,47.3932024],[25.4935847,47.3932382],[25.4950801,47.3930447],[25.4968119,47.3925452],[25.4982813,47.3924129],[25.4998572,47.3923889],[25.5032611,47.3932233],[25.5061986,47.3942588],[25.5075183,47.3964144],[25.5077564,47.3979157],[25.5085179,47.3994186],[25.5098888,47.4008113],[25.5114481,47.402162],[25.5127297,47.4032914],[25.5134166,47.403746],[25.5143894,47.4039027],[25.5170637,47.4033575],[25.5182524,47.4033955],[25.5192675,47.403573],[25.5198223,47.4037856],[25.5202253,47.4041304],[25.5208765,47.4048687],[25.5210232,47.4053627],[25.5208739,47.4056425],[25.5206054,47.4058122],[25.5200545,47.4059114],[25.5193435,47.4054704],[25.5188541,47.4054408],[25.518493,47.4055555],[25.5181618,47.4057808],[25.5178578,47.4062837],[25.5176632,47.4066316],[25.5175422,47.4071495],[25.5177205,47.4076976],[25.5181632,47.4080674],[25.5190521,47.4082744],[25.5198244,47.408385],[25.5202822,47.408372],[25.5206571,47.4081699],[25.5215654,47.4071269],[25.522212,47.4062373],[25.5224142,47.4056044],[25.5228565,47.4053032],[25.5241253,47.4053929],[25.5247542,47.4057917],[25.5249819,47.4060878],[25.5251439,47.4066676],[25.5251216,47.4072768],[25.5250799,47.4082401],[25.5252967,47.4086082],[25.5256655,47.4089533],[25.5260559,47.4090711],[25.5264658,47.409009],[25.5267729,47.4088456],[25.5282285,47.4078742],[25.5288884,47.4072946],[25.529404,47.4065966],[25.5301221,47.4061919],[25.5307067,47.4062115],[25.531208,47.4062404],[25.5324541,47.4066026],[25.5341321,47.4072384],[25.5358582,47.408028],[25.5375886,47.4083474],[25.5391443,47.4085928],[25.540866,47.4087614],[25.5422293,47.4086549],[25.5436014,47.4081611],[25.5447463,47.4074868],[25.545747,47.4065641],[25.5463369,47.4058218],[25.5469837,47.404899],[25.5476566,47.4044731],[25.5486835,47.4043814],[25.5503091,47.4041655],[25.5515676,47.403787],[25.5525202,47.4032398],[25.5534335,47.4024827],[25.5537,47.4018261],[25.5535427,47.4011961],[25.5531582,47.4000159],[25.553215,47.3995367],[25.5534684,47.3991522],[25.5539666,47.3986967],[25.5549192,47.3982027],[25.5559854,47.39783],[25.5581528,47.3970284],[25.5603203,47.3964398],[25.5621031,47.3954784],[25.5623867,47.3952198],[25.5635889,47.3941236],[25.5653237,47.3935734],[25.5671677,47.3934107],[25.5688588,47.3931889],[25.5703314,47.3929788],[25.5717866,47.3923014],[25.5734864,47.3913843],[25.5748673,47.3911299],[25.5768992,47.390837],[25.5785685,47.3901359],[25.5798925,47.3892543],[25.5811336,47.3881449],[25.5811423,47.3875562],[25.5810647,47.387454],[25.5805262,47.3867455],[25.5782845,47.385355],[25.5762768,47.3847111],[25.5745142,47.3839973],[25.5736818,47.3828919],[25.5741026,47.3816625],[25.5746182,47.3808873],[25.575715,47.3801624],[25.5767944,47.379683],[25.5782451,47.3796179],[25.5806616,47.3798665],[25.5831393,47.3798428],[25.5850183,47.3801416],[25.5861282,47.380263],[25.5872862,47.3799848],[25.5874392,47.3792214],[25.5871595,47.3780763],[25.5865958,47.3771442],[25.5858879,47.376357],[25.5854203,47.3753776],[25.5851494,47.3743833],[25.5852455,47.3733386],[25.5854596,47.3722437],[25.5862637,47.3713056],[25.5872469,47.3703941],[25.5881427,47.3693346],[25.5891783,47.3682277],[25.589895,47.3671711],[25.5902358,47.3663335],[25.5906422,47.3652858],[25.5908825,47.3647471],[25.5910049,47.3639479],[25.5906553,47.3629949],[25.5897945,47.3622283],[25.5884879,47.3616156],[25.5869803,47.3612308],[25.5854596,47.3610265],[25.58466,47.3607808],[25.5841968,47.3603516],[25.5840438,47.3598632],[25.5841006,47.3592979],[25.5844633,47.3592002],[25.5863249,47.3593896],[25.5883437,47.3593807],[25.5904281,47.3594311],[25.5925474,47.3600201],[25.5942298,47.3607986],[25.5956806,47.3613018],[25.5975858,47.3621365],[25.5990759,47.3626012],[25.600684,47.3625805],[25.6025193,47.3621395],[25.6039001,47.3616333],[25.6052635,47.3608252],[25.6066662,47.3598366],[25.607479,47.3590018],[25.6084957,47.3582792],[25.6085409,47.358247],[25.6093842,47.3577438],[25.6110408,47.3569502],[25.6128278,47.3561117],[25.6135434,47.3556059],[25.6145769,47.3548755],[25.6151768,47.3537718],[25.6147929,47.3526971],[25.6139707,47.352082],[25.6131239,47.3519674],[25.6115839,47.3520692],[25.6107989,47.3523664],[25.6102443,47.3525764],[25.6077699,47.352112],[25.6067652,47.3517586],[25.6054336,47.3509954],[25.6050845,47.3504756],[25.6051523,47.3501124],[25.6065827,47.3490066],[25.6074607,47.3477754],[25.608073,47.3465717],[25.6084535,47.3455065],[25.6094815,47.3441043],[25.6111393,47.342745],[25.6115115,47.3422133],[25.6119671,47.3407061],[25.6120654,47.3395683],[25.6119299,47.3383456],[25.6118479,47.3373407],[25.6120571,47.336818],[25.6123495,47.3365464],[25.6129439,47.3362388],[25.6140222,47.3359927],[25.6161329,47.3353522],[25.617892,47.3346977],[25.6195653,47.3337263],[25.6204287,47.3329809],[25.6207673,47.3319807],[25.620893,47.3314183],[25.6208245,47.3307927],[25.620683,47.3291727],[25.6209166,47.3284452],[25.6215733,47.3273495],[25.6223463,47.3261122],[25.6232349,47.3251941],[25.6244401,47.3242122],[25.6256425,47.3231717],[25.6267299,47.3222611],[25.6270786,47.3218668],[25.6275481,47.320984],[25.6276275,47.3206615],[25.6276321,47.3202706],[25.6275533,47.3196546],[25.627149,47.3186304],[25.6261134,47.3173034],[25.625802,47.3167456],[25.6256272,47.3162717],[25.625583,47.3151844],[25.6256954,47.314658],[25.6259619,47.3142682],[25.6263686,47.3138945],[25.6272374,47.3132879],[25.6289549,47.312453],[25.630161,47.3118322],[25.6312155,47.3110274],[25.6313544,47.3104451],[25.6311741,47.3101604],[25.6308871,47.3099399],[25.6305612,47.309828],[25.6301523,47.3097644],[25.6295826,47.3097414],[25.6288589,47.3097989],[25.6281163,47.3099378],[25.6260755,47.3105307],[25.6246785,47.3107542],[25.6244231,47.3107395],[25.6241085,47.3106204],[25.6237677,47.3104182],[25.6235916,47.3101168],[25.6235726,47.3098193],[25.6237076,47.3091564],[25.6239917,47.3084285],[25.6247305,47.3078976],[25.6260566,47.3072468],[25.6272121,47.3063563],[25.6284119,47.3050203],[25.629258,47.3037615],[25.6302494,47.3023142],[25.6309566,47.3011409],[25.6322447,47.2995394],[25.6328193,47.2981904],[25.6328572,47.29694],[25.6329077,47.2960749],[25.6327436,47.2948116],[25.6324531,47.2938993],[25.6323401,47.2931944],[25.6323647,47.2927601],[25.6324696,47.2923895],[25.6328635,47.2917108],[25.6337476,47.2902846],[25.6350799,47.2885243],[25.6358211,47.2870584],[25.6364266,47.2855902],[25.6361064,47.2845749],[25.63595,47.284161],[25.6358993,47.2839184],[25.6360468,47.2835753],[25.6362587,47.2832322],[25.6368927,47.2826484],[25.6377335,47.2820943],[25.6384321,47.2817583],[25.6390693,47.2815426],[25.6397,47.2814012],[25.6402812,47.2813352],[25.6409481,47.2813201],[25.6423936,47.2815398],[25.6448493,47.282085],[25.6453917,47.2821699],[25.646081,47.2822423],[25.6466626,47.2822674],[25.6472694,47.2822099],[25.6478802,47.2820023],[25.6483877,47.2817838],[25.6488781,47.281518],[25.6492697,47.2812187],[25.6495464,47.2807466],[25.6496857,47.2802094],[25.6496814,47.2796063],[25.6494396,47.2788341],[25.6488946,47.2778079],[25.6477962,47.2758146],[25.6474918,47.2752256],[25.6473419,47.274873],[25.6472426,47.2743241],[25.6472899,47.2737368],[25.6474658,47.2732275],[25.6477386,47.2727724],[25.648073,47.2723186],[25.6497429,47.2710341],[25.6516272,47.2694465],[25.6537793,47.2680225],[25.6549714,47.2672871],[25.655735,47.2665137],[25.6559959,47.2659462],[25.6561168,47.2653532],[25.6560179,47.2648337],[25.6559582,47.26452],[25.6556992,47.2636837],[25.6558546,47.2633043],[25.656209,47.2631115],[25.6563476,47.263098],[25.656619,47.2630716],[25.6581996,47.2632292],[25.6624019,47.2637006],[25.6628102,47.2637008],[25.6635958,47.2637012],[25.6641078,47.263596],[25.6646024,47.263411],[25.6661562,47.2623504],[25.6678708,47.2612474],[25.6681567,47.2608597],[25.6683352,47.2604414],[25.6687638,47.2585808],[25.6694246,47.257102],[25.6696208,47.2566429],[25.6698979,47.2562716],[25.6702984,47.2560124],[25.6708445,47.2557807],[25.6716856,47.2556084],[25.6728016,47.2555568],[25.6754077,47.2557322],[25.6780415,47.256557],[25.6803084,47.257697],[25.6830743,47.2594393],[25.6838365,47.2597816],[25.6845012,47.2599212],[25.6851637,47.2600143],[25.6859725,47.2599212],[25.6877064,47.2594844],[25.6881895,47.2593756],[25.6888188,47.2592917],[25.6891721,47.2591839],[25.6894474,47.2590479],[25.6897295,47.2588156],[25.6900785,47.2583005],[25.6903552,47.2578358],[25.6906957,47.2572642],[25.6914412,47.25593],[25.6917723,47.255423],[25.6922408,47.2549703],[25.6926823,47.2546799],[25.69327,47.2543812],[25.6946075,47.2537893],[25.6949943,47.2536277],[25.695419,47.2533135],[25.6955999,47.2530118],[25.6957027,47.2527815],[25.6957141,47.2524644],[25.6956214,47.2521671],[25.6954428,47.2519581],[25.6946548,47.2511782],[25.693953,47.2505449],[25.6932943,47.2498962],[25.6921585,47.2487846],[25.6916865,47.248218],[25.6914706,47.247864],[25.6912547,47.2473422],[25.6910493,47.2463089],[25.6904873,47.2432611],[25.6902045,47.241059],[25.6902915,47.2405303],[25.6911469,47.2385835],[25.69148,47.2380518],[25.6919024,47.2377003],[25.6923295,47.2374911],[25.6928269,47.2373243],[25.6937867,47.237174],[25.6946224,47.2371094],[25.6955729,47.2370854],[25.6963228,47.2370875],[25.6966547,47.2371083],[25.6972017,47.2372088],[25.6975508,47.2372894],[25.6978342,47.2373889],[25.6980994,47.2375171],[25.6983491,47.2376873],[25.7004199,47.2395871],[25.7028825,47.241975],[25.7037239,47.2426819],[25.703862,47.2427629],[25.7040275,47.2428335],[25.7042579,47.2428914],[25.7045253,47.2429165],[25.7047892,47.2429103],[25.7050732,47.242871],[25.7053401,47.2427876],[25.7055242,47.2426845],[25.705664,47.2425606],[25.7069491,47.2412291],[25.7072242,47.2408781],[25.7075128,47.2404178],[25.7077024,47.2398128],[25.707817,47.2391496],[25.70804,47.2386775],[25.7083122,47.2382388],[25.7090532,47.2374775],[25.7097085,47.2363374],[25.7113313,47.2347089],[25.7123364,47.2340538],[25.7131725,47.2337421],[25.7140513,47.2335963],[25.7159118,47.2336021],[25.7167097,47.2335875],[25.7175452,47.2335048],[25.7185044,47.2333088],[25.7193944,47.2330445],[25.7198885,47.2328561],[25.7203325,47.2326634],[25.7210533,47.232286],[25.722955,47.2310252],[25.7233969,47.2308322],[25.7237277,47.2307708],[25.7241909,47.2307563],[25.7246465,47.2308367],[25.7251233,47.2310507],[25.7255375,47.2312903],[25.7259578,47.2316237],[25.7261764,47.2319414],[25.7267695,47.2334914],[25.7270795,47.233975],[25.7273814,47.2342984],[25.727817,47.2345522],[25.728399,47.2348093],[25.7291013,47.2349688],[25.7300282,47.2350192],[25.7313499,47.2349887],[25.7321464,47.2350293],[25.732943,47.2351125],[25.7366972,47.2355566],[25.7375877,47.2356405],[25.7384845,47.2356733],[25.739476,47.2356334],[25.7402038,47.2355224],[25.740666,47.2354077],[25.741522,47.2350487],[25.7422458,47.2346057],[25.7425326,47.234362],[25.7427371,47.2340507],[25.7430987,47.2332974],[25.7433518,47.2325901],[25.743376,47.2321095],[25.7433541,47.2316497],[25.743208,47.2309134],[25.7430914,47.2305452],[25.7426726,47.2296978],[25.7423754,47.2291998],[25.741958,47.2286887],[25.7412987,47.228014],[25.7409261,47.2274877],[25.740377,47.2263914],[25.7398852,47.2250776],[25.739475,47.2241462],[25.7393843,47.2235786],[25.7395054,47.2228487],[25.7396076,47.222055],[25.7395973,47.2216813],[25.7394231,47.2213679],[25.7377308,47.2200492],[25.7361628,47.2189433],[25.7354548,47.2184035],[25.7352606,47.2182353],[25.7350732,47.2179665],[25.7349884,47.2175605],[25.7351288,47.2170785],[25.7363049,47.2161959],[25.7382626,47.2153839],[25.7394865,47.2150765],[25.7407102,47.2148697],[25.7420695,47.2148278],[25.7433473,47.214909],[25.7444728,47.2151345],[25.7456435,47.2155322],[25.7478936,47.2164255],[25.7491532,47.2169335],[25.7503549,47.2172426],[25.7518103,47.2174288],[25.75287,47.217405],[25.7538754,47.2172705],[25.7549314,47.2170565],[25.7558424,47.2167316],[25.7572631,47.2159617],[25.7597079,47.2148532],[25.7602883,47.2145293],[25.76069,47.2142386],[25.7610561,47.213901],[25.7612146,47.2135935],[25.7612219,47.2133744],[25.7611632,47.2131296],[25.7609988,47.2128627],[25.7605962,47.2121989],[25.7603886,47.2112425],[25.7597253,47.2060132],[25.7595833,47.2054542],[25.7593895,47.2049854],[25.7591307,47.2047209],[25.7587686,47.2044805],[25.7583496,47.2042898],[25.7532422,47.2026292],[25.7524281,47.2021119],[25.7518223,47.2016254],[25.7514331,47.2010526],[25.7512342,47.2005167],[25.7511474,47.200261],[25.7510762,47.199754],[25.7511131,47.1993651],[25.7514943,47.1989269],[25.7518257,47.1986979],[25.7522964,47.1984844],[25.753203,47.1982235],[25.7540855,47.1980983],[25.7549096,47.1980066],[25.7592435,47.1976542],[25.7609179,47.1976209],[25.7624958,47.197449],[25.7632301,47.19729],[25.7638343,47.1972414],[25.7648889,47.1972816],[25.7656378,47.1972016],[25.7662307,47.1970813],[25.7677701,47.1966212],[25.7687055,47.1962068],[25.7709549,47.1950769],[25.7716352,47.1946783],[25.7724847,47.1940425],[25.7731855,47.193387],[25.7741403,47.1922424],[25.7760394,47.1900333],[25.7768707,47.1891823],[25.7778831,47.1884727],[25.7792013,47.1877596],[25.7793436,47.1875696],[25.7794337,47.1872372],[25.7793916,47.1870332],[25.7786113,47.1857896],[25.7769654,47.184213],[25.7767716,47.1838957],[25.7766911,47.1835403],[25.7767089,47.183314],[25.7767877,47.1828493],[25.7773197,47.1818975],[25.7782107,47.1811424],[25.7795523,47.180442],[25.7814582,47.1798381],[25.7843031,47.1789367],[25.7845128,47.1786378],[25.7848686,47.177965],[25.7853853,47.1773943],[25.7863873,47.1767201],[25.7875231,47.1760899],[25.7890507,47.1757148],[25.7913162,47.1754303],[25.7915753,47.1753565],[25.7917818,47.1752509],[25.7919502,47.175125],[25.7920543,47.1749912],[25.7925041,47.173001],[25.7934474,47.1715067],[25.7958838,47.1699686],[25.7964251,47.1697621],[25.7971125,47.1696152],[25.7987623,47.1695477]],[[26.8057979,46.6733069],[26.806039,46.6724412],[26.8066176,46.6717149],[26.8072716,46.671072],[26.8082316,46.6706769],[26.809688,46.6706561],[26.8112731,46.6710696],[26.8121797,46.6714647],[26.8131965,46.671862],[26.8146349,46.6718906],[26.81612,46.6717292],[26.817325,46.6712808],[26.8176311,46.6707973],[26.8182429,46.6706616],[26.8193524,46.6703654],[26.8208513,46.6701252],[26.8226667,46.6696825],[26.8245434,46.669066],[26.8253054,46.6689775],[26.8257798,46.6690337],[26.8265657,46.6690726],[26.8278755,46.6693347],[26.8295583,46.6697893],[26.8302824,46.6703173],[26.8308503,46.6704591],[26.8316313,46.6703126],[26.8320528,46.6701661],[26.8333728,46.66946],[26.8343818,46.6684154],[26.8354535,46.66752],[26.836102,46.6667429],[26.8364166,46.6660721],[26.8365885,46.6656266],[26.8371586,46.6651322],[26.8388961,46.6645256],[26.8396045,46.6642965],[26.8408665,46.6638885],[26.8416357,46.6637753],[26.8420923,46.6636728],[26.8429305,46.6627845],[26.8436399,46.6619109],[26.8440181,46.6609907],[26.8438492,46.6600485],[26.843277,46.658469],[26.8430697,46.6579499],[26.8437409,46.6574858],[26.8456107,46.6573053],[26.8472537,46.6573771],[26.8497335,46.6570659],[26.8542164,46.6548348],[26.8553849,46.6536898],[26.8593323,46.6519704],[26.8604525,46.6513422],[26.8626529,46.6501773],[26.8656199,46.6495286],[26.8678437,46.6479227],[26.8693916,46.6458013],[26.886297,46.6317432],[26.8875665,46.6309565],[26.8876532,46.6309318],[26.888007,46.6308286],[26.8890094,46.6305374],[26.8911021,46.6299859],[26.8927792,46.6297557],[26.8957097,46.6299235],[26.8984793,46.6305776],[26.9003731,46.6310286],[26.9013623,46.6313987],[26.902003,46.6314536],[26.9026329,46.6313981],[26.9033197,46.6310129],[26.9044786,46.630031],[26.9046896,46.6293826],[26.9045591,46.6286531],[26.9038921,46.6273195],[26.9037781,46.6264731],[26.9037704,46.6253697],[26.9038935,46.6244219],[26.9037183,46.6230915],[26.9037684,46.6217832],[26.9039171,46.6211279],[26.9046682,46.6207018],[26.9059797,46.6205312],[26.9070466,46.6200229],[26.9078641,46.6198754],[26.9082514,46.6194627],[26.9089927,46.6193006],[26.9103673,46.6185396],[26.9120208,46.6178156],[26.9127737,46.6179011],[26.9131701,46.6178925],[26.9137571,46.6176423],[26.9149439,46.6170619],[26.9156212,46.6165441],[26.9159478,46.6160169],[26.916215,46.6150465],[26.9164292,46.6147881],[26.9167951,46.6145389],[26.917329,46.6141219],[26.9178561,46.6136553],[26.9180136,46.6132849],[26.9176454,46.6127377],[26.917152,46.61219],[26.9153637,46.611194],[26.9141577,46.6109212],[26.9127127,46.6107475],[26.9121633,46.6105133],[26.9114165,46.6101347],[26.9110084,46.6097807],[26.9106718,46.6091878],[26.9101946,46.6081211],[26.9101594,46.6072496],[26.9104012,46.6064355],[26.9115469,46.6050311],[26.9126816,46.6035488],[26.9136005,46.6027289],[26.914601,46.6024866],[26.9181308,46.6001822],[26.9193124,46.5992855],[26.919711,46.5971257],[26.9195479,46.5933244],[26.9196426,46.5927277],[26.9203288,46.5904747],[26.9238854,46.5751648],[26.9235698,46.5748297],[26.9233965,46.5743366],[26.9235059,46.5740487]],[[26.9235059,46.5740487],[26.9235363,46.5739989]],[[26.9235363,46.5739989],[26.9238263,46.5737308],[26.9239765,46.5734985],[26.924116,46.5731555],[26.9242394,46.5729407],[26.9243588,46.5727794],[26.9244486,46.5726392],[26.9245613,46.5722225],[26.9246417,46.571839],[26.92468,46.5714827],[26.9247329,46.5711199],[26.9248939,46.5706847],[26.925205,46.5700357],[26.9257414,46.569158],[26.9264281,46.5680331],[26.9269538,46.5670226],[26.9274741,46.5659604],[26.927973,46.5649425],[26.9283968,46.5640868],[26.9286275,46.5635078],[26.9288474,46.5628881],[26.9290084,46.5624086],[26.9291103,46.5618849],[26.9291532,46.561457],[26.9291532,46.5609591],[26.9292551,46.5604907],[26.9292671,46.55996],[26.9292283,46.5596497],[26.9291156,46.5594173],[26.9288421,46.5590484],[26.9284129,46.5585652],[26.928024,46.5581244],[26.9278739,46.5577214],[26.9279338,46.5574712],[26.9280778,46.5571817],[26.9282978,46.5569668],[26.9296182,46.5555622],[26.93111,46.5550188],[26.9323737,46.554083],[26.9334055,46.5528818],[26.9350075,46.5513779],[26.9360745,46.5505117],[26.937513,46.5494241],[26.9394574,46.5484183],[26.9410706,46.5479491],[26.9417737,46.5469031],[26.9416176,46.545189],[26.9416287,46.5441469],[26.941816,46.5427674],[26.9432104,46.5417765],[26.945393,46.5404554],[26.9459366,46.5395387],[26.9460515,46.5371861],[26.9454501,46.5367821],[26.9451602,46.5339824],[26.9450218,46.5331371],[26.9442644,46.5317066],[26.9432918,46.531271],[26.9433743,46.5299956],[26.9446047,46.5287151],[26.9470526,46.5279995],[26.9480422,46.5260545],[26.9475882,46.5241241],[26.946483,46.5231288],[26.946832,46.5215677],[26.9484789,46.5204657],[26.9515838,46.5192955],[26.9523424,46.5186238],[26.952379,46.5170168],[26.9516614,46.5162855],[26.9516038,46.5162133],[26.9510003,46.5154568],[26.9518024,46.5132962],[26.9517523,46.5114296],[26.952985,46.5079475],[26.9545399,46.505894],[26.9566665,46.5040254],[26.9570841,46.5035105],[26.9564597,46.5013467],[26.9583996,46.4997868],[26.9602094,46.4991329],[26.9622429,46.4982194],[26.9630303,46.498074],[26.9642402,46.4979418],[26.9651813,46.4976509],[26.965623,46.4972147],[26.9658534,46.4967123],[26.965623,46.4960116],[26.9655846,46.4952448],[26.9661031,46.4945044],[26.9671978,46.4940284],[26.9685614,46.4937904],[26.9693296,46.4934202],[26.9704435,46.4924418],[26.9708468,46.4913444],[26.9710436,46.4906524]],[[26.7582265,46.6794229],[26.7596063,46.6796412],[26.7625907,46.6796363],[26.7634408,46.6798782],[26.7644316,46.6805771],[26.7644316,46.6810378],[26.7644316,46.6814548],[26.7650911,46.6822849],[26.765289,46.682534],[26.7662997,46.6829951],[26.7672521,46.6834296],[26.7711484,46.6839881],[26.7750156,46.6842674],[26.7764975,46.6841642],[26.7777371,46.6838734],[26.7788962,46.6835017],[26.7809855,46.6824597],[26.784988,46.6788561],[26.785854,46.6782551],[26.7864129,46.6780836],[26.7870187,46.6780087],[26.7876197,46.6782931],[26.7881425,46.6785024],[26.7894686,46.678982],[26.790258,46.6792508],[26.7907668,46.6794204],[26.7920462,46.6797695],[26.7929331,46.6798992],[26.7935626,46.6799417],[26.7940671,46.6799091],[26.7946535,46.6797526],[26.7950993,46.6795102],[26.7955476,46.6791181],[26.7958553,46.6786723],[26.7960297,46.677994],[26.7961442,46.6773845],[26.7961024,46.6769467],[26.7957826,46.6760788],[26.7955209,46.6757098],[26.7953319,46.6752908],[26.7954785,46.6750955],[26.7958753,46.6748466],[26.7967567,46.674413],[26.7972872,46.6741933],[26.7978645,46.6740808],[26.7985827,46.6740694],[26.7992649,46.6741854],[26.7999784,46.6745482],[26.8005599,46.6750071],[26.800893,46.6753631],[26.8010542,46.6756654],[26.8012869,46.6764036],[26.8013741,46.677042],[26.8016394,46.6772699],[26.8022642,46.6776265],[26.8027313,46.6778088],[26.8030414,46.6778937],[26.8034921,46.6779357],[26.8042441,46.6777716],[26.8047273,46.677433],[26.8052413,46.6770521],[26.8055703,46.6766148],[26.8058273,46.6762198],[26.8061563,46.6758389],[26.8065161,46.67519],[26.8065305,46.6745072],[26.8062426,46.6739217],[26.806037,46.6735761],[26.8057979,46.6733069]],[[26.7443007,46.6769681],[26.7446373,46.677089],[26.7448384,46.6772046],[26.7450238,46.6774596],[26.7453226,46.6774993],[26.7454963,46.6774425],[26.7460311,46.6773083],[26.7463705,46.6772921],[26.7469236,46.6773354],[26.7476815,46.677338],[26.7481736,46.6772655],[26.7499486,46.6768168],[26.7524109,46.676702],[26.7532794,46.6767561],[26.7536065,46.6769684],[26.7538216,46.6772363],[26.7538801,46.6775816],[26.7536575,46.6778543],[26.7530304,46.6781561],[26.7527387,46.6785058],[26.7527858,46.6788039],[26.7531527,46.679095],[26.7535298,46.6791892],[26.7541978,46.679239],[26.755255,46.6792047],[26.7561117,46.6794339],[26.7582265,46.6794229]],[[26.3137793,46.9313048],[26.315941,46.9316154],[26.317513,46.9317663],[26.3181511,46.9318865],[26.3190579,46.9323304],[26.319294,46.9326821],[26.3197231,46.9331876],[26.3204792,46.9338352],[26.3212195,46.934436],[26.3219762,46.9348067],[26.3227269,46.9350441],[26.3236499,46.935151],[26.3243309,46.935132],[26.3267985,46.9346997],[26.3296417,46.9339598],[26.3311279,46.9335539],[26.3327004,46.93249],[26.3343465,46.9317736],[26.3355837,46.9314565],[26.3378689,46.9314804],[26.3409275,46.9317399],[26.3428774,46.9320155],[26.3434015,46.9321071],[26.343789,46.9321137],[26.3446339,46.9321282],[26.3455765,46.9320731],[26.3459978,46.9320485],[26.3476286,46.9318324],[26.3494673,46.931227],[26.3505724,46.9306995],[26.3527246,46.92888],[26.3539906,46.9275098],[26.3552287,46.9260177],[26.3558869,46.9254142],[26.3564367,46.9251069],[26.3570254,46.9248751],[26.3576924,46.9247585],[26.3588765,46.9246988],[26.3619738,46.9246797],[26.3626923,46.9246343],[26.3632919,46.9245458],[26.3637886,46.9244341],[26.3642784,46.9242947],[26.3650689,46.9239956],[26.3656566,46.923687],[26.3670143,46.9229031],[26.3674831,46.9226337],[26.3677407,46.9224681],[26.3691353,46.9214285],[26.370292,46.9203315],[26.372512,46.9179197],[26.3727402,46.9176718],[26.3733025,46.9170609],[26.3742037,46.9158004],[26.3751194,46.9149441],[26.3758673,46.9144366],[26.3761181,46.9142737],[26.3775112,46.9137513],[26.3791562,46.9132098],[26.3804602,46.9128836],[26.3818212,46.9126197],[26.3842609,46.9122701],[26.3847899,46.9120818],[26.3851822,46.9118934],[26.3866212,46.9110388],[26.3886383,46.9103206],[26.3906982,46.9096609],[26.3920766,46.909021],[26.3929093,46.9085054],[26.3936576,46.9080015],[26.3944458,46.9074412],[26.3948002,46.9070578],[26.3950148,46.9067126],[26.3951035,46.906463],[26.3951171,46.906133],[26.3950327,46.9056882],[26.3950472,46.9055304],[26.3957193,46.9048086],[26.3964843,46.9035214],[26.3974196,46.9025727],[26.3983829,46.9020876],[26.3986277,46.9018675],[26.3987963,46.9015606],[26.398895,46.901422],[26.3994594,46.900115],[26.4003756,46.8988123],[26.4013627,46.8976393],[26.4018679,46.896905],[26.4019723,46.8967195],[26.4020359,46.8965303],[26.4020493,46.8961584],[26.4021563,46.8957818],[26.4023286,46.8955966],[26.4025428,46.89544],[26.4034655,46.8951174],[26.4053109,46.894223],[26.406991,46.8928717],[26.4073758,46.8925945],[26.4075422,46.8922729],[26.407506,46.8917133],[26.4075425,46.8899558],[26.4065833,46.8884146],[26.4061775,46.8880611],[26.4059396,46.8875641],[26.4059849,46.8869102],[26.40624,46.8863615],[26.4068865,46.8859678],[26.4070733,46.8856801],[26.4070503,46.8854498],[26.4058967,46.8836337],[26.4047884,46.8823807],[26.4044776,46.8816825],[26.4043689,46.8810844],[26.4043862,46.8805725],[26.4048238,46.8792631],[26.4054587,46.8787424],[26.406077,46.8783338],[26.4067582,46.8781739],[26.4073244,46.8779985],[26.4076247,46.8778327],[26.4087291,46.876975],[26.4095528,46.8762285],[26.4098449,46.8756255],[26.409776,46.8752505],[26.4088256,46.8741294],[26.4083416,46.8736334],[26.4082045,46.8733233],[26.4082913,46.8730131],[26.4087291,46.8722224],[26.4118984,46.869114],[26.4139406,46.8677001],[26.4160247,46.8662384],[26.4167923,46.8658836],[26.4177939,46.8656591],[26.4197583,46.8655329],[26.4203628,46.8654702],[26.4207939,46.8653431],[26.4213799,46.8649946],[26.421889,46.8644978],[26.4225573,46.8637003],[26.4230038,46.8628701],[26.4234557,46.8624252],[26.4239426,46.8620952],[26.4245728,46.8617971],[26.425126,46.8615611],[26.4262705,46.8611978],[26.4272192,46.8610449],[26.4293649,46.8610742],[26.4298278,46.8615299],[26.4302932,46.8616962],[26.4307447,46.8617477],[26.4327192,46.8616692],[26.4332998,46.8616112],[26.4339153,46.861405],[26.4345158,46.8611185],[26.4351373,46.8607411],[26.4358834,46.859971],[26.4365164,46.8588161],[26.4372614,46.8576996],[26.4377407,46.8571232],[26.438304,46.8568402],[26.4389488,46.8565935],[26.4397347,46.8565866],[26.4405233,46.8567087],[26.4412,46.8567686],[26.4419357,46.8568615],[26.4424307,46.8568881],[26.4430385,46.8567882],[26.4435763,46.8570231],[26.4448204,46.8576946],[26.4456728,46.857993],[26.4477756,46.8579637],[26.4490554,46.8579625],[26.4496336,46.8580013],[26.4501138,46.8580178],[26.4503914,46.8579447],[26.4506044,46.8577762],[26.4506761,46.8576561],[26.4510144,46.8574121],[26.4513701,46.8572285],[26.4520188,46.8569767],[26.4524689,46.8567831],[26.4530364,46.8563682],[26.453229,46.8562118],[26.4535195,46.8557847],[26.45417,46.8540312],[26.4543481,46.8518873],[26.4560647,46.8508013],[26.4591117,46.8497741],[26.4601352,46.848895],[26.4620664,46.8481025],[26.4637895,46.845929],[26.4654203,46.844931],[26.4685466,46.8447564],[26.4720292,46.8441678],[26.4763208,46.8434634],[26.4787468,46.8422737],[26.48052,46.8404707],[26.4825864,46.8393243],[26.4832708,46.8386837],[26.4839962,46.8380047],[26.485584,46.8373589],[26.4869573,46.837535],[26.4881654,46.8375336],[26.4892318,46.8377699],[26.4888949,46.8384143],[26.4895238,46.8385674],[26.4906257,46.8382761],[26.4911382,46.8378808],[26.4921501,46.8375644],[26.4942738,46.8364212],[26.4950667,46.8361658],[26.4957185,46.8349501],[26.4956327,46.8337757],[26.4962169,46.8334331],[26.4972078,46.8328101],[26.4976135,46.8324523],[26.4978424,46.8322254],[26.4985009,46.8317083],[26.4992207,46.8312875],[26.5006995,46.8306552],[26.5024562,46.8302525],[26.503695,46.8297468],[26.5058144,46.828535],[26.5076425,46.8280519],[26.5085051,46.8278972],[26.5094002,46.8278758],[26.5100923,46.8281007],[26.5113762,46.8289034],[26.5122316,46.8288992],[26.5129211,46.8287272],[26.5159252,46.8274059],[26.5176577,46.8266182],[26.5181632,46.8261712],[26.5183318,46.8258937],[26.5183778,46.8252903],[26.5190667,46.8247004],[26.5197034,46.8244177],[26.5201391,46.8243912],[26.5205603,46.8244783],[26.5214209,46.8245644],[26.5218457,46.8244853],[26.5221479,46.8243814],[26.5225741,46.8241035],[26.5228776,46.8238009],[26.5233041,46.8231168],[26.5242078,46.8217386],[26.5246434,46.8200045],[26.5250251,46.8187846],[26.5252914,46.8180388],[26.5254427,46.817747],[26.5257766,46.8171489],[26.5257978,46.8166273],[26.5259646,46.816025],[26.5261819,46.8156302],[26.527218,46.8149141],[26.5284886,46.8144327],[26.5302746,46.8139564],[26.5313033,46.8136319],[26.531982,46.8131617],[26.533778,46.811724],[26.5369918,46.8109829],[26.5380695,46.8108134],[26.5395164,46.8109893],[26.5407302,46.8110191],[26.5423693,46.8104369],[26.5433481,46.8098148],[26.5438949,46.809202],[26.5441003,46.8087428],[26.5441309,46.8082836],[26.5449554,46.8066278],[26.545576,46.8059955],[26.5465456,46.8051507],[26.5471159,46.8045783],[26.5480206,46.8042155],[26.5490516,46.804112],[26.5505145,46.8042572],[26.5514531,46.804183],[26.5521499,46.8038559],[26.5525749,46.8035288],[26.5534396,46.8018529],[26.5532252,46.8010751],[26.5530105,46.8002959],[26.5536049,46.7989166],[26.5550275,46.7980632],[26.5565295,46.7981513],[26.5587547,46.798946],[26.5606065,46.7991502],[26.5618697,46.7978069],[26.5631814,46.7970937],[26.5647628,46.7968895],[26.5678957,46.7968013],[26.5699491,46.7962723],[26.5709919,46.7955643],[26.5720144,46.7950303],[26.5733737,46.7950501],[26.5743104,46.7952653],[26.5761847,46.7949914],[26.5771288,46.7945066],[26.5782661,46.7938015],[26.5797681,46.7932138],[26.5814343,46.792577],[26.582872,46.7910932],[26.583344,46.7898738],[26.5847678,46.7885567],[26.5858117,46.7880961]],[[26.3043437,46.9313454],[26.3045052,46.9311763],[26.3047283,46.9310408],[26.3051276,46.9308553],[26.3056296,46.9306891],[26.3061222,46.9304975],[26.3067883,46.9303374],[26.3078719,46.9301323],[26.3086122,46.9301103],[26.3089153,46.9301165],[26.3098513,46.9301909],[26.3108769,46.9304358],[26.3116494,46.9306556],[26.313082,46.9311729],[26.3137793,46.9313048]],[[26.2989834,46.9315885],[26.2989144,46.9313885],[26.299006,46.9313378],[26.2991336,46.9312673],[26.2998641,46.9311497],[26.3006259,46.9310927],[26.3016329,46.9310339],[26.3026999,46.931082],[26.3034902,46.9312054],[26.3043437,46.9313454]],[[26.1026824,46.9379171],[26.1014057,46.936767],[26.1006225,46.9350308],[26.1005204,46.9344766],[26.1003187,46.9340619],[26.1001182,46.9339319],[26.0986055,46.9328623],[26.0973222,46.9317417],[26.0969016,46.9309915],[26.0960413,46.9290745],[26.0958255,46.9284982],[26.0957409,46.928144],[26.0953225,46.9269423],[26.0951249,46.9265244],[26.0948397,46.926151],[26.0935951,46.9244804],[26.0924191,46.9233165],[26.0914224,46.9225302],[26.0903335,46.9216226],[26.0883974,46.9203824],[26.0869356,46.9193723],[26.0857382,46.9185959],[26.0851664,46.9179561],[26.0850403,46.9175391],[26.0851721,46.9171671],[26.0866742,46.9157821],[26.087374,46.9145136],[26.0878867,46.9135842],[26.0880218,46.91338],[26.0885041,46.9128373],[26.088722,46.9126678],[26.089139,46.9123377],[26.0893972,46.912084],[26.0897084,46.9119463],[26.090001,46.9117841],[26.0903408,46.9116188],[26.0906895,46.9115189],[26.0908564,46.9115435],[26.0916262,46.9115992],[26.0920318,46.9116571],[26.092697,46.9118036],[26.0932119,46.9118476],[26.0940702,46.9119502],[26.0944994,46.9120235],[26.0948642,46.9121848],[26.0953577,46.9124633],[26.0960658,46.912859],[26.096495,46.9131815],[26.096967,46.913504],[26.0972889,46.9137238],[26.0976322,46.9139144],[26.0980614,46.9140023],[26.0986193,46.9139877],[26.0993059,46.9138264],[26.1001857,46.9135479],[26.1007436,46.9133134],[26.1013873,46.9131229],[26.1017521,46.9130496],[26.1019881,46.9129909],[26.10231,46.9126831],[26.1026533,46.9122287],[26.1028304,46.9119627],[26.1028679,46.9119063],[26.1031468,46.9114372],[26.1033829,46.911144],[26.1037691,46.9107189],[26.1041553,46.9100153],[26.1043485,46.9092824],[26.1045845,46.9085054],[26.1046703,46.908051],[26.1046274,46.9070688],[26.1045845,46.906717],[26.1046918,46.9063358],[26.1049064,46.9060133],[26.1052068,46.9058521],[26.1055072,46.9056029],[26.1057003,46.9053683],[26.1059149,46.9050018],[26.1062849,46.9040899],[26.1063592,46.9036751],[26.1063376,46.9015686],[26.1064111,46.9009027],[26.1064467,46.9008183],[26.106654,46.9003269],[26.1070285,46.8998562],[26.1078053,46.8995644],[26.1087843,46.8995436],[26.1092193,46.8996732],[26.1097786,46.8998397],[26.1102552,46.9000901],[26.1105282,46.9003461],[26.1109285,46.9010669],[26.1114081,46.9013729],[26.1121911,46.9016547],[26.1130844,46.9019088],[26.1135704,46.9020626],[26.1138617,46.9020565],[26.1144888,46.9020165],[26.1153311,46.9017083],[26.1153947,46.9016776],[26.1160692,46.9013524],[26.1167225,46.9008827],[26.1168893,46.9007284],[26.117834,46.8998547],[26.1202651,46.897349],[26.1218832,46.8958156],[26.1223711,46.8940876],[26.1218588,46.8928152],[26.121249,46.8914872],[26.1210132,46.8907982],[26.1212406,46.8901651],[26.1216169,46.8897494],[26.1219434,46.889317],[26.1237685,46.8886555],[26.1241273,46.8885255],[26.1255619,46.8886357],[26.1273064,46.8891702],[26.1282194,46.8895383],[26.133373,46.8927277],[26.1338078,46.8928501],[26.1342348,46.8928666],[26.1358744,46.8925887],[26.1374809,46.892672],[26.1377842,46.8926602],[26.1380934,46.8925461],[26.139077,46.8920605],[26.1401786,46.8916942],[26.141595,46.8911623],[26.1446581,46.8897733],[26.1459499,46.8893792],[26.1470725,46.8890042],[26.1478837,46.8889771],[26.148766,46.8891856],[26.1491486,46.8893746],[26.1512076,46.8901574],[26.1531654,46.8902728],[26.1536682,46.8902539],[26.1540287,46.8900545],[26.1547036,46.8895471],[26.1564218,46.8876498],[26.1574593,46.8870965],[26.1582489,46.8868081],[26.1592282,46.8867357],[26.1606919,46.8867699],[26.1618151,46.8871402],[26.1645114,46.8883244],[26.1656349,46.8890653],[26.166743,46.8899228],[26.1673223,46.8910226],[26.1690175,46.892489],[26.1695859,46.8930663],[26.1705345,46.8940298],[26.1721503,46.8951137],[26.1740171,46.8962281],[26.1753581,46.8975836],[26.1754762,46.8978556],[26.1753973,46.8981595],[26.1752656,46.8985064],[26.1752498,46.8987118],[26.1753055,46.8989527],[26.1761629,46.9013744],[26.1768414,46.9023988],[26.1769354,46.9037787],[26.1769211,46.9053523],[26.1771285,46.9059631],[26.1779868,46.9070626],[26.1785316,46.9073327],[26.1788236,46.9073997],[26.1796819,46.9072385],[26.1806475,46.9070332],[26.1829435,46.907561],[26.1851966,46.9085285],[26.1859845,46.9092145],[26.1862695,46.9096279],[26.1862536,46.9102514],[26.1859604,46.9108128],[26.1850968,46.9110652],[26.1845389,46.9114903],[26.184662,46.9123012],[26.1851751,46.9131459],[26.1862909,46.9139814],[26.189281,46.9157264],[26.1909325,46.9170078],[26.1926424,46.9183346],[26.1939728,46.919551],[26.1974489,46.9215296],[26.2015473,46.9228485],[26.2045514,46.9230684],[26.2058833,46.9230186],[26.207298,46.9229658],[26.2087356,46.9237132],[26.2121259,46.9251347],[26.2142932,46.9256916],[26.2162887,46.9265562],[26.2193405,46.9282967],[26.2194505,46.9283594],[26.2213527,46.9298972],[26.2228762,46.9313186],[26.2236394,46.9319128],[26.2245145,46.9325941],[26.2275111,46.9339121],[26.2293994,46.9342637],[26.2323605,46.9338535],[26.2359654,46.9333846],[26.2387096,46.9334171],[26.2396776,46.9334286],[26.2428963,46.9340586],[26.2452482,46.9357996],[26.2454126,46.9366874],[26.2452137,46.9374285],[26.2434555,46.9385828],[26.2429393,46.9390904],[26.2429181,46.9396728],[26.2429848,46.9398925],[26.2431115,46.9403101],[26.2434756,46.9407835],[26.2439977,46.9411431],[26.244984,46.9415368],[26.2459862,46.9415746],[26.2471499,46.9415],[26.2498173,46.9409915],[26.2510412,46.9406137],[26.2540542,46.9393185],[26.2554704,46.9391134],[26.2567794,46.939465],[26.2582599,46.9404612],[26.2587843,46.9408034],[26.2595216,46.9409931],[26.2603872,46.9409785],[26.2618648,46.9407103],[26.2637441,46.9400984],[26.2642484,46.9398584],[26.2646103,46.9396378],[26.2649508,46.9394277],[26.2654697,46.9389962],[26.2657532,46.9387257],[26.2659654,46.9384649],[26.2672032,46.9371527],[26.2677514,46.9366379],[26.2681447,46.936283],[26.268451,46.9360116],[26.2686733,46.9357976],[26.268971,46.9356394],[26.2697273,46.9353733],[26.2703034,46.9352691],[26.2708226,46.9352232],[26.2713948,46.9352566],[26.27191,46.9353191],[26.2727497,46.9355287],[26.27362,46.9358041],[26.2742799,46.935856],[26.2747697,46.9358358],[26.2753373,46.9357914],[26.2756947,46.9357133],[26.2760236,46.9356297],[26.2763255,46.9354688],[26.2765101,46.9352913],[26.2767135,46.9351429],[26.2771404,46.9347554],[26.2773492,46.9343718],[26.277414,46.9339477],[26.2776091,46.933654],[26.2779704,46.9333027],[26.2783822,46.9330631],[26.27877,46.9328797],[26.2804174,46.9323288],[26.2818866,46.9319712],[26.2826104,46.931864],[26.2832606,46.9318379],[26.284247,46.9318833],[26.2859314,46.931832],[26.2876051,46.9316415],[26.2888604,46.9315097],[26.2892332,46.9314548],[26.2896073,46.9313689],[26.2900884,46.9313814],[26.2907537,46.931487],[26.2915386,46.9315606],[26.2921965,46.9315736],[26.2928715,46.9316344],[26.2931622,46.931713],[26.2933195,46.9318121],[26.2933937,46.9319186],[26.2932873,46.932052],[26.292981,46.9321323],[26.2926891,46.9322389],[26.2924343,46.9324197],[26.2922171,46.9327499],[26.2921648,46.9330129],[26.2923619,46.9331382],[26.2927193,46.933253],[26.2935951,46.9333428],[26.2945533,46.9330805],[26.2949033,46.9329127],[26.2951368,46.9327332],[26.2959414,46.9324328],[26.2970143,46.9320591],[26.2977439,46.9318687],[26.2988215,46.9316251],[26.2989834,46.9315885],[26.2992352,46.9315316],[26.2993869,46.9315013],[26.3012753,46.9314808],[26.302743,46.9315192],[26.3035672,46.9315194],[26.3039262,46.931449],[26.3043437,46.9313454],[26.3050734,46.9314533],[26.3055429,46.9315944],[26.3058809,46.9317212],[26.306166,46.931854],[26.3064822,46.9321118],[26.306838,46.9322943],[26.3076788,46.93255],[26.3092452,46.9329749],[26.3099533,46.9330116],[26.3103502,46.932909],[26.310994,46.932594],[26.3118056,46.9320438],[26.3126314,46.9315245],[26.3132214,46.9313707],[26.3137793,46.9313048]],[[25.9565818,47.0584445],[25.9568399,47.0580339],[25.9574192,47.0574053],[25.9602731,47.0553295],[25.9645646,47.0535898],[25.9693552,47.0517931],[25.9715813,47.0509582],[25.9757011,47.0490576],[25.9782546,47.0487505],[25.9825676,47.0487798],[25.9844988,47.0489845],[25.9873155,47.0496863],[25.9882539,47.0499202],[25.9910005,47.0500956],[25.9979098,47.0473762],[26.0030597,47.0456216],[26.0079306,47.0439986],[26.013531,47.0427118],[26.0213585,47.0419622],[26.0246461,47.0409425],[26.0314482,47.0398019],[26.0364478,47.0367748],[26.0419195,47.0313344],[26.0483783,47.0260982],[26.0529917,47.0223682],[26.0556954,47.021198],[26.0620254,47.0164728],[26.0650938,47.0139272],[26.0661452,47.0130494],[26.0691493,47.0100647],[26.0726469,47.007431],[26.0747712,47.0056604],[26.0761016,47.0039045],[26.0799854,46.9972607],[26.0828178,46.9945971],[26.0840195,46.9916553],[26.0837834,46.9893719],[26.0826891,46.986825],[26.0804575,46.9857565],[26.076681,46.9844683],[26.0740202,46.9838974],[26.0715955,46.9836046],[26.0685485,46.9825214],[26.0660809,46.9801791],[26.0651153,46.9774414],[26.0651796,46.9754357],[26.0667675,46.9733127],[26.0709088,46.9697108],[26.0723894,46.9677487],[26.0730546,46.9666358],[26.0732477,46.9649372],[26.0723036,46.9635607],[26.0719174,46.9613933],[26.0727971,46.9602656],[26.0745996,46.9589915],[26.0773032,46.9578345],[26.0823029,46.9556083],[26.0858648,46.9542755],[26.0902422,46.9542169],[26.0935467,46.9544073],[26.0979884,46.9550225],[26.1015075,46.9548467],[26.1043828,46.9537482],[26.106829,46.9524447],[26.1085241,46.9498814],[26.1086529,46.9481236],[26.1073011,46.9443881],[26.1054585,46.9416837],[26.1051816,46.9409064],[26.1044585,46.9395829],[26.1033699,46.9384774]],[[25.7987623,47.1695477],[25.8017463,47.1688803],[25.803098,47.1681728],[25.8042853,47.1670498],[25.8044232,47.1667071],[25.8044856,47.1665518],[25.8054423,47.165948],[25.8075339,47.1655938],[25.8087737,47.1649961],[25.8096231,47.1643962],[25.8101222,47.1640437],[25.8123087,47.1627166],[25.8138591,47.1619542],[25.8155864,47.1607761],[25.817523,47.1597621],[25.8185074,47.1594502],[25.8202857,47.1594411],[25.8219754,47.15937],[25.8244162,47.158956],[25.8263474,47.1586897],[25.8301884,47.1579784],[25.8319908,47.1574277],[25.8331602,47.1568677],[25.8342761,47.1559393],[25.8353094,47.1552748],[25.8359428,47.1550944],[25.8382686,47.155118],[25.8392206,47.1548193],[25.8411317,47.1536849],[25.8432507,47.1519923],[25.8441224,47.1511805],[25.8451014,47.1489606],[25.8456808,47.148282],[25.8466625,47.1478442],[25.8479553,47.1476325],[25.849924,47.1475486],[25.8511002,47.1477548],[25.8517587,47.1481944],[25.8523327,47.1490116],[25.8531266,47.1501025],[25.854119,47.1512626],[25.8547252,47.1530319],[25.8551154,47.15345],[25.8559161,47.1538162],[25.8568742,47.1539846],[25.8586842,47.1539147],[25.8620637,47.1534514],[25.8642256,47.1527127],[25.8663123,47.1519958],[25.8674228,47.1511932],[25.868045,47.1502921],[25.8681241,47.1493972],[25.868206,47.1484717],[25.8675113,47.1471473],[25.8667684,47.1462132],[25.8642417,47.1445751],[25.8630777,47.1434185],[25.8614951,47.1408607],[25.8608996,47.1396565],[25.8608487,47.1389741],[25.8615917,47.1384085],[25.8645582,47.1372481],[25.8662721,47.1367555],[25.86775,47.1365804],[25.8690373,47.136849],[25.870443,47.1373358],[25.8719772,47.1381094],[25.8735972,47.138737],[25.8770466,47.1395617],[25.8785164,47.1395617],[25.8799782,47.1391019],[25.8813059,47.1382991],[25.8826953,47.1361352],[25.8834132,47.1358459],[25.8847531,47.1360001],[25.8870705,47.1365074],[25.8898869,47.1372262],[25.8912977,47.1374343],[25.8934005,47.1369854],[25.8953103,47.1364892],[25.895609,47.1362406],[25.8960559,47.1358688],[25.8965763,47.1345916],[25.8969652,47.133383],[25.8970966,47.1320954],[25.8972093,47.1310188],[25.8974775,47.1302706],[25.8986845,47.1285341],[25.8995321,47.1269107],[25.9000738,47.1262245],[25.9008946,47.1249708],[25.9009372,47.1248886],[25.9016134,47.1235856],[25.9021606,47.1230016],[25.9039738,47.1223664],[25.9057286,47.121968],[25.9073966,47.1218177],[25.9086408,47.12164],[25.9100946,47.1210159],[25.9117361,47.1198551],[25.9131684,47.1182271],[25.9147559,47.1161784],[25.9153561,47.1153931],[25.9161056,47.114498],[25.9166466,47.1139445],[25.9174009,47.1133827],[25.9186562,47.1129045],[25.9213384,47.1121962],[25.9233984,47.112021],[25.9252276,47.1121049],[25.9255172,47.1121802],[25.9269121,47.112543],[25.928795,47.1131709],[25.9304472,47.1136967],[25.9324321,47.1143502],[25.9339628,47.1151197],[25.9341876,47.1152106],[25.9344545,47.1152681],[25.9347165,47.1152601],[25.9349855,47.1152044],[25.9354537,47.1149588],[25.9357955,47.114675],[25.9362408,47.1139961],[25.9364875,47.1133298],[25.9364929,47.1129519],[25.9364092,47.1126302],[25.9354887,47.1113813],[25.9354382,47.1106635],[25.9356076,47.1100152],[25.936332,47.1094799],[25.936619,47.1087661],[25.9365787,47.1077821],[25.936659,47.1072163],[25.9373029,47.1067635],[25.938762,47.1057703],[25.9409078,47.1049232],[25.9427532,47.1038424],[25.9436404,47.1029522],[25.9438191,47.1025355],[25.9439977,47.1021189],[25.9444698,47.100337],[25.9445996,47.0994715],[25.9448689,47.098701],[25.9457143,47.0971526],[25.9468301,47.0957503],[25.9478537,47.0942653],[25.9483042,47.0940077],[25.9493492,47.0937256],[25.9507633,47.0934393],[25.9520658,47.0932669],[25.9534723,47.0931559],[25.9546836,47.0931208],[25.9576877,47.093004],[25.9599335,47.0929512],[25.9601768,47.0929455],[25.9624322,47.092902],[25.9641295,47.0929575],[25.9648714,47.0928374],[25.9655296,47.0925083],[25.9663021,47.0918217],[25.9673146,47.0908553],[25.9674849,47.0902393],[25.9675376,47.0884865],[25.9675896,47.0873658],[25.9676422,47.0865966],[25.9674704,47.0852269],[25.9670434,47.0843714],[25.9663235,47.0838008],[25.9658761,47.0834114],[25.964843,47.083041],[25.9633495,47.0826677],[25.9621489,47.0821666],[25.9615954,47.0817355],[25.9605729,47.0810392],[25.9596073,47.0802063],[25.9574615,47.0789789],[25.9558737,47.0780875],[25.9545004,47.0772838],[25.9538352,47.0764071],[25.9528696,47.075501],[25.9513171,47.074112],[25.9513386,47.0734398],[25.95224,47.0726368],[25.9531915,47.0717891],[25.9540927,47.0708976],[25.954436,47.0691438],[25.9549081,47.0677115],[25.9545004,47.0657238],[25.9544145,47.064116],[25.9545218,47.0624935],[25.9548437,47.0606517],[25.9565818,47.0584445]],[[26.9622429,46.4982194],[26.9620962,46.4978546],[26.9615679,46.4971758],[26.9611276,46.4970545],[26.9590881,46.4972663],[26.9581248,46.4969225],[26.9582422,46.4957062],[26.9569171,46.4936247],[26.9567216,46.4915003],[26.955645,46.4892536],[26.954488,46.4875728],[26.9526874,46.4863943],[26.9520213,46.4848783],[26.9519044,46.4832498],[26.9526448,46.482442],[26.9534242,46.4811398]],[[26.5858117,46.7880961],[26.5867204,46.787969],[26.5873566,46.788008],[26.5880218,46.7884928],[26.5886301,46.788924],[26.590497,46.7893941],[26.5919698,46.7894274],[26.5931577,46.7892031],[26.5941448,46.7874401],[26.5945098,46.786251],[26.5946948,46.7858551]],[[26.5858117,46.7880961],[26.5862272,46.7873006],[26.5867963,46.7865101],[26.587089,46.7857974],[26.5871495,46.7856264],[26.5873011,46.785363],[26.5877791,46.7851714],[26.5890033,46.7852831],[26.5901693,46.7856184],[26.5913002,46.7861134],[26.5923496,46.7864248],[26.5930958,46.7864487],[26.593877,46.786305],[26.594285,46.7861374],[26.5945066,46.7859697],[26.5946948,46.7858551],[26.5948531,46.7855163],[26.5956256,46.7847229],[26.596441,46.7841352],[26.5978143,46.7834299],[26.5991017,46.7826953],[26.6009471,46.7820781],[26.6027066,46.7816373],[26.6037366,46.7806646],[26.604552,46.7799622],[26.6054961,46.7797271],[26.6067836,46.7792539],[26.607556,46.7785486],[26.607556,46.7780196],[26.6069552,46.7770527],[26.6060111,46.7762003],[26.6057536,46.7752892],[26.6056249,46.7744075],[26.6057965,46.7735845],[26.6066548,46.7728174],[26.6077063,46.7717593],[26.608629,46.7701867],[26.6091654,46.7692196],[26.6093585,46.7681467],[26.6099379,46.7670003],[26.6105601,46.7663066],[26.6112897,46.7660302],[26.6123196,46.765557],[26.6130921,46.7649102],[26.614165,46.764384],[26.6153666,46.7636462],[26.6160104,46.7630288],[26.6164824,46.7623262],[26.6167399,46.7616207],[26.6168687,46.7608857],[26.6164824,46.7600331],[26.61571,46.7591776],[26.61571,46.7585014],[26.6159245,46.7573548],[26.6165683,46.7567667],[26.6178986,46.7559435],[26.6184565,46.755476],[26.6189715,46.7544175],[26.6188428,46.7537707],[26.6191432,46.753065],[26.6196582,46.7520947],[26.6204736,46.7514449],[26.6211602,46.7507686],[26.621246,46.7502099],[26.6208169,46.7492689],[26.6202161,46.7488308],[26.6192719,46.7486543],[26.6180274,46.7485955],[26.6169116,46.7488014],[26.6162249,46.7486837],[26.6157529,46.7482427],[26.6160104,46.7475369],[26.6164824,46.7470341],[26.6175553,46.7464489],[26.6181132,46.7458901],[26.6185853,46.7453285],[26.6193148,46.7446844],[26.6206023,46.7438022],[26.6215035,46.7433287],[26.6217181,46.7425376],[26.6220185,46.7417436],[26.6223917,46.7414695],[26.6226193,46.7413024],[26.6254088,46.7394761],[26.6272971,46.7385085],[26.6284129,46.7380379],[26.6305158,46.7377143],[26.6319749,46.7374202],[26.6330478,46.7372408],[26.6343781,46.7366232],[26.6351506,46.7361849],[26.6371676,46.7355643],[26.6392276,46.7347731],[26.6408154,46.733976],[26.641545,46.7337407],[26.6427037,46.7340643],[26.6442487,46.7349172],[26.6449353,46.7353584],[26.6455361,46.7352996],[26.6465232,46.7344172],[26.6473386,46.7330965],[26.6482398,46.7324759],[26.6492268,46.7317141],[26.6495272,46.7310963],[26.6490552,46.7302727],[26.6485831,46.7297403],[26.6475961,46.7290372],[26.6474244,46.7282724],[26.6486689,46.7276547],[26.6493556,46.7270928],[26.6507718,46.7272987],[26.6525742,46.7280341],[26.6538617,46.7285636],[26.6549775,46.7284754],[26.6554534,46.7282281],[26.6566941,46.7278576],[26.6578245,46.7274625],[26.6581961,46.726475],[26.6584966,46.7257719],[26.6586682,46.7252718],[26.6589257,46.7244481],[26.6586253,46.7238568],[26.6581103,46.7233596],[26.6583678,46.7225358],[26.658754,46.721565],[26.6592047,46.7211972],[26.6606745,46.7200763],[26.6612797,46.7197247],[26.6622399,46.7194735],[26.6634629,46.719297],[26.664432,46.719222],[26.6660035,46.7189331],[26.6676804,46.7176814],[26.6684529,46.7161514],[26.6689679,46.7140623],[26.6693971,46.7130324],[26.6693613,46.7121081],[26.6704267,46.7108445],[26.6714087,46.7104991],[26.6720237,46.7102609],[26.6729091,46.7099524],[26.6743605,46.7097452],[26.676285,46.7095316],[26.6780719,46.7096495],[26.6800401,46.7099986],[26.6818854,46.7102929],[26.6838166,46.7102046],[26.6854903,46.7093836],[26.6867778,46.7084095],[26.6872498,46.7075591],[26.6884086,46.7072324],[26.6901681,46.7066438],[26.6911015,46.7057713],[26.6920993,46.7051944],[26.6936871,46.7047898],[26.6949746,46.7042925],[26.6958758,46.7035538],[26.6972062,46.7030564],[26.6982791,46.7027621],[26.699352,46.7024678],[26.7011544,46.7014642],[26.7022702,46.7008461],[26.7042014,46.7001251],[26.7078599,46.6988624],[26.7102954,46.6978175],[26.7125699,46.6966667],[26.7136428,46.6957277],[26.7146727,46.6944296],[26.715531,46.693105],[26.7160889,46.6923132],[26.7169258,46.6918393],[26.7175783,46.6916194],[26.7186639,46.6912535],[26.7211315,46.6906913],[26.7255303,46.6901025],[26.7268607,46.6898994],[26.7279336,46.6895137],[26.7288992,46.6890016],[26.7294571,46.6884319],[26.7302081,46.6870438],[26.730294,46.6859619],[26.7302832,46.6850787],[26.7308089,46.6843722],[26.7321071,46.6836921],[26.7338774,46.6832358],[26.7384801,46.6826396],[26.7394349,46.6820507],[26.739907,46.6813368],[26.7397997,46.6802621],[26.738952,46.6787531],[26.7388526,46.6783769],[26.7393252,46.6775025],[26.7403434,46.6769088],[26.7410133,46.6767378],[26.7416051,46.6766848],[26.7428778,46.6769332],[26.7443007,46.6769681],[26.7450587,46.676933],[26.7456292,46.6768658],[26.7465055,46.676692],[26.7481685,46.6763608],[26.7501539,46.6758952],[26.7520415,46.6752565],[26.752997,46.675067],[26.7543697,46.6749695],[26.7549583,46.6750196],[26.7558396,46.6750946],[26.7566228,46.6753007],[26.7571699,46.6758749],[26.7574172,46.676554],[26.7573958,46.6770767],[26.7569238,46.6779084],[26.7569881,46.67849],[26.7572831,46.6789022],[26.7575991,46.6791543],[26.7582265,46.6794229]],[[26.1033699,46.9384774],[26.1026824,46.9379171]]]},"properties":{"name":"Bistrița","name_ro":"Bistrița","type":"river","source":"manual_premap","source_detail":"HOTOSM Waterways HDX snapshot 2026-08-07, waterway=river name match (16 segments, 2192 points), ANCPI validation: see README","osm_type":"way","osm_id":"way/108191614","geocode_tier":"tier1","confidence":"high"}}]}