{"type":"FeatureCollection","metadata":{"pipeline":"tier1_premap","pipeline_version":"1.0","generated_at":"2026-08-11T10:41:03.295638+00:00"},"features":[{"type":"Feature","id":"crisul-repede","geometry":{"type":"MultiLineString","coordinates":[[[22.5083788,46.9814429],[22.509068,46.9820705],[22.5102199,46.9829399],[22.5108413,46.9834345],[22.5113684,46.9837922],[22.5118768,46.9841024],[22.5122368,46.9843725],[22.5127054,46.9848017],[22.5130709,46.9851009],[22.5145086,46.9862105],[22.5150629,46.9867508],[22.515465,46.9871788],[22.5160437,46.9878977],[22.5162204,46.9881844],[22.5164823,46.9886789],[22.5170245,46.9897884],[22.5172743,46.9901707],[22.5175606,46.9905613],[22.5181332,46.9912179],[22.5184987,46.9916002],[22.5197171,46.9926681],[22.5199729,46.9929423],[22.5202471,46.9932955],[22.5205212,46.9936985],[22.5206796,46.9939852],[22.5207831,46.9942927],[22.5208136,46.9945794],[22.5207527,46.994891],[22.5206248,46.9952193],[22.5199973,46.9964741],[22.5196379,46.9970391],[22.5193272,46.997438],[22.5190348,46.9977579],[22.5188094,46.9980404],[22.518517,46.998352],[22.5179322,46.9988714],[22.5175971,46.9992037],[22.5167443,47.0001261],[22.5164092,47.0005249],[22.5162021,47.0007908],[22.5160133,47.0010899],[22.515861,47.0014223],[22.5157208,47.0017879],[22.5156477,47.0021244],[22.5156234,47.0024734],[22.5156173,47.0029054],[22.5156538,47.0031921],[22.5157818,47.0034995],[22.5159219,47.0037529],[22.5160924,47.0039731],[22.5165859,47.0044882],[22.5167382,47.0047042],[22.5168113,47.0048953],[22.5168356,47.0050947],[22.5167869,47.0054354],[22.5167296,47.0056547],[22.5166176,47.0059366],[22.5164367,47.0063303],[22.5160059,47.0071469],[22.5155407,47.0077578],[22.5151616,47.008122],[22.514817,47.0083982],[22.5144896,47.0086273],[22.5137832,47.0090385],[22.5132318,47.0092441],[22.5128097,47.0093851],[22.512198,47.0095143],[22.5115088,47.0096377],[22.5105353,47.0097904],[22.5102165,47.0098668],[22.5099495,47.0099666],[22.5096652,47.0101194],[22.5094153,47.0102897],[22.509243,47.0104895],[22.5091483,47.0106833],[22.5090879,47.0108889],[22.5090879,47.0111768],[22.5091999,47.0114705],[22.5094326,47.0117701],[22.5100583,47.0124633],[22.5103765,47.0127718],[22.5106994,47.013043],[22.5109316,47.0132973],[22.5110953,47.0135852],[22.5112159,47.0138436],[22.5112331,47.0143018],[22.5111987,47.0145661],[22.5111556,47.0147364],[22.5111125,47.0149949],[22.5110436,47.0152357],[22.510923,47.0154707],[22.5107664,47.015639],[22.510498,47.015756],[22.5103211,47.0159754],[22.5102632,47.0162077],[22.510139,47.0163576],[22.5098978,47.0165162],[22.5095273,47.0167277],[22.5091999,47.0168686],[22.5088553,47.0169509],[22.5084504,47.0169685],[22.5078043,47.016945],[22.5070031,47.0169391],[22.5054179,47.0169743],[22.505013,47.0170037],[22.5046425,47.0170742],[22.5042204,47.0171741],[22.5039016,47.0172915],[22.5031177,47.0176733],[22.5023165,47.0181021],[22.5020494,47.0182607],[22.5017996,47.0183605],[22.5011793,47.0185602],[22.5008777,47.0186953],[22.5005073,47.0188832],[22.5000679,47.0191475],[22.4997061,47.0194353],[22.4992581,47.019823],[22.4987929,47.0202635],[22.4985588,47.0206525],[22.4981731,47.0209626]],[[22.5053993,46.9774875],[22.505491,46.9778684],[22.5056289,46.9782335],[22.5057972,46.9786262],[22.5060323,46.9790682],[22.5063075,46.9794985],[22.5066916,46.9799405],[22.5072134,46.9804608],[22.5081731,46.9812567],[22.5083788,46.9814429]],[[22.7459295,46.9548507],[22.7457303,46.9548717],[22.7455342,46.9549317],[22.7453382,46.9550332],[22.7443377,46.9557253],[22.7439591,46.9560575],[22.7436414,46.9563805],[22.743398,46.9566759],[22.7431884,46.9568789],[22.7427017,46.957308],[22.7424516,46.9574326],[22.7422353,46.9575064],[22.7419446,46.9575756],[22.7416201,46.9576171],[22.7409846,46.9576633],[22.7403897,46.9576771],[22.7401531,46.9576679],[22.7397408,46.9576264],[22.7395988,46.9576402],[22.7383684,46.9579447],[22.7379223,46.9580186],[22.737226,46.9580878],[22.7369353,46.9580924],[22.7365297,46.9581293],[22.7363877,46.9581524],[22.7360632,46.958217],[22.7358334,46.9583],[22.7355968,46.9584061],[22.7353737,46.9585261],[22.7351641,46.9586876],[22.7348329,46.9590844],[22.7346774,46.9592136],[22.7344543,46.959352],[22.7326088,46.960141],[22.7323384,46.9602148],[22.7320477,46.9602333],[22.7317502,46.9602148],[22.7312432,46.9600764],[22.7309255,46.9599334],[22.730797,46.9599057],[22.7305942,46.9598826],[22.7303914,46.9598826],[22.7301683,46.9599011],[22.7297018,46.9600383],[22.7294111,46.9601398],[22.7291002,46.9602228],[22.7287284,46.9602736],[22.7277955,46.9601767],[22.7273966,46.960149],[22.7270316,46.9601444],[22.7259297,46.9602413],[22.7253888,46.9602643],[22.7249765,46.9602551],[22.7247331,46.9602228],[22.7245709,46.9601859],[22.7243478,46.9600982],[22.7239557,46.9599091],[22.723834,46.9598168],[22.7236718,46.9596461],[22.7235163,46.9594477],[22.7234081,46.9592677],[22.7233608,46.9591155],[22.7233337,46.9589125],[22.7232999,46.9587971],[22.7230769,46.9582849],[22.7229417,46.9580635],[22.7229011,46.957985],[22.7228605,46.9578143],[22.7228943,46.9571914],[22.7230078,46.9563956],[22.7231472,46.9557345],[22.7232099,46.955587],[22.7233632,46.955373],[22.7235513,46.9551542],[22.7237882,46.9549164],[22.7239555,46.9547832],[22.7243527,46.9545834],[22.7245687,46.9544455],[22.7246523,46.9543314],[22.724715,46.9541268],[22.724722,46.9538605],[22.7245896,46.9534134],[22.7244502,46.9531423],[22.7244363,46.9530471],[22.7244781,46.9529282],[22.7246174,46.952776],[22.7249171,46.9525192],[22.7249728,46.9523812],[22.7249868,46.9522433],[22.7249589,46.9520816],[22.7248822,46.9519198],[22.724708,46.9516677],[22.7246105,46.9514917],[22.7243736,46.9509733],[22.7242412,46.9507545],[22.7240809,46.9505404],[22.7239067,46.9503739],[22.7236558,46.9502074],[22.7231611,46.9499934],[22.7225967,46.9497888],[22.7224085,46.9496937],[22.7222343,46.94957],[22.7220253,46.9492799],[22.7219486,46.9490943],[22.7219138,46.9488898],[22.7218929,46.9482334],[22.7218371,46.9478385],[22.7217187,46.9474722],[22.7216978,46.9473248],[22.7217187,46.9470917],[22.7217605,46.9468824],[22.7218859,46.9465399],[22.7221577,46.9460213],[22.7223946,46.9458501],[22.7224782,46.9457692],[22.7226036,46.9455694],[22.7226942,46.9453316],[22.7227848,46.9451746],[22.7228824,46.9450319],[22.7230008,46.9448987],[22.7234607,46.9444372],[22.7235234,46.9443326],[22.7235583,46.9442041],[22.7235443,46.9440947],[22.7234398,46.943814],[22.7233214,46.943657],[22.7231193,46.9435286],[22.7229451,46.9434762],[22.7228057,46.9434667],[22.7226454,46.9434858],[22.7224991,46.9435571],[22.7223458,46.9436047],[22.7217953,46.9436665],[22.7213633,46.9437331],[22.7206525,46.9438093],[22.7203738,46.9438568],[22.7199348,46.9438568],[22.7197049,46.9438188],[22.7191056,46.943638],[22.7182764,46.9434192],[22.7176632,46.9432146],[22.7171475,46.9430576],[22.7164786,46.9428768],[22.7163044,46.9428197],[22.7158375,46.9426199],[22.7156633,46.9425581],[22.7155518,46.942539],[22.7153846,46.9425153],[22.7148411,46.9425105],[22.7138655,46.9425581],[22.7134892,46.9426056],[22.7131339,46.942677],[22.7122837,46.9428768],[22.7120398,46.9429482],[22.7117402,46.9430671],[22.7114545,46.9432098],[22.7111758,46.9433573],[22.7105138,46.9437712],[22.7101584,46.9439567],[22.710026,46.9440091],[22.7098797,46.9440519],[22.7096707,46.9440899],[22.708946,46.944166],[22.7081725,46.9441946],[22.7077753,46.9441898],[22.7072318,46.944128],[22.7068416,46.9440376],[22.7065559,46.9439282],[22.7058305,46.9436027],[22.7055518,46.9435123],[22.7051268,46.9434077],[22.7048411,46.9433553],[22.7045763,46.9433316],[22.7043115,46.9433506],[22.7040955,46.9434124],[22.7039143,46.9434886],[22.7036216,46.9436741],[22.7030642,46.9440689],[22.7028482,46.9441831],[22.7026252,46.9442735],[22.7022907,46.9443544],[22.701782,46.9444352],[22.7013918,46.9444686],[22.7012037,46.9444971],[22.7010364,46.9445447],[22.7008762,46.9446113],[22.7004441,46.9448206],[22.7002281,46.9448919],[22.6999773,46.944949],[22.6995661,46.9450204],[22.6988832,46.945106],[22.6985766,46.945125],[22.6983119,46.9451203],[22.6980122,46.9451441],[22.6977335,46.9451964],[22.6968764,46.9454152],[22.6962632,46.9456245],[22.6958033,46.9458481],[22.6955734,46.9459813],[22.6953991,46.9460907],[22.6952528,46.946243],[22.6951553,46.9463619],[22.6950298,46.9467234],[22.6947093,46.9474513],[22.6946396,46.9475464],[22.6945421,46.9476415],[22.6944375,46.9477081],[22.694326,46.9477557],[22.6942076,46.94777],[22.6940403,46.9477605],[22.6938174,46.9477652],[22.6936571,46.947808],[22.6931902,46.9480792],[22.6930021,46.9481553],[22.6927652,46.9482266],[22.6924446,46.9482647],[22.6921938,46.9482552],[22.6918175,46.9482029],[22.6913646,46.9481125],[22.6909047,46.9479935],[22.6904866,46.9478699],[22.6900615,46.9477224],[22.6889745,46.9471944],[22.6887794,46.9471278],[22.6884728,46.9470517],[22.6876923,46.9469042],[22.6868701,46.9466901],[22.686675,46.9466235],[22.6863196,46.946576],[22.68579,46.9465712],[22.6850723,46.9465141],[22.6848772,46.9464618],[22.6847657,46.9464047],[22.6846751,46.9463286],[22.6846214,46.9462486],[22.6845775,46.9461336],[22.6844939,46.9460765],[22.6843615,46.9460432],[22.6842082,46.9460146],[22.6840201,46.9460051],[22.6838041,46.9460146],[22.683313,46.946107],[22.6830203,46.9461974],[22.6819054,46.9466446],[22.6816824,46.9467064],[22.6814753,46.9467394],[22.6807557,46.9468539],[22.6803445,46.946968],[22.6796198,46.9471298],[22.6790206,46.9472868],[22.6787767,46.9473581],[22.6785537,46.9474057],[22.6782471,46.9474295],[22.6779893,46.9474675],[22.6770974,46.9476578],[22.6768953,46.9476768],[22.6764981,46.9476721],[22.6762124,46.9476435],[22.6755574,46.9475484],[22.6749581,46.947477],[22.6748118,46.9474818],[22.6745958,46.9474675],[22.6743867,46.947439],[22.6742055,46.9473867],[22.6740941,46.9473248],[22.6739477,46.9472059],[22.6736899,46.9469585],[22.6736063,46.9468919],[22.6734739,46.9468253],[22.6729234,46.946597],[22.6724705,46.9464305],[22.6719409,46.9461784],[22.6717249,46.946107],[22.6709096,46.9459643],[22.6707145,46.9459072],[22.6705681,46.9458263],[22.6701849,46.9455076],[22.6700804,46.9453459],[22.6699898,46.9451461],[22.669934,46.9449558],[22.6699131,46.9447037],[22.6700246,46.9444515],[22.6700455,46.9443278],[22.6700246,46.9440947],[22.6698992,46.9436618],[22.6698295,46.9434382],[22.669732,46.9432574],[22.6695856,46.9428578],[22.6691954,46.9421157],[22.6690491,46.942011],[22.6686589,46.9416352],[22.6685404,46.9414972],[22.6684638,46.9413687],[22.6684289,46.9412355],[22.6681781,46.9408311],[22.667969,46.9405742],[22.6677042,46.9403221],[22.6675091,46.9401127],[22.667321,46.9398796],[22.6670074,46.9394419],[22.666659,46.938871],[22.6665057,46.9385665],[22.6664012,46.9383429],[22.666227,46.9378338],[22.6661085,46.9376007],[22.665997,46.9373913],[22.6658507,46.937044],[22.6657392,46.9365159],[22.6655789,46.9360829],[22.6649239,46.9347839],[22.6640947,46.9336182],[22.6639275,46.9334231],[22.6636487,46.9331804],[22.6634118,46.9328949],[22.6632655,46.9325714],[22.6631331,46.9319956],[22.6630146,46.931791],[22.6628892,46.9317101],[22.6625199,46.9315293],[22.6620809,46.9313437],[22.661175,46.9309202],[22.6604155,46.9306585],[22.6602134,46.9305776],[22.6599068,46.930392],[22.6597256,46.930216],[22.6596002,46.9300542],[22.6595026,46.9298924],[22.6593702,46.9295402],[22.6592936,46.9294356],[22.6591542,46.9293166],[22.6589173,46.9291738],[22.6585341,46.928993],[22.6583668,46.928874],[22.6571962,46.9277367],[22.6569035,46.9275131],[22.6567502,46.9271895],[22.6566805,46.9270991],[22.6562764,46.926785],[22.6561927,46.9266898],[22.6561022,46.9265185],[22.6557328,46.9257047],[22.6554611,46.9252479],[22.6553217,46.9249718],[22.6551406,46.9246815],[22.6549245,46.9244245],[22.6545064,46.923982],[22.6539211,46.9234918],[22.6538305,46.9234347],[22.6536912,46.9233728],[22.6534961,46.9233395],[22.6531964,46.9233252],[22.652841,46.9233442],[22.6523115,46.9234013],[22.6512523,46.9235679],[22.650759,46.923626],[22.6501224,46.9237544]],[[22.6501224,46.9237544],[22.6496462,46.9240125],[22.6490767,46.924412],[22.6485901,46.9248822],[22.6483779,46.9251191],[22.6482122,46.9253807],[22.6479638,46.9258757],[22.6478033,46.9262433],[22.6476058,46.9265496],[22.6474262,46.92679],[22.6469665,46.9273296],[22.6467798,46.9275307],[22.6465356,46.9277465],[22.6461405,46.9280212],[22.6457814,46.928237],[22.6454079,46.9284283],[22.6450057,46.9286196],[22.6439067,46.9290317],[22.6437056,46.9290758],[22.6432531,46.9291249],[22.6430017,46.929169],[22.6427575,46.929223],[22.6424917,46.9293063],[22.6422044,46.9293603],[22.6417375,46.9294044],[22.6415292,46.9293995],[22.6412275,46.9293603],[22.6409259,46.9292916],[22.6405739,46.9291935]],[[22.5215561,46.9526246],[22.520793,46.9527213],[22.5205177,46.9527266],[22.5202896,46.9527105],[22.5199041,46.9526353],[22.519613,46.9525387],[22.5193849,46.9524904],[22.5190545,46.9524581],[22.5184724,46.9524904],[22.5182443,46.952485],[22.5174026,46.952383],[22.5171037,46.9523561],[22.5168126,46.9523507],[22.5165766,46.9523669],[22.5163563,46.9524313],[22.5161204,46.9525441],[22.5159001,46.9526944],[22.5157742,46.9528179],[22.515727,46.9529683],[22.515727,46.953081],[22.5158057,46.9532314],[22.516317,46.9536448],[22.5175756,46.9547295],[22.5178195,46.9549711],[22.5179611,46.9551644],[22.5181027,46.9554275],[22.5182128,46.9557228],[22.5182364,46.9559],[22.5182286,46.9560772],[22.5181892,46.9562544],[22.5180398,46.9565228],[22.5178667,46.9567591],[22.5176386,46.9569899],[22.5172846,46.9572154],[22.5170486,46.9573121],[22.5161361,46.9575483],[22.5155304,46.9577255],[22.5146859,46.9580374],[22.5142967,46.9582366],[22.513648,46.9586628],[22.513348,46.9589561],[22.5132108,46.9591317],[22.5125453,46.9600518],[22.5123913,46.9603064],[22.5122615,46.960572],[22.5122048,46.9607712],[22.5121804,46.9609705],[22.5121804,46.9613357],[22.5122291,46.9616345],[22.5123183,46.9619887],[22.5123426,46.9622654],[22.5123345,46.9625421],[22.5122858,46.9628077],[22.5121399,46.9632891],[22.5118885,46.963931],[22.5117993,46.9642243],[22.5117932,46.9644602],[22.5118441,46.9647694],[22.5119467,46.9649869],[22.5121245,46.9652381],[22.5122516,46.9653458],[22.5123919,46.9654004],[22.5126135,46.9654346],[22.5129746,46.9653967],[22.5132153,46.9654188],[22.5134235,46.9655055],[22.5138508,46.9658678],[22.514021,46.9660891],[22.5141508,46.9663215],[22.5142643,46.9666867],[22.5142886,46.9668914],[22.5142562,46.9671017],[22.5141994,46.9672511],[22.5137697,46.9678653],[22.5135102,46.9681254],[22.513348,46.968319],[22.5132588,46.9684573],[22.5132021,46.9685957],[22.5131697,46.9690549],[22.5132102,46.9692873],[22.5132751,46.9694588],[22.5133805,46.9696304],[22.5135183,46.9699955],[22.5135507,46.9701671],[22.5135507,46.9703109],[22.5135102,46.9704824],[22.5132832,46.9709251],[22.5131372,46.9711132],[22.5129994,46.9712626],[22.5128291,46.9714009],[22.5125696,46.9715614],[22.5122372,46.9717329],[22.511548,46.972015],[22.5111345,46.9721423],[22.5108507,46.9722142],[22.5105912,46.9722696],[22.5101615,46.9723249],[22.5098858,46.9723415],[22.5091074,46.9723027],[22.5088317,46.9723138],[22.5085398,46.9723525],[22.5082803,46.9724079],[22.5078018,46.9725756],[22.507737,46.9726181],[22.5074857,46.9728118],[22.5072911,46.9729888],[22.5071208,46.9730773],[22.5069594,46.9731381],[22.5064803,46.9734204],[22.5063424,46.9735144],[22.5061316,46.9737136],[22.5060019,46.973874],[22.5059289,46.9740234],[22.5058721,46.9744383],[22.5059127,46.9752018],[22.5058802,46.9754397],[22.5058073,46.9757827],[22.5057181,46.9760649],[22.5054991,46.9766126],[22.5053775,46.9771105],[22.5053775,46.9773318],[22.5053993,46.9774875]],[[22.5461379,46.9329264],[22.5460439,46.9335066],[22.5459165,46.9338413],[22.5456306,46.9342619],[22.5454708,46.9345325],[22.5453135,46.9350487],[22.5452906,46.9352989],[22.5453059,46.9355646],[22.5453517,46.9357991],[22.5453364,46.9359242],[22.545283,46.9360701],[22.5452906,46.9362264],[22.5453593,46.9364349],[22.5454738,46.9365599],[22.5458401,46.9368361],[22.5462293,46.9370446],[22.5464277,46.9372113],[22.5465498,46.9373885],[22.5466414,46.9375761],[22.5466262,46.937946],[22.5465422,46.9381284],[22.5462827,46.9383577],[22.5462293,46.9384619],[22.5460691,46.9390716],[22.5460614,46.9393425],[22.5460767,46.9396812],[22.5460614,46.9399991],[22.5460767,46.9401867],[22.5461148,46.9402961],[22.5461988,46.940369],[22.5463209,46.9404055],[22.5468475,46.9404003],[22.5470154,46.9404159],[22.5472596,46.9404732],[22.547542,46.9405097],[22.5477938,46.9405306],[22.5480151,46.9405254],[22.5483509,46.9404889],[22.5486562,46.9404785],[22.5489386,46.9404785],[22.549198,46.9405045],[22.5494423,46.9405775],[22.5496025,46.9406504],[22.5497017,46.940739],[22.5497704,46.9408693],[22.5498086,46.9410204],[22.5498315,46.941458],[22.5498009,46.9416352],[22.5497246,46.9418332],[22.5495949,46.9419687],[22.5494652,46.9420729],[22.5490836,46.9423334],[22.5488928,46.9424324],[22.5486944,46.9425001],[22.5485341,46.9425262],[22.5478091,46.9425731],[22.5475954,46.9426043],[22.5474351,46.9426564],[22.5472901,46.9427294],[22.5469085,46.9428857],[22.5445427,46.9437871],[22.5439856,46.943959],[22.5423219,46.9444279],[22.5416656,46.9446624],[22.541398,46.9447879],[22.5411462,46.9449437],[22.5403832,46.9454968],[22.5391718,46.946195],[22.5387155,46.9464205],[22.5380862,46.9466729],[22.5375906,46.9468985],[22.5372366,46.9470434],[22.5365129,46.9472636],[22.5360803,46.9473603],[22.5340193,46.9477362],[22.5335079,46.9478168],[22.5332011,46.9478382],[22.532855,46.9478382],[22.5326033,46.9478597],[22.532383,46.9479027],[22.5320762,46.9480316],[22.5313289,46.9484289],[22.5309828,46.948676],[22.530503,46.9490465],[22.5293623,46.9500131],[22.5288825,46.950244],[22.5286386,46.9504051],[22.5282689,46.9507595],[22.5277104,46.9514039],[22.527262,46.9517959],[22.5270339,46.9519516],[22.5267271,46.9521127],[22.5263652,46.9522791],[22.5260112,46.9524026],[22.5256101,46.95251],[22.5251538,46.9525906],[22.5247447,46.9526496],[22.5243514,46.9526711],[22.5239002,46.9526783],[22.5233024,46.9526353],[22.5229248,46.9525924],[22.5225394,46.9525763],[22.5220516,46.9525924],[22.5215561,46.9526246]],[[22.6004982,46.9243075],[22.6002769,46.9244691],[22.6001167,46.9245629],[22.5997961,46.9246932],[22.5978653,46.92535],[22.59756,46.9255011],[22.5971632,46.9257461],[22.5968198,46.9260171],[22.5965221,46.9263246],[22.5955224,46.9276067],[22.5952934,46.9278309],[22.5951103,46.927982],[22.5949729,46.9280602],[22.5948279,46.9281175],[22.5946295,46.9281488],[22.59437,46.9281384],[22.5938053,46.9279924],[22.5928742,46.9278517],[22.5914394,46.9277423],[22.5908365,46.9277162],[22.5903786,46.9277162],[22.589997,46.9277423],[22.5897147,46.9277839],[22.5894857,46.9278725],[22.5892339,46.9279924],[22.5890049,46.9281488],[22.5888599,46.928227],[22.5886004,46.9282999],[22.5881273,46.9283885],[22.5877533,46.9284146],[22.5864559,46.9285657],[22.5861125,46.9285866],[22.5858759,46.9285709],[22.5856928,46.9285397],[22.5855783,46.9284875],[22.5854715,46.9283885],[22.585418,46.928253],[22.5852654,46.9280654],[22.5851128,46.9279142],[22.5848762,46.9277214],[22.5847007,46.9276537],[22.5845328,46.9276537],[22.5843179,46.9276954],[22.5837314,46.9279299],[22.5833117,46.9280602],[22.582869,46.9281592],[22.5826248,46.9282374],[22.5816556,46.9286595],[22.5814953,46.9287429],[22.5813046,46.9288941],[22.5810451,46.9291807],[22.5807627,46.9295403],[22.5804727,46.9299416],[22.5803353,46.9302178],[22.5801827,46.9306452],[22.5800224,46.9313018],[22.5798622,46.9317239],[22.5796561,46.9320158],[22.5790837,46.9327245],[22.5788624,46.9329278],[22.5785419,46.9331727],[22.5782442,46.9333707],[22.5779084,46.9335479],[22.5771453,46.9338502],[22.5762295,46.9341628],[22.57539,46.9344338],[22.5749321,46.9346788],[22.5745887,46.9348872],[22.5733371,46.9358096],[22.5729631,46.9360597],[22.5727113,46.9362108],[22.5723984,46.9363463],[22.5718718,46.9365078],[22.571391,46.9366173],[22.5692694,46.9369039],[22.568926,46.9369299],[22.5685825,46.9369247],[22.5673996,46.9368153],[22.5668425,46.9368413],[22.5666136,46.9368257],[22.5662396,46.9367684],[22.5656291,46.9365756],[22.5653238,46.9364349],[22.5648583,46.9361691],[22.5644156,46.9358148],[22.5641104,46.9356532],[22.5638509,46.935549],[22.5636982,46.9355125],[22.5634769,46.9354917],[22.5632098,46.9355125],[22.5626222,46.9355855],[22.5620422,46.9357106],[22.5611798,46.9359294],[22.5594932,46.9364193],[22.5591421,46.936513],[22.5587911,46.936586],[22.5575318,46.9367632],[22.5570434,46.9367997],[22.5562116,46.9368153],[22.5559673,46.9367684],[22.5558071,46.9366954],[22.5556697,46.9366016],[22.5555247,46.9365443],[22.5553187,46.9365235],[22.5546013,46.936513],[22.553571,46.9365756],[22.5529299,46.9365756],[22.5519149,46.936487],[22.5508541,46.9363307],[22.5504115,46.9362317],[22.5500375,46.9361274],[22.5496407,46.9359972],[22.549343,46.9358721],[22.548618,46.9355125],[22.5485036,46.9354396],[22.5484425,46.9353562],[22.5484196,46.9352468],[22.5484654,46.9351686],[22.5485951,46.9350644],[22.5487936,46.9349497],[22.5489386,46.9348351],[22.5490912,46.934611],[22.5492591,46.9342775],[22.5492875,46.9339849],[22.549275,46.9337236],[22.5492156,46.9334682],[22.5492515,46.9332665],[22.549137,46.933105],[22.5490987,46.9328888],[22.5488516,46.9326785],[22.5485392,46.9325961],[22.5481948,46.9326262],[22.5474333,46.9327868],[22.5465946,46.93279],[22.5461841,46.9327753],[22.5461379,46.9329264]],[[22.6405739,46.9291935],[22.6399993,46.9289973],[22.6395899,46.9288404],[22.6391733,46.9286491],[22.6390224,46.9286147],[22.6388572,46.9286098],[22.6383872,46.9286697],[22.6378838,46.9288113],[22.6374543,46.9288972],[22.6371138,46.9289175],[22.6358033,46.9288618],[22.6354997,46.9288821],[22.6346335,46.928968],[22.6343373,46.9289781],[22.6340634,46.9289528],[22.6336488,46.9288821],[22.6335081,46.9288315],[22.6333822,46.9287658],[22.6327677,46.9281944],[22.6325012,46.9278607],[22.6324567,46.9277495],[22.6323975,46.9273298],[22.6323531,46.9272337],[22.6319681,46.9267888],[22.6318792,46.9266472],[22.6317756,46.9263388],[22.631783,46.925909],[22.6317386,46.9257674],[22.6315905,46.9255399],[22.631472,46.9254236],[22.6312795,46.925282],[22.6310648,46.9251758],[22.6303763,46.9249432],[22.6291324,46.9245488],[22.6284513,46.9243667],[22.6277775,46.9242151],[22.6275924,46.9241594],[22.627474,46.9241038],[22.6273481,46.9240229],[22.6268446,46.9235981],[22.6266225,46.9233858],[22.6260894,46.9228447],[22.6258895,46.922607],[22.6255712,46.9220862],[22.6254379,46.921798],[22.6253713,46.9215704],[22.625164,46.9211305],[22.6250549,46.9209628],[22.6249344,46.9208726],[22.6247419,46.9207967],[22.6245124,46.9207411],[22.6240164,46.920554],[22.6226615,46.9197904],[22.6220173,46.919487],[22.6215583,46.919315],[22.6211511,46.9192139],[22.6202256,46.9190217],[22.6199739,46.9189509],[22.6192187,46.918693],[22.6188855,46.9185919],[22.6186856,46.9185362],[22.6184561,46.9184958],[22.6182858,46.9184907],[22.6181599,46.9185211],[22.6180785,46.9185716],[22.6179156,46.9187082],[22.6177749,46.9189155],[22.6176342,46.9191785],[22.6175676,46.9193504],[22.6175306,46.9195072],[22.6175454,46.9197347],[22.6175824,46.9199522],[22.6175824,46.9207057],[22.6176342,46.9214693],[22.6176342,46.9217474],[22.6175824,46.9219446],[22.6174862,46.922162],[22.6173307,46.9224402],[22.6171752,46.9226728],[22.6169312,46.9229689],[22.6166125,46.9232037],[22.6162201,46.9234464],[22.6159462,46.923588],[22.6156648,46.9237043],[22.6150133,46.9240836],[22.6146949,46.9242252],[22.6142877,46.9244477],[22.6134733,46.9249533],[22.6132586,46.9251606],[22.6131549,46.9253224],[22.6130365,46.9254488],[22.6129032,46.9255196],[22.6127329,46.9255651],[22.6124738,46.9255904],[22.6122294,46.9255904],[22.6119407,46.9255753],[22.611689,46.9255196],[22.6112521,46.9253578],[22.6107339,46.9250999],[22.610223,46.9247612],[22.6100379,46.9246196],[22.6097566,46.9242757],[22.6096677,46.9240937],[22.6095048,46.9239117],[22.6092823,46.9237811],[22.6089694,46.9236508],[22.6085802,46.9235309],[22.6082749,46.9234163],[22.6071989,46.9229628],[22.6068554,46.9228533],[22.6065196,46.9227595],[22.6058481,46.9226448],[22.6053749,46.9225927],[22.6048483,46.9225719],[22.6041615,46.9225875],[22.6034899,46.9226344],[22.6031312,46.9226865],[22.6028335,46.9227439],[22.6025206,46.9228325],[22.6022077,46.9229941],[22.6019254,46.9231817],[22.6016964,46.923312],[22.6011546,46.9237081],[22.6004982,46.9243075]],[[22.8523057,46.9205671],[22.8523221,46.9206948],[22.8523794,46.9210381],[22.8523639,46.9211812],[22.8523879,46.9213829],[22.8524463,46.9215708],[22.8525025,46.9217153],[22.8526255,46.9218969],[22.852756,46.9220305],[22.8529053,46.9222438],[22.8529432,46.9223772],[22.8529745,46.9227183],[22.8529699,46.9229143],[22.8529339,46.9230157],[22.8528484,46.9231448],[22.8525875,46.923406],[22.8520971,46.9237931],[22.8519261,46.9238976],[22.8513727,46.9242632],[22.8511883,46.9243462],[22.8510848,46.9244169],[22.8504459,46.9249269],[22.8502388,46.9251072],[22.8500479,46.9252276],[22.8500326,46.9253123],[22.850149,46.9257986],[22.8502616,46.9261558],[22.850339,46.9262667],[22.8504443,46.9263641],[22.8507428,46.9265124],[22.8509716,46.9267199],[22.8510384,46.9268663],[22.8510814,46.9273618],[22.8509633,46.9277783],[22.8508672,46.9279436],[22.8507767,46.9282392],[22.8508439,46.9287176],[22.8509229,46.9290623],[22.8509183,46.92921],[22.8508913,46.9293667],[22.8506439,46.9300119],[22.8506349,46.9301594],[22.8505989,46.9302147],[22.8503604,46.9304052],[22.8503109,46.9304605],[22.850248,46.9306356],[22.849879,46.9311764],[22.849861,46.9312317],[22.84987,46.9313453],[22.8498565,46.9313914],[22.8495911,46.9315942],[22.8492807,46.931886],[22.8491727,46.931969],[22.8490332,46.9320366],[22.8488038,46.9321195],[22.8484843,46.9322056],[22.8481784,46.9322701],[22.8479444,46.9323039],[22.8476025,46.9323254],[22.8472606,46.9323162],[22.8469187,46.932267],[22.8465317,46.9321779],[22.8462057,46.9322254],[22.8458298,46.9322465],[22.8456799,46.9322443],[22.8453948,46.9322078],[22.8450608,46.9322041],[22.8449423,46.9321843],[22.8446646,46.9323438],[22.8444667,46.9324145],[22.8441022,46.9324944],[22.8438413,46.9325251],[22.8436928,46.9325589],[22.8435759,46.9326111],[22.8434229,46.9327125],[22.8428605,46.9331364],[22.842636,46.9332795],[22.8425426,46.93339],[22.8424787,46.9335239],[22.8424674,46.9337653],[22.8425448,46.9342694],[22.8425539,46.9345402],[22.8424992,46.9346554],[22.8423779,46.9350882],[22.8423014,46.9352357],[22.8422114,46.935337],[22.8421125,46.9354169],[22.841919,46.9354999],[22.8411407,46.9357057],[22.8405513,46.9358193],[22.8396155,46.9361603],[22.8391296,46.9362955],[22.8388821,46.9363324],[22.8382478,46.9363692],[22.8379014,46.9363631],[22.8375909,46.9363416],[22.8367541,46.936188],[22.8363717,46.936148],[22.8357103,46.9359791],[22.8349635,46.9358286],[22.8339917,46.9356842],[22.8337802,46.9356381],[22.8336048,46.9355828],[22.8333303,46.9354446],[22.8329974,46.9352756],[22.8326375,46.935122],[22.8318591,46.9349069],[22.8316927,46.9348363],[22.8315532,46.9346919],[22.8315442,46.9346182],[22.8315712,46.9345383],[22.8315622,46.9344492],[22.8314587,46.9342096],[22.8313867,46.9341143],[22.8312967,46.9340406],[22.8311213,46.9339577],[22.8306624,46.9337488],[22.8303969,46.9336597],[22.8302305,46.933632],[22.830064,46.9336259],[22.8299065,46.9336443],[22.8294071,46.9337426],[22.8289212,46.9337825],[22.8282149,46.9337764],[22.8269867,46.9337918],[22.8268292,46.9338133],[22.8266897,46.9338563],[22.8266087,46.9339147],[22.8265188,46.9340191],[22.8264423,46.9340836],[22.8263568,46.9341236],[22.8262308,46.9341481],[22.8259879,46.9341635],[22.8256639,46.9341573],[22.8253085,46.9341297],[22.8249531,46.9340928],[22.8247596,46.934056],[22.8245977,46.9340037],[22.8243547,46.9338993],[22.8241702,46.9338471],[22.8238868,46.9337887],[22.8236349,46.9337088],[22.8235629,46.9336412],[22.8234819,46.9335245],[22.8234099,46.9334508],[22.8233379,46.9334077],[22.8232075,46.9333924],[22.8228565,46.9333955],[22.8225731,46.9334262],[22.8223526,46.9334723],[22.8221277,46.9335521],[22.8219117,46.9336597],[22.8218217,46.9337303],[22.8217723,46.9337948],[22.8215113,46.9343048],[22.8214438,46.9344615],[22.8213943,46.9346335],[22.8213134,46.9350175],[22.8212279,46.9351896],[22.8211019,46.9353862],[22.8210209,46.9354722],[22.820796,46.9356166],[22.820679,46.9357333],[22.8204135,46.9359576],[22.8199996,46.9362279],[22.8199546,46.9362771],[22.8198872,46.9366211],[22.8196847,46.9369621],[22.8195542,46.9371342],[22.8193698,46.937343],[22.8191448,46.9375673],[22.8184475,46.9381602],[22.8183215,46.9383383],[22.8181865,46.9389865],[22.8181775,46.9391063],[22.818191,46.9392415],[22.8182765,46.9395302],[22.8183215,46.9397483],[22.8183935,46.9404518],[22.818425,46.9405716],[22.8185734,46.9407344],[22.8186004,46.9407927],[22.8186364,46.9417142],[22.8186094,46.9422979],[22.8186364,46.9427064],[22.8186769,46.9428139],[22.8187399,46.9429214],[22.8189379,46.9431487],[22.8189918,46.9432378],[22.8191403,46.9439903],[22.8191493,46.944147],[22.8191223,46.944276],[22.8190368,46.9444818],[22.8188074,46.9447736],[22.8185284,46.9450469],[22.818227,46.9452466],[22.8178041,46.9455752],[22.8175566,46.9457196],[22.8173497,46.9458148],[22.8171472,46.9458701],[22.8169718,46.9459008],[22.8167648,46.94591],[22.8165489,46.9458947],[22.8162879,46.9458455],[22.8160855,46.9458209],[22.815712,46.9458056],[22.8155456,46.9458179],[22.8150867,46.9459346],[22.8147492,46.9459714],[22.8145378,46.9460452],[22.8144793,46.9460974],[22.8144613,46.9461619],[22.8145018,46.9463369],[22.8144478,46.9464137],[22.8143038,46.9465642],[22.8141554,46.9466318],[22.8137145,46.9467762],[22.8135435,46.9468468],[22.8134355,46.9469082],[22.813377,46.9469666],[22.81335,46.9470495],[22.813359,46.9470925],[22.813503,46.9473198],[22.8135345,46.9474181],[22.8134895,46.9476546],[22.8134355,46.9477651],[22.813269,46.9479863],[22.8130846,46.9481828],[22.8127427,46.9484316],[22.8120678,46.9489967],[22.8119598,46.9491196],[22.8118069,46.9493714],[22.8117529,46.9495096],[22.8116719,46.9500164],[22.8115684,46.9503757],[22.8115639,46.9504986],[22.8115954,46.9506337],[22.8116629,46.9507627],[22.8117259,46.9510268],[22.8117214,46.9511281],[22.8116494,46.9514475],[22.8116179,46.9517669],[22.8115999,46.9518591],[22.8115369,46.9519758],[22.8113525,46.9521508],[22.811285,46.9522614],[22.811249,46.9523627],[22.8112265,46.9524364],[22.811249,46.9526146],[22.8112175,46.9526883],[22.811168,46.9527466],[22.811069,46.9528234],[22.8109385,46.9528971],[22.8108396,46.9529309],[22.8107496,46.9529493],[22.8104301,46.9529769],[22.8103537,46.9530138],[22.8101279,46.9532095],[22.8094925,46.953994],[22.8092694,46.9542431],[22.8090396,46.95446],[22.8088435,46.9546261],[22.8086339,46.9547646],[22.8083973,46.9549076],[22.8081607,46.9550276],[22.8079444,46.955106],[22.8076672,46.9551706],[22.8074374,46.9552491],[22.8071399,46.9553737],[22.8066464,46.9556182],[22.8062882,46.9557566],[22.8051322,46.9561027],[22.8049158,46.9561396],[22.8044156,46.9561996],[22.8042128,46.9562504],[22.8037937,46.9563888],[22.8032866,46.9565918],[22.8027458,46.956781],[22.8024619,46.9568594],[22.8018535,46.9571132],[22.8015222,46.9572885],[22.8012924,46.9573716],[22.8010761,46.9574131],[22.8008395,46.9574224],[22.8006502,46.9573901],[22.800373,46.9573162],[22.7997308,46.9570625],[22.7995009,46.9569425],[22.7993455,46.956841],[22.7991697,46.9566887],[22.799075,46.9565595],[22.7989736,46.9563796],[22.7987303,46.9560935],[22.7985478,46.9559827],[22.7982841,46.9558628],[22.7980543,46.955812],[22.7978515,46.9557889],[22.7973647,46.955812],[22.797189,46.9558074],[22.7969929,46.9557751],[22.79606,46.9555305],[22.7957085,46.9554198],[22.7951879,46.9552214],[22.7950189,46.9551752],[22.7948432,46.9551568],[22.794566,46.9551476],[22.7942956,46.9551568],[22.7939508,46.9552029],[22.7937345,46.9552583],[22.7935723,46.9553183],[22.7934506,46.9553921],[22.7932343,46.955609],[22.7931599,46.9557428],[22.7930414,46.9558366],[22.7929713,46.9559141],[22.7928812,46.9559568],[22.7927881,46.9560442],[22.7926092,46.9561292],[22.7917255,46.9564872],[22.7914428,46.9566149],[22.7909561,46.9566795],[22.7907533,46.9566933],[22.790422,46.9566702],[22.7902057,46.9566241],[22.7899961,46.9565549],[22.7891038,46.9563196],[22.7885359,46.9560981],[22.7879478,46.9557982],[22.7869946,46.955286],[22.7866566,46.9550599],[22.7865484,46.9549491],[22.7864876,46.954843],[22.7864741,46.9547138],[22.7863321,46.9542847],[22.7862104,46.9540493],[22.7860482,46.9536756],[22.7859468,46.9535418],[22.7856088,46.9532141],[22.7851694,46.9528588],[22.7846285,46.9525912],[22.784446,46.9524481],[22.7839593,46.9521943],[22.783912,46.9521436],[22.7838579,46.9520513],[22.7837632,46.9518205],[22.7835875,46.9513175],[22.7833103,46.950773],[22.7831682,46.9503679],[22.7830938,46.950211],[22.7830329,46.950091],[22.7829383,46.9499849],[22.7828031,46.9498926],[22.7826544,46.9498003],[22.7821744,46.949648],[22.7809238,46.9493527],[22.7802883,46.9491819],[22.7800449,46.949145],[22.7798219,46.9491358],[22.7791256,46.9492188],[22.7784495,46.9493573],[22.7779763,46.9494127],[22.7777803,46.9494127],[22.777591,46.9493896],[22.7768947,46.9492558],[22.7760294,46.9491773],[22.7754413,46.9491727],[22.7740216,46.9492927],[22.773305,46.9493711],[22.7728589,46.949445],[22.7721491,46.9495926],[22.7715001,46.9496572],[22.7712364,46.9496619],[22.7710269,46.9496572],[22.7707227,46.9496296],[22.7703508,46.9495649],[22.7694991,46.9494588],[22.7688704,46.9493942],[22.7684242,46.9493711],[22.7678563,46.9493434],[22.7668694,46.9493665],[22.7664435,46.9494034],[22.7660446,46.949468],[22.765612,46.9495742],[22.7644898,46.9499203],[22.7635974,46.9502202],[22.7632121,46.9503771],[22.7629417,46.9505017],[22.7626442,46.9506725],[22.7624076,46.9508432],[22.7622251,46.9510047],[22.7620696,46.9511063],[22.7619615,46.951157],[22.7617857,46.9511939],[22.7611232,46.9511939],[22.760846,46.9512124],[22.7606365,46.9512585],[22.760339,46.9514524],[22.7601768,46.9515216],[22.759974,46.9515585],[22.7597982,46.9515585],[22.759156,46.9515031],[22.7587166,46.95148],[22.7582839,46.9514985],[22.7568102,46.9516139],[22.7563978,46.9516923],[22.7560869,46.9517846],[22.7558773,46.9518723],[22.7557556,46.9519461],[22.7556745,46.9520615],[22.7556001,46.9522368],[22.755519,46.9525322],[22.7554311,46.9527583],[22.7553162,46.9529429],[22.755154,46.9531459],[22.7549579,46.9533259],[22.7546808,46.9535243],[22.7537005,46.9541518],[22.7534639,46.9542349],[22.7530854,46.954341],[22.7515778,46.9546917],[22.7505232,46.9548948],[22.750165,46.9549409],[22.7497323,46.9549594],[22.7493267,46.9549594],[22.7487453,46.9550378],[22.7483532,46.9550747],[22.7477921,46.9550886],[22.7475082,46.9550701],[22.7472108,46.9550286],[22.7469471,46.954964],[22.7466767,46.9548763],[22.7464807,46.9548348],[22.7462373,46.9548117],[22.7459295,46.9548507]],[[22.9009271,46.8832735],[22.9007687,46.8832917],[22.9006632,46.8833265],[22.9002447,46.8835802],[22.9001028,46.8836698],[22.9000045,46.8837145],[22.8999136,46.8837344],[22.8998117,46.8837245],[22.8996698,46.8836747],[22.8995824,46.8836872],[22.8992731,46.8837867],[22.899164,46.8837767],[22.899073,46.8837469],[22.8989493,46.8836747],[22.8987637,46.8835106],[22.8985963,46.8834285],[22.8984871,46.8833912],[22.8983634,46.8833813],[22.8978721,46.8833937],[22.8977375,46.8833862],[22.8969879,46.8832867],[22.8967659,46.8832818],[22.8965912,46.8832992],[22.8964893,46.883329],[22.8959823,46.8836032],[22.8957985,46.8836929],[22.895337,46.8838873],[22.894724,46.884181],[22.8943765,46.8843983],[22.8941909,46.8845433],[22.8938598,46.8848372],[22.8936927,46.8850132],[22.8936211,46.8851329],[22.8935873,46.8853325],[22.8935932,46.8854901],[22.8933347,46.8861625],[22.893218,46.8865685],[22.8932047,46.8866356],[22.8932312,46.8867788],[22.8932231,46.886873],[22.8931464,46.8871432],[22.8930323,46.8874386],[22.8929846,46.8875166],[22.8928758,46.8875927],[22.8926558,46.8876962],[22.8924835,46.8877198],[22.8923587,46.887727],[22.8922367,46.8877161],[22.8921439,46.8876998],[22.8918998,46.8876235],[22.8916478,46.8876036],[22.8914462,46.8876181],[22.8913587,46.8876398],[22.8911359,46.8877268],[22.8909874,46.8878501],[22.8908786,46.8879806],[22.8908202,46.8880803],[22.8907591,46.8882669],[22.8905389,46.8885913],[22.8904036,46.8887073],[22.8902446,46.8887835],[22.8901678,46.8887962],[22.8900908,46.8887944],[22.8899636,46.8887746],[22.8891334,46.888528],[22.8886746,46.8884664],[22.8882131,46.8883721],[22.8880646,46.8883613],[22.8879558,46.8883721],[22.8878948,46.8884302],[22.887855,46.8885172],[22.8878575,46.8885626],[22.8878355,46.8885932],[22.8877774,46.8887868],[22.8876267,46.8890079],[22.8874174,46.8892041],[22.8871681,46.8893908],[22.8869612,46.8895703],[22.8868839,46.8896192],[22.8868418,46.8897534],[22.8866535,46.8901612],[22.8865151,46.890386],[22.8863663,46.8905778],[22.8863055,46.8907534],[22.8862632,46.8910202],[22.8862262,46.8910638],[22.8861573,46.8910946],[22.8859395,46.8911164],[22.8856854,46.8911182],[22.885277,46.891169],[22.8850915,46.8912322],[22.8850251,46.8912757],[22.8849561,46.89133],[22.8848639,46.8914519],[22.8847834,46.8915066],[22.884396,46.8916848],[22.8839506,46.8918262],[22.8838016,46.8919154],[22.8836942,46.8919582],[22.8833949,46.8920368],[22.88299,46.8920599],[22.8826953,46.8921475],[22.8825379,46.8922028],[22.8822904,46.8923535],[22.8818303,46.8925869],[22.88149,46.8926837],[22.8811536,46.8927285],[22.8810036,46.8927155],[22.8808069,46.89267],[22.8805142,46.8925721],[22.8803647,46.8925352],[22.8802088,46.8925113],[22.8800497,46.8925113],[22.8798938,46.8925417],[22.8797093,46.89262],[22.8792862,46.8928374],[22.8790442,46.8929086],[22.8787867,46.892942],[22.8785932,46.8929943],[22.8782107,46.8931662],[22.8779182,46.8933243],[22.8777624,46.8933917],[22.8776796,46.8934504],[22.877616,46.8935178],[22.8775273,46.8935669],[22.8769762,46.8937375],[22.8766243,46.8937825],[22.8764698,46.893824],[22.8759162,46.8938833],[22.8758043,46.8939101],[22.8755285,46.8940307],[22.8754071,46.8941395],[22.8750596,46.8941772],[22.8744916,46.8942117],[22.8739247,46.8942671],[22.8725817,46.8943409],[22.8722151,46.8943516],[22.8717314,46.8943424],[22.8712568,46.8943009],[22.8706995,46.8942116],[22.8697896,46.8940203],[22.8694492,46.8939877],[22.8691756,46.8939898],[22.8688925,46.8940072],[22.8683135,46.8940877],[22.8681067,46.8941311],[22.8680214,46.8941612],[22.8679698,46.8942209],[22.8679286,46.8944703],[22.8678681,46.8945724],[22.8676597,46.8948419],[22.867492,46.8953214],[22.8672623,46.8957175],[22.8671899,46.8959465],[22.8671253,46.8962897],[22.8670715,46.8963912],[22.8670563,46.8964617],[22.867058,46.8965477],[22.8671113,46.8968106],[22.8670635,46.8969064],[22.8669842,46.8969728],[22.8669529,46.8970519],[22.8669377,46.8972358],[22.8669463,46.8973427],[22.8669236,46.8974551],[22.8669505,46.8976327],[22.8670351,46.8978018],[22.8671101,46.8979066],[22.8672605,46.8980158],[22.8676263,46.8981593],[22.8678311,46.8982633],[22.8679769,46.8983831],[22.8680023,46.8984415],[22.8681596,46.8985519],[22.8685139,46.8987375],[22.8686221,46.8988353],[22.8691279,46.899368],[22.8692941,46.8995745],[22.8693566,46.8996966],[22.8693668,46.8999294],[22.8693445,46.9001272],[22.8692642,46.9004659],[22.8691684,46.900699],[22.8688389,46.9013055],[22.8685303,46.9017076],[22.8680691,46.9022488],[22.8678516,46.9024834],[22.8676257,46.9026399],[22.8674603,46.9027008],[22.8669672,46.9028334],[22.8666534,46.9028965],[22.8665039,46.9029118],[22.8663734,46.9029444],[22.8652154,46.903403],[22.8647146,46.9035556],[22.8645664,46.9036008],[22.8644424,46.9036486],[22.8642992,46.9037203],[22.8641879,46.9038007],[22.8638005,46.9041674],[22.8637541,46.9042732],[22.8637121,46.9048738],[22.8636499,46.9051132],[22.8635457,46.9052938],[22.8632143,46.9057389],[22.8630834,46.9059815],[22.8629838,46.9063267],[22.8629302,46.9066034],[22.8630306,46.907082],[22.8631604,46.9073723],[22.8632364,46.9074925],[22.8633297,46.9075961],[22.8634972,46.9079259],[22.8638559,46.9085091],[22.8639318,46.908711],[22.8639561,46.9088181],[22.8639758,46.9090644],[22.8640262,46.9092121],[22.8640465,46.9094891],[22.8640294,46.9097258],[22.8640427,46.9100616],[22.864005,46.9103291],[22.864022,46.9105149],[22.8639364,46.9109905],[22.8638811,46.9111827],[22.863838,46.9112761],[22.8637461,46.9113892],[22.8636846,46.9114391],[22.8635505,46.9114924],[22.8634082,46.9115183],[22.8633378,46.911548],[22.8632716,46.911625],[22.8631147,46.9117366],[22.8626643,46.9121737],[22.8618544,46.9128314],[22.8615601,46.9131114],[22.8612738,46.9134113],[22.8610193,46.913746],[22.8609493,46.9138699],[22.8608666,46.9140676],[22.8607318,46.9142963],[22.8605389,46.914487],[22.8600808,46.9149108],[22.8596672,46.9152389],[22.8587574,46.9158735],[22.8582324,46.9161407],[22.8578062,46.9163168],[22.8574689,46.9164319],[22.8572908,46.9164754],[22.8570906,46.9164943],[22.8565224,46.9165792],[22.8562552,46.9165988],[22.8558694,46.9166045],[22.8551529,46.9166623],[22.8546344,46.9166536],[22.8543353,46.9166601],[22.8537341,46.9167253],[22.8535241,46.9167644],[22.8533841,46.91681],[22.8532028,46.9168904],[22.8529951,46.9170148],[22.8528181,46.9172169],[22.8526723,46.9172642],[22.8525955,46.9173018],[22.852461,46.917392],[22.8521196,46.9177787],[22.8519736,46.9179165],[22.8518768,46.9180422],[22.8517754,46.9182339],[22.8517465,46.9183249],[22.8517597,46.9184219],[22.8517495,46.9185286],[22.8516059,46.9187184],[22.8514255,46.9188976],[22.8514155,46.9189367],[22.8514997,46.9189814],[22.8515545,46.9190902],[22.8516388,46.9191418],[22.851702,46.9192037],[22.8517302,46.9193019],[22.8519017,46.9195682],[22.8519406,46.9197292],[22.8519707,46.9197797],[22.8520625,46.9198288],[22.8523057,46.9205671]],[[21.65923,47.0226328],[21.6591727,47.0225505],[21.6584172,47.021658],[21.6580876,47.0213359],[21.6524433,47.0190209],[21.6514846,47.0186708],[21.6447399,47.0179881],[21.6415727,47.0175851],[21.6398441,47.0173113],[21.6385665,47.0171572],[21.6371754,47.0167951],[21.6349375,47.0151357],[21.6330798,47.0149332],[21.6296814,47.0150417],[21.627141,47.0148503],[21.6261377,47.0146657],[21.6257719,47.0145699],[21.6224172,47.0138928],[21.6213357,47.0137596],[21.6195982,47.0135985],[21.6168054,47.0133861],[21.6147164,47.0132431],[21.6125789,47.0127024],[21.6012867,47.0101741],[21.5947905,47.0096292],[21.5848509,47.0093223],[21.5842529,47.0091737],[21.5834461,47.008837],[21.5755871,47.0040175],[21.5709962,47.0013705],[21.5680662,46.9996593],[21.5655429,46.9983798],[21.5638492,46.9973639],[21.559315,46.9946159],[21.5587341,46.9942967],[21.5573763,46.993862],[21.5538018,46.9931322],[21.5499386,46.9921329],[21.5483475,46.9910233],[21.5438801,46.9859052],[21.5412072,46.9835565],[21.5379641,46.9819579],[21.5316838,46.9778902],[21.528845,46.9770103],[21.5247222,46.9765152],[21.519608,46.9762129],[21.5179634,46.976182],[21.5097584,46.9770116],[21.5037938,46.9778312],[21.4988824,46.9785061],[21.4935702,46.9791191],[21.4930407,46.9791318],[21.4924918,46.9790872],[21.4919203,46.9790021],[21.4911259,46.9788168],[21.4906225,46.9787318],[21.4900498,46.9786897],[21.4622208,46.9780114],[21.448475,46.9777586],[21.4437206,46.9775517],[21.4273531,46.9772182],[21.4266942,46.977193],[21.4264483,46.9771613],[21.4262077,46.977109],[21.4260303,46.9770528],[21.4258576,46.9769785],[21.4256561,46.9768558],[21.4254694,46.9767163],[21.4245382,46.9757662],[21.4238262,46.9752132],[21.4230284,46.9747826],[21.4221595,46.9746178],[21.4210923,46.9745405],[21.420081,46.9745843],[21.4197342,46.9746284],[21.4190785,46.9748159],[21.4186299,46.9750593],[21.4174381,46.9757838],[21.4169694,46.9760005],[21.4164534,46.9761497],[21.4152609,46.9763384],[21.4120565,46.9763519],[21.4077044,46.9768065],[21.4070683,46.9767763],[21.4064276,46.9766602],[21.4049421,46.976237],[21.4044956,46.9761548],[21.4040338,46.9761254],[21.3982971,46.9765906],[21.3943701,46.9770192],[21.3938884,46.9770893],[21.3936485,46.9771417],[21.3934154,46.9772212],[21.3927074,46.977578],[21.392168,46.9778045],[21.3918442,46.9778947],[21.3914878,46.9779251],[21.3912235,46.9779319],[21.3909738,46.9779063],[21.3898615,46.9777308],[21.3893578,46.9776618],[21.3888061,46.9776484],[21.3697707,46.9789146],[21.3562143,46.9798166],[21.3551411,46.9797274],[21.3540223,46.9796173],[21.3507295,46.9794338],[21.3365752,46.980227],[21.3299219,46.9805618],[21.3277555,46.9806708],[21.3187428,46.9804948],[21.3104818,46.9804063],[21.2865517,46.9790327],[21.2809609,46.9787583],[21.2564298,46.9774386],[21.2534811,46.9770772],[21.2524123,46.9768862],[21.2519094,46.9765882],[21.2503632,46.9752565],[21.2492328,46.9744495],[21.2482727,46.9743753],[21.2462601,46.9747118],[21.2452793,46.9746299],[21.2433963,46.9743323],[21.2408957,46.9748235],[21.2391304,46.9756819],[21.2377088,46.9760919],[21.229877,46.978781],[21.2262985,46.9802078],[21.2240031,46.9812247],[21.2231556,46.9814061],[21.2216696,46.9812144],[21.2200093,46.9806521],[21.2178431,46.980169],[21.2142971,46.9791084],[21.2092049,46.9770663],[21.2075626,46.9764021],[21.2063334,46.9764855],[21.205126,46.9768629],[21.2041115,46.9777165],[21.2029816,46.9793352],[21.2020003,46.9808299],[21.200947,46.9816123],[21.2002156,46.9820436],[21.197548,46.9832103],[21.1962304,46.9838852],[21.1936888,46.9862937],[21.1907219,46.9883911],[21.1890155,46.9889215],[21.1875622,46.9890621],[21.1864603,46.9888827],[21.1837555,46.9878615],[21.1819435,46.9875701],[21.180675,46.9873539],[21.1800997,46.9872632],[21.1786888,46.9870527],[21.1764791,46.9864009],[21.1753902,46.9856488],[21.1747751,46.985473],[21.1732563,46.9852545],[21.1669711,46.9854915],[21.1395647,46.9841055],[21.1233934,46.9833304],[21.1194453,46.9830213],[21.1176647,46.9826688],[21.115899,46.9821234],[21.1148445,46.9815829],[21.1140271,46.9810096],[21.1125086,46.9798467],[21.1124362,46.9797913],[21.1103691,46.9782082],[21.1087155,46.9772516],[21.1083238,46.9771254],[21.1059985,46.976647],[21.1011825,46.9755266],[21.0998141,46.9749924],[21.0984654,46.9742816],[21.0965036,46.9728894],[21.0961934,46.9725753],[21.0946286,46.9704956],[21.0924302,46.9676479],[21.09078,46.965782],[21.0891306,46.9638386],[21.0886994,46.9632471],[21.0885293,46.9626627],[21.0884394,46.962054],[21.0885891,46.9609034],[21.088942,46.9584563],[21.0887715,46.9567396],[21.0886056,46.9562727],[21.0884209,46.9559912],[21.0878669,46.9554954],[21.0873705,46.9550705],[21.0818118,46.9525768]],[[22.4981731,47.0209626],[22.497968,47.0212544],[22.4977815,47.0215087],[22.4975328,47.0218719],[22.4973485,47.0221195],[22.497151,47.0223865],[22.4969112,47.0226589],[22.4966004,47.0229253],[22.496334,47.0231432],[22.49597,47.0233732],[22.4957124,47.0235246],[22.4955082,47.0236941],[22.495153,47.0239422],[22.4945606,47.0242897],[22.493964,47.0246022],[22.4935685,47.024812],[22.4932419,47.024996],[22.492727,47.0253427],[22.4920301,47.0258178],[22.4915528,47.0261431],[22.4910693,47.0264556],[22.4906235,47.0267509],[22.4900584,47.0271404],[22.4895812,47.0274614],[22.4891281,47.0277512],[22.4887074,47.0280037],[22.4883306,47.0282134],[22.4880041,47.0283804],[22.4877781,47.0285045],[22.4875646,47.0286629],[22.4872946,47.0289282],[22.4870246,47.0292107],[22.4867232,47.0295574],[22.4864845,47.0298441],[22.4863024,47.0301395],[22.4862271,47.0303963],[22.486202,47.0307258],[22.4862145,47.0311324],[22.4862648,47.0315689],[22.4863024,47.0318343],[22.4863464,47.0321253],[22.4864218,47.0324891],[22.4864783,47.0328015],[22.4864783,47.0330412],[22.4864343,47.0332809],[22.4863527,47.033512],[22.4862522,47.0337003],[22.4860324,47.0339185],[22.4858771,47.0341043],[22.4857013,47.0343042],[22.4853928,47.0345414],[22.4850655,47.0347402],[22.4848143,47.0349242],[22.4846196,47.0350826],[22.484312,47.0352837],[22.4839792,47.0354592],[22.4836652,47.0355918],[22.4832696,47.0356903],[22.4824157,47.0357909],[22.481875,47.0359479],[22.4815475,47.0360956],[22.4812341,47.0362208],[22.4808611,47.0362874],[22.4804082,47.0363782],[22.4801063,47.036475],[22.4797955,47.0366384],[22.479467,47.0368926],[22.4791917,47.0371589],[22.4789608,47.0374736],[22.4786476,47.0377565],[22.4784404,47.0380051],[22.4783245,47.0382377],[22.478118,47.038293],[22.4779129,47.0383511],[22.4776288,47.0384056],[22.4774068,47.0384116],[22.4772025,47.0383693],[22.4769717,47.0382785],[22.4767978,47.0381082],[22.4765099,47.0379396],[22.4761991,47.0378246],[22.4758439,47.037752],[22.4755508,47.0377278],[22.4751868,47.037752],[22.4749204,47.0378004],[22.474654,47.0378912],[22.4744586,47.0380183],[22.4743254,47.038218],[22.4742188,47.0384661],[22.4741123,47.0386658],[22.4739613,47.0388595],[22.4738015,47.039035],[22.4735795,47.0392407],[22.4733575,47.0394102],[22.473171,47.039507],[22.4729667,47.0395796],[22.4728069,47.0396401],[22.4726115,47.0397793],[22.4723718,47.0399609],[22.4722297,47.0401061],[22.4720876,47.0403361],[22.4718286,47.0406851],[22.4716012,47.0409787],[22.4714552,47.041299],[22.4715471,47.0413648],[22.4715989,47.0414844],[22.4715725,47.0417314],[22.4714848,47.0419654],[22.4714127,47.0420668],[22.4712884,47.0422786],[22.4711108,47.0424359],[22.4709066,47.0425691],[22.4706668,47.0426417],[22.4703915,47.0426719],[22.4700363,47.0426659],[22.4697166,47.0426296],[22.469397,47.0425449],[22.4691483,47.042442],[22.4689707,47.042321],[22.4687221,47.0421092],[22.4684734,47.0419639],[22.4681893,47.0418308],[22.4678962,47.041734],[22.4675588,47.0416493],[22.467248,47.0415403],[22.4669905,47.0414193],[22.4667063,47.0412741],[22.4665198,47.041153],[22.4663245,47.0410199],[22.4661735,47.0408868],[22.4660225,47.0407789],[22.4658235,47.0407244],[22.4655785,47.0407294],[22.465321,47.0407294],[22.4649747,47.0407476],[22.4645662,47.0407778],[22.4643886,47.0408141],[22.4641222,47.040911],[22.4637581,47.0410804],[22.4635183,47.0412196],[22.463323,47.041383],[22.463172,47.0415524],[22.4630832,47.0417461],[22.4630388,47.0419639],[22.4630655,47.0421999],[22.4631631,47.0425267],[22.4633185,47.0428909],[22.4634961,47.0432479],[22.4635938,47.0434839],[22.4636204,47.0436957],[22.4636115,47.0438954],[22.4635494,47.0441314],[22.4634073,47.044434],[22.4632652,47.0446518],[22.4631142,47.0448212],[22.4629011,47.0449725],[22.4626081,47.0450935],[22.4623594,47.045154],[22.4621252,47.0451935],[22.4618346,47.0451871],[22.4616256,47.045183],[22.4614558,47.0451456],[22.4613574,47.0450953],[22.4612092,47.0449377],[22.4609031,47.0446578],[22.4606456,47.0444763],[22.4604857,47.0443916],[22.4602105,47.0443069],[22.4599618,47.0442887],[22.4596599,47.0442948],[22.4593846,47.0443371],[22.459136,47.0444219],[22.4588607,47.0445671],[22.4586209,47.0447486],[22.4584167,47.0449362],[22.4582391,47.0451056],[22.4581325,47.0452993],[22.4579727,47.045505],[22.4578306,47.0456321],[22.4577152,47.0457047],[22.4575642,47.0457652],[22.4573244,47.0458196],[22.4569959,47.0458499],[22.4566496,47.0459165],[22.4561167,47.0460677],[22.4550511,47.0463945],[22.4544118,47.0465579],[22.4538967,47.0466547],[22.4533639,47.0467515],[22.4528933,47.0468241],[22.4526002,47.0468665],[22.4522628,47.0468846],[22.4519609,47.0468786],[22.4515258,47.0468362],[22.4511528,47.0467454],[22.4507887,47.0466607],[22.4504052,47.0465383],[22.45021,47.0464815],[22.4500396,47.0464052],[22.4497371,47.0463084],[22.4495366,47.0462493],[22.4492791,47.0461888],[22.4489949,47.0461222],[22.4487463,47.0460556],[22.4486042,47.0459951],[22.4482668,47.0458015],[22.4478938,47.0455837],[22.4475475,47.0454263],[22.4472367,47.0452811],[22.4469259,47.045148],[22.4466151,47.0450209],[22.4463753,47.0449483],[22.4459757,47.0448878],[22.4456116,47.0448394],[22.4452653,47.0447486],[22.4450344,47.0446699],[22.4448391,47.0445368],[22.4447236,47.0444279],[22.4446259,47.044325],[22.4445157,47.0442713],[22.4443311,47.044222],[22.4440576,47.0442074],[22.4437912,47.0442437],[22.4435781,47.0443553],[22.443365,47.0445005],[22.4432406,47.0446699],[22.4431874,47.0448878],[22.443214,47.0451238],[22.4431962,47.045269],[22.4431126,47.0453972],[22.4429541,47.0455084],[22.4428492,47.0456113],[22.4427127,47.045742],[22.4423882,47.0459588],[22.441882,47.0461948],[22.4414025,47.046455],[22.4409585,47.0467091],[22.4405589,47.0469149],[22.4403102,47.0470238],[22.4398041,47.0471993],[22.4391025,47.0473929],[22.4386852,47.0475018],[22.4383566,47.0475502],[22.4380103,47.0475926],[22.4376906,47.0475986],[22.4372732,47.0475744],[22.4369092,47.0475139],[22.436625,47.0474413],[22.4363941,47.0473626],[22.4361277,47.0472658],[22.4358968,47.0471932],[22.4356848,47.0471545],[22.4354462,47.0471631],[22.4351698,47.0471895],[22.4348867,47.047241],[22.4346446,47.0473111],[22.434352,47.0474345],[22.4341778,47.0475738],[22.4340459,47.0476808],[22.4339015,47.047899],[22.4337571,47.048237],[22.4336189,47.0484894],[22.4334808,47.0486306],[22.433305,47.0487376],[22.4331606,47.0488146],[22.4329094,47.0488445],[22.4325766,47.0488445],[22.4321685,47.0488616],[22.4317854,47.0489344],[22.4312643,47.0491184],[22.4308059,47.0492767],[22.4304417,47.0493879],[22.4301089,47.0494692],[22.4298075,47.0495376],[22.429624,47.0495731],[22.4295191,47.0495933],[22.4294465,47.0495848],[22.4292322,47.0495605],[22.4290116,47.0494802],[22.4282628,47.0497216],[22.4281247,47.0498328],[22.4279221,47.0499454],[22.427705,47.050028],[22.4274405,47.0501337],[22.4273021,47.0502607],[22.427007,47.0503163],[22.4267244,47.0503249],[22.4263979,47.0502906],[22.4261279,47.0502692],[22.4258956,47.050265],[22.4256152,47.0503004],[22.4251609,47.0503634],[22.4246335,47.0504746],[22.424254,47.0505096],[22.4239815,47.0505469],[22.4235006,47.0506317],[22.4231803,47.0506837],[22.4229569,47.0507441],[22.4227811,47.0507612],[22.4224295,47.0507784],[22.4216823,47.0507784],[22.4211297,47.0507784],[22.420552,47.050757],[22.4198174,47.0507185],[22.4190576,47.05065],[22.4184987,47.050573],[22.4179462,47.0505003],[22.4175192,47.0504703],[22.4170985,47.0504703],[22.416571,47.0505045],[22.4159619,47.0505901],[22.4154094,47.0507313],[22.4147815,47.0509195],[22.4141661,47.0511249],[22.413488,47.0513431],[22.413017,47.0515057],[22.4127407,47.0516041],[22.4123263,47.0517281],[22.4119496,47.0517666],[22.4114912,47.0517666],[22.411127,47.0517367],[22.4108821,47.0516939],[22.4106749,47.051634],[22.4104488,47.0515442],[22.4101223,47.0513859],[22.4097393,47.0511463],[22.4093563,47.0508896],[22.409036,47.05065],[22.4087849,47.0504874],[22.4085086,47.0503377],[22.40827,47.0502393],[22.4079246,47.0501152],[22.4074851,47.0500083],[22.4072276,47.0499612],[22.4069189,47.04993],[22.4065093,47.0499044],[22.4059052,47.0498794],[22.4052278,47.0498732],[22.4045688,47.0498794],[22.4040104,47.0498981],[22.4035345,47.0499231],[22.4030951,47.049973],[22.4027412,47.0500107],[22.4023463,47.0500857],[22.4020033,47.0501827],[22.4016408,47.0503547],[22.4011684,47.0506413],[22.4007671,47.0508795],[22.4003205,47.0510867],[22.3999063,47.0512322],[22.3995179,47.0513381],[22.3990972,47.051391],[22.3987412,47.0513998],[22.3984047,47.0513866],[22.3981458,47.0513337],[22.3977704,47.0511837],[22.3975438,47.0510029],[22.397395,47.0509103],[22.3971749,47.0507913],[22.3968966,47.0506766],[22.396327,47.0504208],[22.3957445,47.0501827],[22.3954015,47.0500504],[22.3948837,47.0498916],[22.3945212,47.0497725],[22.3942559,47.0496579],[22.3940164,47.0495565],[22.3938481,47.0494594],[22.3936604,47.0493183],[22.3934986,47.0491772],[22.3933368,47.0489787],[22.3932332,47.0487847],[22.3930909,47.0485818],[22.3929485,47.0484098],[22.3927802,47.0482731],[22.3925601,47.048154],[22.3923401,47.0480835],[22.3921524,47.0480482],[22.3919906,47.0480482],[22.3919129,47.048057],[22.3916928,47.0481452],[22.3914598,47.0482246],[22.3910585,47.048304],[22.390722,47.0483481],[22.3901977,47.0484495],[22.3897188,47.0485995],[22.3891039,47.04882],[22.3884178,47.049089],[22.3877835,47.0493051],[22.3872981,47.0494683],[22.3869033,47.0495609],[22.3864502,47.0496138],[22.3859454,47.0496535],[22.3857512,47.0497108],[22.385434,47.0498122],[22.3851816,47.0498607],[22.3849163,47.0498784],[22.3846703,47.0498652],[22.3844179,47.0498299],[22.3841655,47.049799],[22.3839648,47.0497946],[22.3836865,47.0498563],[22.3833499,47.0499489],[22.3829875,47.050046],[22.3826121,47.0501121],[22.3821331,47.0501606],[22.3813565,47.0502224],[22.3809811,47.0502621],[22.3803597,47.0503106],[22.3797448,47.0503414],[22.3792141,47.0503282],[22.3784763,47.0502841],[22.3779779,47.0502224],[22.3776284,47.050143],[22.3773048,47.0500371],[22.3770653,47.0499401],[22.3767158,47.0497461],[22.3764569,47.0495653],[22.3762368,47.0493448],[22.3760944,47.0491772],[22.375965,47.0490713],[22.3757902,47.0489876],[22.3756025,47.0489302],[22.3752983,47.0488773],[22.3748331,47.0488319],[22.3746067,47.0488785],[22.3743331,47.0489736],[22.3741561,47.0489809],[22.3738302,47.048913],[22.3736616,47.0490537],[22.3734838,47.0491268],[22.373259,47.0492453],[22.3730577,47.0494074],[22.3727098,47.0497567],[22.3723712,47.0501683],[22.3720966,47.0504303],[22.3716572,47.0507608],[22.3712728,47.0509292],[22.3709066,47.0509853],[22.3703574,47.0510227],[22.3700497,47.0510204]],[[22.2064525,47.0798609],[22.2061831,47.0798934],[22.2053852,47.0799959],[22.2046648,47.080068],[22.2042618,47.0800902],[22.2037448,47.0800902],[22.2025074,47.0800652],[22.2022224,47.0800569],[22.2020189,47.0800375],[22.2018561,47.0799959],[22.2016892,47.0799266],[22.2013269,47.0797382],[22.2001209,47.0790423],[22.1998561,47.0789168],[22.1983191,47.0783327],[22.197329,47.077976],[22.196949,47.0778701],[22.1966382,47.0778231],[22.1963101,47.0777996],[22.196028,47.0778113],[22.1957114,47.0778427],[22.1953487,47.0779054],[22.1933972,47.0783131],[22.1916702,47.0787208],[22.1896957,47.0791638],[22.1891834,47.0792579],[22.1888552,47.0792853],[22.1884983,47.0792696],[22.1881587,47.0792187],[22.1878191,47.0791442],[22.1875024,47.0790266],[22.1872376,47.078909],[22.1870477,47.0788031],[22.1868174,47.0786189],[22.1856661,47.0774428],[22.1848774,47.0766078],[22.1845273,47.0762652],[22.1843091,47.0760023],[22.1841413,47.075848],[22.1839567,47.0757108],[22.1818672,47.0744249],[22.1798029,47.0731848],[22.1791567,47.072779],[22.1776798,47.0719046],[22.1770421,47.0714931],[22.174961,47.0702299],[22.1746253,47.0700471],[22.1742813,47.069887],[22.1739792,47.0697841],[22.1736855,47.0697041],[22.1733414,47.0696641],[22.1725694,47.0696584],[22.1711596,47.0697098],[22.1662925,47.0698413],[22.1619457,47.0699213],[22.1614087,47.0698813],[22.160838,47.069807],[22.1603513,47.0697213],[22.1596716,47.0695784],[22.1586982,47.0693097],[22.1582031,47.0691326],[22.157708,47.0689211],[22.1567849,47.0684295],[22.1564073,47.0681952],[22.1551738,47.0673378],[22.1548465,47.0671435],[22.1545192,47.0669777],[22.1541332,47.0668634],[22.1536633,47.0667891],[22.1528409,47.066732],[22.1493081,47.0665205],[22.1484443,47.0664907]],[[22.0707046,47.0694526],[22.0702515,47.0694469]],[[22.0702515,47.0694469],[22.0688301,47.0694113],[22.0655406,47.0693427],[22.0650035,47.0693084],[22.0646846,47.0692627],[22.0643909,47.0691884],[22.063728,47.0689769],[22.0614791,47.0681767],[22.0579798,47.0670279],[22.0557141,47.0662276],[22.0511827,47.0647358],[22.0492442,47.0640727],[22.0484806,47.0637869],[22.0477925,47.0635182],[22.0455855,47.062575],[22.0419856,47.0611231],[22.0411632,47.0607629],[22.0406429,47.0605514],[22.0392667,47.0598083],[22.0387212,47.0594882]],[[22.0167779,47.0559959],[22.0165761,47.0560202],[22.0158149,47.0561438],[22.0154666,47.0562324],[22.0152065,47.0563382],[22.0150135,47.0564611],[22.014682,47.0567641],[22.0145981,47.0568928],[22.0145561,47.0570071],[22.0145436,47.0571186],[22.0145645,47.0572472],[22.0146275,47.0573816]],[[22.017033,47.0559555],[22.0167779,47.0559959]],[[22.2070864,47.0789888],[22.2066897,47.0790471],[22.2065047,47.0791866],[22.2061275,47.0792361],[22.205937,47.079259],[22.2051713,47.0792904],[22.2044633,47.079263],[22.2039106,47.079263],[22.2033276,47.0792869],[22.2025049,47.0792431],[22.2020554,47.0791828],[22.2018627,47.079139],[22.2013612,47.0789828],[22.2008627,47.0787412],[22.2006303,47.0786059],[22.2004988,47.0785059],[22.2002631,47.0782763],[22.2000372,47.078128],[22.199859,47.0780979],[22.1997428,47.078101],[22.1995263,47.0780248],[22.1993917,47.0779499],[22.1992541,47.0778645],[22.199144,47.0777728],[22.1990737,47.0776937],[22.1990401,47.0776125],[22.199037,47.077475],[22.1989881,47.0774084],[22.1986333,47.0771897],[22.198303,47.077021],[22.1981685,47.0769585],[22.1975844,47.0767419],[22.1971226,47.0766836],[22.1969391,47.076644],[22.1967893,47.0765961],[22.196514,47.0765378],[22.1963611,47.0765316],[22.196037,47.0765774],[22.1958412,47.0765899],[22.1957158,47.0765774],[22.195407,47.0764983],[22.1952235,47.076467],[22.1949238,47.0764441],[22.1938565,47.0763983],[22.1936822,47.0764045],[22.1934987,47.0764316],[22.1931562,47.0765191],[22.19304,47.0765712],[22.1929238,47.0766857],[22.1928412,47.0768315],[22.1927617,47.0768752],[22.1924987,47.0769794],[22.1923274,47.0770772],[22.1921684,47.0771793],[22.191884,47.0774417],[22.1915996,47.0776375],[22.1915017,47.0776812],[22.1913947,47.0777083],[22.1911618,47.077649],[22.1909291,47.0776169],[22.190744,47.0776461],[22.1904803,47.0777104],[22.1898381,47.0777395],[22.1896913,47.0777291],[22.1895598,47.0776937],[22.1892264,47.0774729],[22.1887952,47.077248],[22.1884772,47.0769794],[22.1883488,47.0768898],[22.1875108,47.0764233],[22.1871224,47.0761859],[22.1869389,47.0760692],[22.1864772,47.075736],[22.186098,47.0754049],[22.1859603,47.0752445],[22.1859145,47.0751341],[22.1858839,47.0748696],[22.1858472,47.0747363],[22.1858105,47.0746634],[22.1857065,47.0745468],[22.1853334,47.0742135],[22.185101,47.0739761],[22.1846392,47.0736928],[22.1845475,47.0736137],[22.1844404,47.0734596],[22.1843762,47.0734054],[22.1840612,47.0732971],[22.183786,47.0731846],[22.1836025,47.0731284],[22.1830937,47.0730158],[22.1828861,47.0729834],[22.1821769,47.0729422],[22.1819563,47.0729127],[22.1817357,47.0728568],[22.1816869,47.0728365],[22.1812903,47.0726712],[22.1810437,47.072577],[22.180901,47.0725357],[22.1806545,47.0723884],[22.1804037,47.0723148],[22.1800058,47.0721174],[22.1797938,47.0720438],[22.1794911,47.0719584],[22.1792489,47.0718671],[22.1784704,47.0716314],[22.1783147,47.0715696],[22.1782196,47.0715018],[22.1781504,47.0714223],[22.1780033,47.0711778],[22.1778693,47.071004],[22.1777395,47.0708921],[22.1775838,47.0707065],[22.1773633,47.0703736],[22.1772422,47.0701409],[22.1772119,47.0700378],[22.1772147,47.0699502],[22.1772635,47.0698657],[22.1774458,47.0697292],[22.1774674,47.0696817],[22.1774468,47.0696175],[22.1773719,47.0695341],[22.1771946,47.0693986],[22.1769308,47.0692631],[22.1768313,47.0691895],[22.1766626,47.068998],[22.1764377,47.0689155],[22.1761999,47.0688536],[22.1754473,47.0688095],[22.1747986,47.068833],[22.1744915,47.0688566],[22.1738178,47.0688286],[22.1735396,47.0687803],[22.1733271,47.0687776],[22.1731527,47.0688412],[22.1730359,47.0689061],[22.1729247,47.0689362],[22.1722686,47.0688595],[22.1714947,47.0688914],[22.1712569,47.0688738],[22.1711323,47.0688202],[22.1708567,47.0687769],[22.1703616,47.0688443],[22.1701627,47.0689003],[22.1699464,47.0689356],[22.1697247,47.0690045],[22.1695958,47.0690236],[22.1693641,47.0690147],[22.1691463,47.0689739],[22.1685365,47.0689533],[22.1683203,47.0689327],[22.1681516,47.0689445],[22.1679786,47.0689769],[22.1678575,47.0689687],[22.1675029,47.0688738],[22.1671396,47.0687442],[22.1661881,47.0684879],[22.1660281,47.0684231],[22.1656907,47.0682552],[22.1650247,47.0680342],[22.1644365,47.0678663],[22.1641857,47.0678103],[22.1638527,47.0677485],[22.1636235,47.067722],[22.1631391,47.0677308],[22.162806,47.067775],[22.1625941,47.0678221],[22.1624644,47.0678575],[22.16214,47.0680696],[22.1620319,47.0681196],[22.1619194,47.0681403],[22.1615086,47.0681167],[22.160942,47.0680578],[22.1600641,47.0680872],[22.159956,47.0680696],[22.159381,47.0678296],[22.1592373,47.0677941],[22.1589774,47.0676942],[22.1588,47.0675608],[22.1587052,47.0674546],[22.158641,47.0674067],[22.1585645,47.0673755],[22.1584085,47.0673171],[22.1580783,47.0672421],[22.1579162,47.0671921],[22.1572984,47.0669609],[22.1572006,47.0669089],[22.1567694,47.0665527],[22.1559773,47.0661215],[22.1557479,47.0660381],[22.1553412,47.0659506],[22.1541485,47.0656278],[22.1533718,47.0653653],[22.1528947,47.0652799],[22.1513717,47.0651278],[22.1501638,47.064982],[22.1498518,47.0649716],[22.1495246,47.0649778],[22.1493564,47.0649653],[22.1491729,47.0649153],[22.1486744,47.064705],[22.1476163,47.0645904],[22.1472708,47.0646216],[22.1464808,47.0645721],[22.1463034,47.0645721],[22.1460491,47.0646036],[22.1458325,47.0646305],[22.1457254,47.0646263],[22.1456276,47.0646013],[22.1454441,47.0645013],[22.1453523,47.0644742],[22.1452331,47.0644534],[22.1451046,47.0644513],[22.1446795,47.0645555],[22.1444563,47.0645805],[22.1442453,47.0646284],[22.1441688,47.0646326],[22.1440618,47.0646159],[22.1436275,47.0644555],[22.1435358,47.0644013],[22.1434777,47.0643493],[22.1434073,47.0642118],[22.1433645,47.0641805],[22.1432881,47.0641659],[22.1430557,47.0641659],[22.1422758,47.0641264],[22.1421168,47.0641347],[22.1419089,47.0641639],[22.1410281,47.0643763],[22.1405419,47.0644722],[22.1395113,47.0645492],[22.1393767,47.0645472],[22.1392207,47.0645284],[22.138603,47.064368],[22.1383492,47.0643347],[22.1382085,47.0643034],[22.1378446,47.0641889],[22.1375571,47.0640784],[22.1365479,47.0638514],[22.1363063,47.0637514],[22.1359546,47.0634285],[22.1358507,47.0633618],[22.1357528,47.0633223],[22.1356305,47.0632993],[22.1353889,47.0633098],[22.1352757,47.0633452],[22.1351595,47.0634014],[22.1348659,47.0635702],[22.1340433,47.0637764],[22.133343,47.0639764],[22.1330891,47.0640659],[22.1327864,47.0642243],[22.1324163,47.0644659],[22.1322543,47.0645555],[22.131976,47.0646534],[22.1314224,47.0647721],[22.1300279,47.0649804],[22.1293783,47.0651719],[22.1291703,47.0652219],[22.1289623,47.0652469],[22.1286993,47.0652427],[22.128418,47.0652219],[22.127892,47.0650886],[22.1273782,47.0649261],[22.1272008,47.0649219],[22.1267788,47.0649969],[22.1265892,47.0650136],[22.1263874,47.0650136],[22.1260938,47.0649761],[22.1258491,47.0649344],[22.1254394,47.0648136],[22.125054,47.0646011],[22.1248277,47.0645428],[22.1238246,47.064372],[22.1233415,47.0643512],[22.1229561,47.0643012],[22.1227421,47.0642887],[22.122632,47.0643012],[22.1220509,47.0645136],[22.1210601,47.0647303],[22.1205272,47.0648729],[22.1203621,47.0649021],[22.1201236,47.0649229],[22.1194875,47.0649396],[22.1192612,47.0649313],[22.1187657,47.0648729],[22.1181419,47.0648479],[22.1179033,47.0648604],[22.1176648,47.0648938],[22.1175119,47.0649521],[22.1173773,47.0649813],[22.1172734,47.0649896],[22.1168575,47.0649646],[22.1160318,47.0649938],[22.1157137,47.0650354],[22.1153406,47.0651229],[22.1141785,47.0654812],[22.1138482,47.0656229],[22.1134079,47.065902],[22.1131632,47.0660103],[22.112943,47.0660811],[22.1126923,47.0661353],[22.1123987,47.0661811],[22.1121724,47.0661978],[22.1117687,47.066177],[22.1111571,47.0661978],[22.1107228,47.066177],[22.1105271,47.0661395],[22.1103252,47.0660811],[22.1100255,47.0659228],[22.1098237,47.0658312],[22.109628,47.0657645],[22.1090347,47.0656728],[22.1082396,47.0656229],[22.1080011,47.0656479],[22.1078359,47.0656895],[22.107683,47.0657103],[22.1074139,47.0657103],[22.1071081,47.0656937],[22.1068879,47.0656562],[22.1065331,47.0655562],[22.1060928,47.065477],[22.1059643,47.0654437],[22.1052793,47.0651354],[22.1050652,47.0650687],[22.1048145,47.0650188],[22.1045698,47.0649938],[22.1043252,47.0649854],[22.1033649,47.0649854],[22.1031019,47.0650021],[22.1028695,47.0650438],[22.1026554,47.0651021],[22.1025147,47.0651646],[22.1023679,47.0652562],[22.1020071,47.0655395],[22.1017685,47.0656104],[22.1010223,47.0657728],[22.1007471,47.0658103],[22.1004413,47.0658312],[22.0987532,47.0658728],[22.0982455,47.0658687],[22.097426,47.0658312],[22.0965207,47.0657645],[22.0963006,47.065777],[22.0959886,47.0658395],[22.0956155,47.0659312],[22.0953342,47.0660311],[22.0951507,47.0661186],[22.09501,47.0662186],[22.0948877,47.0662728],[22.0947042,47.0663144],[22.0937072,47.0663436],[22.0933219,47.0663269],[22.0930345,47.0662811],[22.0927776,47.0661895],[22.0925757,47.0660603],[22.0925451,47.0658853],[22.0924962,47.0658187],[22.0923555,47.0657645],[22.0921109,47.065727],[22.0918662,47.0656728],[22.091695,47.0656187],[22.0913219,47.0654187],[22.0908999,47.0651687],[22.0904534,47.0650354],[22.0901537,47.0650021],[22.0895053,47.0650354],[22.0892974,47.0650729],[22.0891995,47.0651104],[22.0891017,47.0651896],[22.0889182,47.0653937],[22.0887836,47.0654729],[22.0883188,47.0656354],[22.0877805,47.065802],[22.0875298,47.0659353],[22.0873891,47.0660395],[22.0872484,47.0661686],[22.0871689,47.0663269],[22.0871261,47.0664936],[22.0870894,47.0665727],[22.0869793,47.0666811],[22.0867836,47.0668144],[22.086594,47.0668852],[22.0864105,47.0669102],[22.086172,47.0668977],[22.0858661,47.0668519],[22.0855664,47.0667894],[22.0853707,47.0667269],[22.0851628,47.0666436],[22.0847102,47.0663811],[22.0845144,47.0662894],[22.0843004,47.0662561],[22.0840863,47.0662644],[22.0839334,47.0662936],[22.0837682,47.0663644],[22.083652,47.0664644],[22.0835481,47.0666186],[22.0834624,47.0668185],[22.0833768,47.0672351],[22.0834441,47.0677351],[22.0834257,47.0679309],[22.0833462,47.0681267],[22.0832117,47.0682725],[22.083071,47.0683933],[22.0828997,47.0685058],[22.0826795,47.0685933],[22.0822575,47.0686932],[22.0818171,47.0687516],[22.0814012,47.0687807],[22.0810404,47.0687724],[22.0806,47.0687182],[22.0802636,47.0686224],[22.0799394,47.0685099],[22.079603,47.0684308],[22.0793217,47.0683516],[22.0791199,47.0682808],[22.0785816,47.06801],[22.0783492,47.0678226],[22.0782146,47.0676809],[22.078129,47.0675643],[22.0779455,47.0671893],[22.0777865,47.067056],[22.0773339,47.0667852],[22.0769302,47.0665061],[22.0767223,47.0664061],[22.0765082,47.0663603],[22.0762758,47.0663269],[22.0760372,47.0663186],[22.0757804,47.0663519],[22.0756213,47.0664269],[22.075444,47.0665352],[22.0752972,47.0667019],[22.0751993,47.0668977],[22.0751381,47.0670852],[22.0750709,47.0672268],[22.074973,47.0673185],[22.0748201,47.0673976],[22.0744959,47.0675184],[22.0741167,47.0676351],[22.0737803,47.0677226],[22.0736213,47.0677434],[22.0733828,47.0677476],[22.0730831,47.0677309],[22.0727956,47.0676892],[22.0726549,47.0676351],[22.0724775,47.0675143],[22.0721778,47.0671935],[22.0716518,47.0668102],[22.0714745,47.0667144],[22.071346,47.0666852],[22.0711809,47.0666769],[22.0709852,47.0666936],[22.0707894,47.066731],[22.0705081,47.0668144],[22.070031,47.0670435],[22.0693949,47.0673101],[22.0691625,47.0674351],[22.0689546,47.0675226],[22.0686916,47.0676268],[22.0673765,47.068035],[22.0670769,47.0681142],[22.06682,47.0681558],[22.0666059,47.0681683],[22.0663123,47.0681392],[22.0659637,47.0680642],[22.0656273,47.0679684],[22.0653521,47.0678559],[22.0651563,47.0677476],[22.0649484,47.0675768],[22.0647771,47.0673976],[22.0643551,47.0668352],[22.0642817,47.0667519],[22.0641166,47.0666102],[22.063878,47.0664644],[22.063193,47.066102],[22.0628566,47.0659561],[22.0625141,47.065852],[22.0622694,47.065802],[22.062037,47.0657937],[22.0617067,47.0658145],[22.061407,47.0658478],[22.0612235,47.0658437],[22.0610217,47.0658145],[22.0608627,47.0657603],[22.0606547,47.0656479],[22.0603978,47.0654562],[22.0601043,47.0652062],[22.0599514,47.0650146],[22.0597373,47.0648396],[22.0595599,47.0647354],[22.0593336,47.0646438],[22.0590767,47.064573],[22.0587831,47.0645146],[22.0585385,47.064498],[22.0582266,47.0644938],[22.0580492,47.0645355],[22.0578106,47.0646271],[22.0574743,47.0647896],[22.0572235,47.0648729],[22.0569788,47.0649229],[22.056777,47.0649396],[22.0566057,47.0649396],[22.0563855,47.0649104],[22.0559513,47.0648271],[22.0554498,47.0647813],[22.0551501,47.0647396],[22.0548504,47.0646771],[22.0545078,47.0645771],[22.0542387,47.0644771],[22.05378,47.0642105],[22.0533335,47.063873],[22.0529971,47.0635481],[22.0529176,47.0634397],[22.0528442,47.0632397],[22.052783,47.0631689],[22.0526546,47.0630898],[22.0520552,47.0628356],[22.0516393,47.0627231],[22.051205,47.0626023],[22.0510949,47.062519],[22.0510215,47.0624148],[22.0509787,47.0623148],[22.0508992,47.0622148],[22.0508075,47.0621356],[22.0505689,47.0620065],[22.0503365,47.0619065],[22.050202,47.0618648],[22.0499695,47.0617482],[22.0495353,47.0616898],[22.0491989,47.0616648],[22.0489114,47.0616148],[22.0487341,47.0615565],[22.0485567,47.0614857],[22.0483732,47.0614565],[22.0474496,47.0614523],[22.0469664,47.0614565],[22.0465138,47.061494],[22.046153,47.0615482],[22.0455413,47.0616898],[22.045364,47.061694],[22.0452294,47.061669],[22.0443976,47.061444],[22.0437493,47.0612232],[22.0434067,47.0610315],[22.0432416,47.0609607],[22.042789,47.0607649],[22.0426422,47.0606774],[22.0425505,47.0606024],[22.0423609,47.0604065],[22.0419694,47.0599315],[22.0417492,47.0596399],[22.0415596,47.0594649],[22.0413456,47.0593024],[22.0412293,47.0591857],[22.0411193,47.0590315],[22.0410092,47.0588399],[22.0409541,47.0586982],[22.0402997,47.0577649],[22.0401651,47.0576148],[22.0397614,47.0573148],[22.0392477,47.0570315],[22.0386054,47.0567648],[22.0365871,47.0561273],[22.0360978,47.0559606],[22.0357247,47.0558523],[22.0351192,47.0556981],[22.0333148,47.0550689],[22.0330702,47.0550022],[22.0328194,47.0549605],[22.0325442,47.0549397],[22.0322873,47.0549022],[22.0319998,47.0548355],[22.0313026,47.0546063],[22.030642,47.0543063],[22.0304891,47.054248],[22.0302995,47.0542063],[22.0298163,47.0541396],[22.0291863,47.0540771],[22.0288866,47.0540271],[22.028012,47.0538021],[22.0278224,47.0537687],[22.0268499,47.0537771],[22.0266481,47.0537604],[22.0263851,47.0537229],[22.0253392,47.0535229],[22.0250517,47.0534937],[22.0241771,47.0533395],[22.0235457,47.0532541],[22.0229618,47.0532393],[22.0223087,47.0532865],[22.0219498,47.0533336],[22.0215432,47.0534073],[22.0204447,47.053646],[22.0201766,47.0536843],[22.0194889,47.0537137],[22.0190002,47.0537079],[22.0187364,47.0536578],[22.0181612,47.0534427],[22.0179017,47.0533955],[22.0177114,47.0534102],[22.0174822,47.053481],[22.0171751,47.0535694],[22.0164269,47.0537668],[22.0160852,47.0538699],[22.015869,47.0539642],[22.0156614,47.0541056],[22.01551,47.0542441],[22.0151078,47.0546861],[22.0144331,47.0553844],[22.0144012,47.0554387],[22.0142342,47.0557233],[22.0141563,47.055962],[22.0141044,47.0564157],[22.0141174,47.0566662],[22.0141607,47.056837],[22.0142601,47.0570286],[22.0143423,47.0571376],[22.0146275,47.0573816],[22.0147748,47.0575383],[22.0148959,47.0577121],[22.0149564,47.0578977],[22.0149521,47.058051],[22.0149002,47.0582454],[22.0148267,47.0583692],[22.0147445,47.0584517],[22.0146191,47.0585312],[22.0144288,47.0585872],[22.0142428,47.0586167],[22.0139574,47.0586167],[22.0135898,47.0585784],[22.0131274,47.0585091],[22.0120571,47.0582716],[22.0116045,47.05813],[22.0112253,47.0580258],[22.009898,47.0577924],[22.0096534,47.0577174],[22.0094026,47.0576216],[22.0092008,47.0575174],[22.0090295,47.0573674],[22.0089194,47.0571758],[22.0088277,47.0569049],[22.0087849,47.0566799],[22.0086809,47.0554673],[22.0086014,47.0551215],[22.0084791,47.0548089],[22.0083323,47.0545381],[22.0081855,47.0543047],[22.008002,47.054088],[22.0074515,47.053663],[22.0071885,47.053488],[22.0068093,47.0532921],[22.0064851,47.0531421],[22.0055616,47.0526545],[22.0051946,47.0524962],[22.0047298,47.0523295],[22.0043138,47.0522337],[22.0038429,47.0522003],[22.0035371,47.052217],[22.0032496,47.0522545],[22.003005,47.0522545],[22.0027297,47.0522003],[22.0024851,47.0521045],[22.0022527,47.0519586],[22.0020447,47.0517753],[22.0018979,47.0515377],[22.0016655,47.0510626],[22.0015126,47.0508251],[22.0013352,47.0506167],[22.0011334,47.05045],[22.0009009,47.0502917],[22.0007113,47.0501292],[22.0003627,47.0497874],[22.0001976,47.0495874],[22.000063,47.049404],[21.9999529,47.049204],[21.9998489,47.0489998],[21.9997878,47.0487997],[21.9996043,47.0484372],[21.9994881,47.0482955],[21.9992801,47.0481579],[21.9990661,47.0480371],[21.9985095,47.0478245],[21.9981486,47.0477287],[21.997115,47.0474953],[21.9953718,47.0469869],[21.9935858,47.0463617],[21.9922953,47.0458657],[21.9910048,47.0454698],[21.9897754,47.0451572],[21.9888885,47.0450614],[21.9884176,47.0450572],[21.9879099,47.0450822],[21.9873839,47.0451406],[21.9864114,47.0453198],[21.9859099,47.0454615],[21.9851209,47.0457824],[21.9847784,47.0459366],[21.9845215,47.0460325],[21.9842279,47.0461033],[21.9838854,47.0461658],[21.9835612,47.0461825],[21.9814754,47.0460909],[21.9809983,47.0460159],[21.9805824,47.0459159],[21.9800686,47.0456908],[21.979665,47.0454408],[21.9793958,47.0451323],[21.9793347,47.0450185],[21.9792124,47.0447906],[21.97909,47.0443238],[21.9789432,47.0436319],[21.9789065,47.0432901],[21.9788331,47.042915],[21.9787006,47.0426613],[21.9785005,47.042515],[21.9782162,47.0423611],[21.9778954,47.0422463],[21.9774942,47.0421842],[21.9769982,47.0421898],[21.976619,47.0422648],[21.9761664,47.0424065],[21.9755059,47.0427483],[21.9748942,47.0431901],[21.9747719,47.0433652],[21.9746741,47.0435652],[21.9746129,47.0438236],[21.9746129,47.0441904],[21.974723,47.0445989],[21.9749187,47.044924],[21.9751756,47.0452157],[21.9754325,47.0454574],[21.9757628,47.0457242],[21.9762154,47.0459992],[21.9767781,47.0462826],[21.9774509,47.0465994],[21.9779891,47.0468828],[21.9784662,47.0471745],[21.9787842,47.0474079],[21.9790411,47.0476913],[21.9791841,47.0479155]],[[22.1478339,47.0664621],[22.1469836,47.0663776],[22.1419739,47.0660461],[22.1402117,47.0659546],[22.139918,47.0659203],[22.1385753,47.0656174],[22.1366453,47.0651429],[22.1361837,47.0650686],[22.1357558,47.0650458],[22.1354285,47.0650572],[22.1351096,47.0651029],[22.1295712,47.0662347],[22.1289251,47.066349],[22.1285978,47.066389],[22.1282369,47.0664119],[22.1278006,47.066389],[22.126802,47.0662976],[22.1259712,47.0662004],[22.123672,47.0660003],[22.1228748,47.0659146],[22.1224971,47.0658917],[22.1181419,47.0657774],[22.1166231,47.0657545],[22.1162706,47.0657831],[22.115935,47.0658574],[22.1156329,47.0659489],[22.114735,47.066309],[22.1140049,47.0666405],[22.1133252,47.066932],[22.1128049,47.0670749],[22.112377,47.0671378],[22.1119322,47.0671664],[22.1115378,47.0671664],[22.1111434,47.0671378],[22.1065029,47.0664004],[22.1059407,47.0663261],[22.105647,47.0663147],[22.1052945,47.0663318],[22.1004946,47.0669149],[22.1002344,47.0669377],[22.0911296,47.0669206],[22.0905002,47.0669092],[22.0900807,47.066932],[22.089745,47.0669892],[22.0893842,47.0670978],[22.0887296,47.0673207],[22.0873366,47.067858],[22.085801,47.0684295],[22.0832416,47.0694183],[22.0827465,47.0695955],[22.0824528,47.0696641],[22.0821171,47.0697041],[22.0817982,47.069727],[22.0813703,47.0697327],[22.07965,47.0696813],[22.0763605,47.0696184],[22.0735242,47.0695498],[22.0707046,47.0694526]],[[22.1484443,47.0664907],[22.1483478,47.0664862],[22.1482467,47.0664814],[22.1478339,47.0664621]],[[21.9791841,47.0479155],[21.9794448,47.0485165],[21.9795304,47.0488582],[21.979531,47.0491887],[21.9795051,47.0495364],[21.979384,47.0498782],[21.9792369,47.0502024],[21.979012,47.0504912],[21.9787179,47.0507387],[21.9784498,47.0509273],[21.9780173,47.0512161],[21.9774551,47.0515343],[21.9770226,47.0517642],[21.9766679,47.0519233],[21.9763479,47.0520235],[21.9760279,47.0520706],[21.9757338,47.0520883],[21.9754656,47.0520647],[21.9752148,47.0520058],[21.9748169,47.0518761],[21.9744104,47.0517347],[21.974073,47.0516404],[21.9735454,47.0515166],[21.9728707,47.0513988],[21.9721874,47.0513104],[21.9715127,47.0512396],[21.9709677,47.0511571],[21.9704574,47.0510628],[21.9699903,47.0509332],[21.9695059,47.0507505],[21.9690994,47.050556],[21.968788,47.0503674],[21.9684247,47.0500845],[21.968122,47.0498311],[21.9677846,47.0494598],[21.9675338,47.0491003],[21.9672916,47.0486818],[21.9671273,47.0483871],[21.966947,47.0482016],[21.9666804,47.0479885],[21.9664304,47.0478372],[21.9660291,47.0476544],[21.9655673,47.047547],[21.9651119,47.0475089],[21.964688,47.0475148],[21.9642382,47.0475679],[21.9638317,47.0476799],[21.9633733,47.047892],[21.9631051,47.0481219],[21.9629494,47.0483459],[21.962837,47.0485993],[21.9627418,47.0488881],[21.9626726,47.0491003],[21.9625688,47.049283],[21.9624131,47.0494951],[21.9622055,47.0496955],[21.9620325,47.04989],[21.9618336,47.0501847],[21.9616779,47.0504499],[21.9615309,47.0506915],[21.9613406,47.0509803],[21.9611849,47.0511571],[21.9609859,47.0513045],[21.9607178,47.05144],[21.9605102,47.0515107],[21.9602593,47.0515697],[21.9598701,47.0516758],[21.9595328,47.0517288],[21.9591868,47.0517642],[21.9589013,47.0517642],[21.9586072,47.0517229],[21.9583304,47.0516168],[21.9580104,47.0514636],[21.9577509,47.0513045],[21.9575174,47.0511807],[21.9572233,47.0510687],[21.9568135,47.0509719],[21.9567043,47.050945],[21.9561421,47.0508153],[21.9558047,47.0507799],[21.9554155,47.0507741],[21.9549397,47.0508035],[21.9544986,47.0508566],[21.9539537,47.0509685],[21.9534001,47.0511159],[21.9528638,47.0513045],[21.9523275,47.0515402],[21.9517307,47.051829],[21.9511511,47.0520942],[21.9502485,47.0525986],[21.9497129,47.0529239],[21.9491963,47.0532316],[21.9487552,47.0534968],[21.9483054,47.0537443],[21.9478729,47.0539388],[21.9474231,47.0540979],[21.9470339,47.0542099],[21.9463851,47.0543808],[21.9457364,47.0545281],[21.9451569,47.0546283],[21.9443351,47.0547344],[21.9435307,47.0548404],[21.9429685,47.0549347],[21.9422851,47.0550644],[21.9416364,47.0551822],[21.9408752,47.0553119],[21.94046,47.0553885],[21.94014,47.0554415],[21.9396383,47.0555063],[21.9392318,47.0555417],[21.9390554,47.0555457],[21.9384533,47.0555417],[21.9377267,47.0554887],[21.9367666,47.0554121],[21.9360487,47.055359],[21.9354432,47.0553001],[21.9350799,47.0552588],[21.9347252,47.0552176],[21.9342409,47.0551763],[21.9338677,47.0551937],[21.9334233,47.0552405],[21.9329329,47.0553062],[21.9323101,47.0554068],[21.9317843,47.0554533],[21.9310837,47.0555417],[21.9305215,47.0556242],[21.930089,47.0557067],[21.929743,47.0557892],[21.9295094,47.0558599],[21.9291375,47.0559778],[21.9288088,47.056131],[21.9284542,47.0563255],[21.9281428,47.0565435],[21.9278919,47.0567674],[21.9276497,47.0570267],[21.9272519,47.0575865],[21.9269059,47.0581287],[21.9265945,47.0586885],[21.9263865,47.0591968],[21.9262275,47.0596385],[21.9261296,47.0601051],[21.9260807,47.0605218],[21.9259828,47.0610468],[21.9258495,47.0615844],[21.9257025,47.0620028],[21.9255122,47.0624152],[21.9252959,47.0627688],[21.9250191,47.0631282],[21.9246645,47.0634522],[21.9243358,47.0636761],[21.9239898,47.0638824],[21.9235314,47.0640945],[21.9231335,47.0642477],[21.9227356,47.0644009],[21.922355,47.0645305],[21.9219744,47.0646483],[21.921343,47.0648251],[21.9206683,47.0649842],[21.9200974,47.0651079],[21.9194919,47.0652434],[21.9189729,47.0653495],[21.9184453,47.0654261],[21.9178658,47.0655144],[21.9173814,47.0655969],[21.9168797,47.0656853],[21.9163002,47.0657914],[21.9157639,47.0659269],[21.9152363,47.0660742],[21.9146654,47.0663098],[21.9140599,47.0666162],[21.9136447,47.0668931],[21.9132641,47.0672231],[21.9129787,47.0674764],[21.9126586,47.0677474],[21.9122261,47.0680832],[21.9117158,47.0684132],[21.9112833,47.0686547],[21.9108162,47.0688609],[21.9104183,47.06902],[21.9100464,47.0691496],[21.9094842,47.0693558],[21.9090257,47.0695267],[21.9084894,47.0697446],[21.9080742,47.069945],[21.907538,47.0702572],[21.9069498,47.0706166],[21.9064567,47.0709347],[21.9058945,47.0713176],[21.9053928,47.0716534],[21.9050641,47.0718773],[21.9047181,47.0720658],[21.9043635,47.0722543],[21.904347,47.0722613],[21.9038791,47.0724605],[21.9034726,47.0725725],[21.9031179,47.0726314],[21.9026249,47.0726844],[21.9019243,47.072761],[21.901362,47.0728493],[21.9007047,47.0729848],[21.9001511,47.0731203],[21.8996234,47.0732794],[21.8990612,47.0735386],[21.8986893,47.0737507],[21.8981443,47.0740334],[21.8977291,47.074216],[21.8973658,47.0743574],[21.8969161,47.074487],[21.8963971,47.074599],[21.8958521,47.0747109],[21.8954456,47.0747757],[21.8949872,47.0748405],[21.8943557,47.074923],[21.893361,47.0750584],[21.8923576,47.0752116],[21.8915965,47.0753235],[21.8909391,47.0753942],[21.8903682,47.0754296],[21.8896416,47.0754767],[21.8890967,47.0755061],[21.8886469,47.0755061],[21.8882403,47.0754885],[21.8878857,47.0754413],[21.8873494,47.0753353],[21.8869083,47.0752175],[21.8862422,47.075029],[21.8858184,47.0748523],[21.885533,47.0746814],[21.8852735,47.0744988],[21.8849275,47.0743103],[21.884642,47.0741866],[21.8843047,47.0740982],[21.8839674,47.0740452],[21.8837425,47.0740452],[21.8834657,47.0740864],[21.8832148,47.074163],[21.8829726,47.074216],[21.8827131,47.074275],[21.8824623,47.0742985],[21.8821682,47.0743044],[21.8818568,47.0742926],[21.8815183,47.0742604],[21.8812064,47.0742338],[21.880784,47.0741763],[21.8805046,47.0741232],[21.8801406,47.0740258],[21.8797572,47.0739107],[21.8794323,47.0738001],[21.8792568,47.073716],[21.8789514,47.0735124],[21.878737,47.0733708],[21.878451,47.0731982],[21.8782106,47.0730919],[21.8779701,47.0730123],[21.8777297,47.0729769],[21.8772423,47.072937],[21.8765843,47.0732535],[21.8757216,47.0747605],[21.8757931,47.0749508],[21.8758841,47.0751278],[21.8759946,47.0752739],[21.8760596,47.0753801],[21.8761115,47.0755306],[21.876105,47.0756899],[21.8760596,47.0758094],[21.8759816,47.0758758],[21.8758061,47.0759422],[21.8754617,47.0760174],[21.8750068,47.0761236],[21.8747079,47.0761767],[21.8743959,47.0761989],[21.874032,47.0762166],[21.8736746,47.0762431],[21.8732132,47.0762918],[21.8726608,47.0763538],[21.8723164,47.0763847],[21.871985,47.0764024],[21.8716405,47.0764113],[21.8710557,47.076429],[21.8706073,47.0764511],[21.8701784,47.0764777],[21.869678,47.076491],[21.8693336,47.0764954],[21.8690606,47.0764865],[21.8687747,47.0764511],[21.8684043,47.0763715],[21.8679884,47.0762608],[21.8675659,47.0761236],[21.867215,47.0760041],[21.8668771,47.0759289],[21.8665587,47.0758846],[21.8660388,47.0758404],[21.8656359,47.0758138],[21.865259,47.0757917],[21.864999,47.0758006],[21.8646676,47.0758315],[21.8643557,47.0758669],[21.8638553,47.0759156],[21.8635238,47.0759599],[21.8631404,47.0759997],[21.8627505,47.0760263],[21.8624126,47.076044],[21.8620747,47.0760484],[21.8616848,47.0760705],[21.8613338,47.0760971],[21.8610934,47.0761325],[21.860788,47.0761944],[21.860502,47.0762608],[21.8603461,47.0763405],[21.8601771,47.0764379],[21.8600406,47.0765662],[21.8599366,47.0767034],[21.8597612,47.0769247],[21.8596117,47.0770884],[21.8594363,47.0772787],[21.8592673,47.0774602],[21.8591048,47.0776018],[21.8589099,47.0777257],[21.8586434,47.0778496],[21.8583575,47.0779426],[21.8580391,47.0780311],[21.8577206,47.0780974],[21.8574607,47.0781373],[21.8571163,47.0781683],[21.8568303,47.078155],[21.8564339,47.0781284],[21.8560895,47.0780842],[21.8557841,47.0780089],[21.8555761,47.0779116],[21.8554072,47.0777965],[21.8552837,47.0776947],[21.8550562,47.0775929],[21.8547768,47.0775398],[21.8545363,47.0775398],[21.8543609,47.0775708],[21.8542244,47.0776505],[21.854062,47.0777832],[21.8538995,47.0778939],[21.85375,47.0779824],[21.853633,47.0780266],[21.8535421,47.0780488],[21.8533406,47.0780488],[21.8531002,47.0780443],[21.8528987,47.0780576],[21.8526193,47.0781107],[21.8523853,47.0781948],[21.8521774,47.0783143],[21.8520669,47.0784161],[21.8519369,47.0785975],[21.851833,47.0787613],[21.8516965,47.078925],[21.851521,47.0790932],[21.8513716,47.0792038],[21.8511961,47.0793056],[21.8508712,47.0794915],[21.8505852,47.0796331],[21.8503123,47.0797216],[21.8500004,47.0797924],[21.8495715,47.0798455],[21.8490321,47.0798898],[21.8486747,47.0798986],[21.8483172,47.0798986],[21.8477909,47.0798898],[21.8474659,47.0798898],[21.8471865,47.0799163],[21.8469135,47.0799606],[21.8465886,47.0800358],[21.8462702,47.0801464],[21.8459453,47.0802925],[21.8457113,47.0804208],[21.8455164,47.0805624],[21.8453669,47.0807173],[21.8452304,47.0808899],[21.845094,47.0809518],[21.844899,47.0809784],[21.8446585,47.0809474],[21.8443856,47.0808943],[21.8441192,47.08085],[21.8437682,47.0808191],[21.8434563,47.0808191],[21.8430339,47.0808412],[21.842787,47.0808722],[21.842579,47.0809341],[21.8424035,47.0810448],[21.8422021,47.0812173],[21.8420006,47.0814032],[21.8417927,47.0815935],[21.8416172,47.0817926],[21.8414483,47.0819342],[21.8413183,47.0819785],[21.8411363,47.0820139],[21.8409609,47.0820183],[21.8407074,47.0819873],[21.8403955,47.0818988],[21.8400381,47.0818236],[21.8397521,47.0817705],[21.8394012,47.0817307],[21.8390698,47.0817041],[21.8386084,47.0816864],[21.8382445,47.0816599],[21.837926,47.0816289],[21.8375556,47.0815714],[21.8371722,47.0815006],[21.8368343,47.0814607],[21.8364899,47.0814386],[21.835983,47.0814253],[21.8355541,47.0813899],[21.8351252,47.081328],[21.8347678,47.0812527],[21.8343129,47.0811598],[21.8336825,47.0810094],[21.8329677,47.0808456],[21.8324218,47.0807306],[21.8318564,47.0806332],[21.83133,47.0805359],[21.8307971,47.0804341],[21.8303803,47.0803733],[21.8298119,47.0803023],[21.8291204,47.0802249],[21.8285046,47.0801797],[21.8276899,47.0801152],[21.8267995,47.080083],[21.82607,47.0800636],[21.8254353,47.0800765],[21.8248669,47.0801152],[21.8241944,47.0801862],[21.823787,47.0802378],[21.8233134,47.0802701],[21.8228113,47.0802959],[21.8222618,47.0803152],[21.8218261,47.0803152],[21.821163,47.0802765],[21.8200736,47.0801991],[21.8195052,47.080141],[21.8189368,47.0801346],[21.8183779,47.0801281],[21.8179042,47.0801023],[21.8174779,47.0800314],[21.8169759,47.0798507],[21.8165306,47.0796701],[21.8160191,47.0794508],[21.8156307,47.0792895],[21.8152532,47.0791251],[21.8150522,47.0790293],[21.8148513,47.0789107],[21.8146771,47.078783],[21.8144628,47.0787146],[21.814168,47.0787191],[21.81388,47.0787693],[21.8135987,47.0788468],[21.8132838,47.07897],[21.8129288,47.0791342],[21.8127078,47.07923],[21.8124465,47.0792984],[21.8121451,47.0793486],[21.8118973,47.0793805],[21.8114284,47.0794262],[21.8111805,47.0794398],[21.8109193,47.0794398],[21.8104906,47.079449],[21.8100686,47.0794946],[21.8097001,47.0795585],[21.8092647,47.0796771],[21.8088829,47.0798002],[21.8085748,47.0799234],[21.8082533,47.0800967],[21.8079251,47.0803065],[21.8076437,47.0805255],[21.8074227,47.0807171],[21.8072016,47.0809406],[21.8069806,47.0811823],[21.8067662,47.0814287],[21.806572,47.0816157],[21.8063844,47.0817343],[21.8061968,47.0818072],[21.8059959,47.0818483],[21.8058284,47.0818483],[21.8056342,47.0818301],[21.8054399,47.081789],[21.8052323,47.0816886],[21.8049576,47.0815336],[21.8045959,47.0813283],[21.8043816,47.0812188],[21.8041538,47.0811595],[21.8038859,47.0811367],[21.803571,47.081155],[21.803216,47.0812143],[21.8028342,47.0813329],[21.8023385,47.0815336],[21.8018093,47.0817343],[21.8012065,47.0819715],[21.8006438,47.082195],[21.8002754,47.0823272],[21.7998869,47.0824276],[21.7995252,47.0824732],[21.7991098,47.0825051],[21.7986744,47.0825234],[21.7982859,47.0825234],[21.7980113,47.0825325],[21.7977434,47.0825872],[21.7975625,47.0826785],[21.7973548,47.0828107],[21.7971271,47.0830388],[21.7970266,47.083203],[21.7968793,47.0834721],[21.796752,47.0837275],[21.7965845,47.0840195],[21.7964439,47.0842658],[21.7962965,47.0844664],[21.7961357,47.0846443],[21.7959817,47.084772],[21.7957874,47.0848769],[21.7954793,47.0849955],[21.7951845,47.0850594],[21.7948161,47.0850868],[21.7944879,47.085105],[21.7941597,47.0851552],[21.793664,47.0852601],[21.7932152,47.0853513],[21.7926793,47.0854516],[21.7922908,47.0855429],[21.7919425,47.0856295],[21.791554,47.0857481],[21.7911654,47.0858895],[21.7907903,47.0860309],[21.7904755,47.0861723],[21.7901406,47.0863274],[21.7899463,47.0864459],[21.7897521,47.0865873],[21.7895712,47.0867424],[21.7893234,47.0869978],[21.7890889,47.087235],[21.7889616,47.0874402],[21.7888545,47.0875816],[21.788754,47.08765],[21.78862,47.0877002],[21.7883923,47.0877276],[21.7881444,47.0877321],[21.7877827,47.0877321],[21.7874076,47.0877276],[21.7869588,47.0877002],[21.786577,47.0876911],[21.7862957,47.087723],[21.7860277,47.0877823],[21.7857129,47.0878826],[21.7853713,47.0880377],[21.7851167,47.0881335],[21.7848823,47.0881928],[21.7845942,47.0882475],[21.7842526,47.0882749],[21.7839646,47.0882977],[21.7836431,47.0883706],[21.783288,47.0884527],[21.7829397,47.0884892],[21.7826048,47.0885303],[21.782223,47.0885895],[21.7819416,47.0886169],[21.7817541,47.0886169],[21.7815263,47.0885895],[21.781312,47.0885348],[21.7811177,47.0884482],[21.7808766,47.088325],[21.7805885,47.0881563],[21.7803809,47.0880423],[21.7801799,47.0879374],[21.7799924,47.0878735],[21.7797177,47.087837],[21.7793962,47.0878142],[21.7790814,47.0878279],[21.7787733,47.0878598],[21.7784316,47.0879328],[21.7781436,47.0880103],[21.777802,47.0881289],[21.7774938,47.088284],[21.7771388,47.0884664],[21.776736,47.0886615],[21.7763286,47.0888614],[21.7759781,47.0890162],[21.7756561,47.0891452],[21.775334,47.0892355],[21.7750593,47.0892871],[21.774813,47.0893258],[21.7744625,47.0893258],[21.7739983,47.0892871],[21.7734204,47.0892226],[21.7726247,47.0891129],[21.771971,47.0889775],[21.7713363,47.0888356],[21.7707301,47.0886679],[21.770209,47.0885131],[21.7697733,47.0883325],[21.7694322,47.0881906],[21.7691196,47.088081],[21.7686365,47.0879197],[21.7680586,47.0877198],[21.7675566,47.0875585],[21.7671682,47.0874166],[21.7668461,47.0872683],[21.7664387,47.0870425],[21.7659935,47.0867458],[21.7656241,47.0864555],[21.765302,47.0862491],[21.7650367,47.0861072],[21.7648946,47.0860105],[21.764762,47.0857912],[21.7646578,47.0854622],[21.7645252,47.0850365],[21.7644115,47.0846043],[21.7643073,47.0843398],[21.7641842,47.0840754],[21.7640326,47.0838109],[21.7638621,47.0836238],[21.7636252,47.0833594],[21.7634547,47.0832497],[21.7632368,47.0831465],[21.7630948,47.0830433],[21.7628769,47.0827982],[21.7626306,47.0825401],[21.7624411,47.0823789],[21.7622043,47.0822176],[21.7619959,47.0819983],[21.7618254,47.0817532],[21.7615885,47.0813661],[21.7613138,47.0809404],[21.7610107,47.0805275],[21.7606507,47.0800759],[21.7602907,47.0796502],[21.7600065,47.0792889],[21.7597129,47.0788825],[21.7593908,47.0785019],[21.7591634,47.0782374],[21.758775,47.0778503],[21.7584056,47.0774633],[21.7581024,47.0771407],[21.7577614,47.076831],[21.7572593,47.0764052],[21.7569278,47.076102],[21.7567194,47.0759988],[21.7564825,47.0758762],[21.7562836,47.0757278],[21.7561605,47.0755536],[21.7560089,47.0752569],[21.7558384,47.0749795],[21.7555921,47.0746762],[21.7553079,47.0743214],[21.7549763,47.0739278],[21.7546637,47.0734468],[21.7545052,47.0731679],[21.7543327,47.0728924],[21.7540423,47.0725035],[21.7538151,47.0722553],[21.7534001,47.0718758],[21.75311,47.071638],[21.7528828,47.0715084],[21.7525986,47.0714116],[21.7523049,47.0713278],[21.7519449,47.0712697],[21.7516702,47.0712116],[21.7514523,47.0711471],[21.7513387,47.0710826],[21.7511302,47.0709148],[21.7509597,47.0707729],[21.7507892,47.0706438],[21.7505619,47.0705729],[21.7500977,47.0705019],[21.7495861,47.0704825],[21.7490841,47.0705019],[21.7484399,47.0705793],[21.7477199,47.0706826],[21.74718,47.0707406],[21.746801,47.0707535],[21.7462327,47.0707342],[21.7458537,47.0707019],[21.7453517,47.0706503],[21.7448117,47.0705535],[21.7442907,47.070418],[21.7439118,47.0703148],[21.7436655,47.0701922],[21.7434192,47.0700631],[21.7431009,47.0699464],[21.7427788,47.0698302],[21.7425041,47.0697399],[21.7421915,47.0696237],[21.7419262,47.0694883],[21.7415094,47.0692689],[21.7411589,47.0690753],[21.7407137,47.0688817],[21.7403537,47.0687591],[21.7398611,47.0685978],[21.7395485,47.0684946],[21.7393306,47.0683914],[21.7391601,47.068243],[21.7390464,47.0680429],[21.7388759,47.0677461],[21.7386675,47.0673977],[21.738497,47.0671912],[21.7382696,47.0669912],[21.7380138,47.0668492],[21.7376633,47.0667008],[21.7371802,47.0664943],[21.7368771,47.0663653],[21.7364981,47.0661975],[21.7362613,47.0660814],[21.7360055,47.0659717],[21.7357971,47.0659007],[21.7356077,47.0658104],[21.7354372,47.0657071],[21.7352856,47.0655716],[21.7351245,47.0653909],[21.7350393,47.0652038],[21.7348688,47.0648747],[21.7347077,47.0645714],[21.7345846,47.0642811],[21.7344899,47.0640681],[21.7343856,47.0637777],[21.7342625,47.0634809],[21.7341299,47.0631582],[21.7339688,47.062855],[21.7337415,47.0625],[21.7334289,47.0620483],[21.7331257,47.0617063],[21.7327658,47.0612933],[21.7324721,47.0609384],[21.7322447,47.0606673],[21.7318942,47.060293],[21.73161,47.0599575],[21.7312974,47.0596606],[21.730928,47.0593121],[21.7305585,47.0590024],[21.7301796,47.0587184],[21.7296681,47.0583312],[21.7292702,47.0579956],[21.7289102,47.0576923],[21.7286544,47.05746],[21.7283039,47.0571244],[21.7279629,47.0568533],[21.7276503,47.0566339],[21.7272714,47.0564145],[21.7270156,47.0562854],[21.7267977,47.0561757],[21.7265419,47.055995],[21.7263146,47.0557884],[21.7260778,47.0555819],[21.7258504,47.0553625],[21.7255757,47.0550785],[21.7253673,47.0547945],[21.7251683,47.054517],[21.7250073,47.0543169],[21.7248084,47.0540975],[21.7245526,47.0538845],[21.72424,47.0536715],[21.7239179,47.0535037],[21.7233969,47.0532197],[21.7229137,47.0529422],[21.7224401,47.0526259],[21.7220233,47.0523226],[21.7215117,47.0519224],[21.7212086,47.0516836],[21.7208865,47.0513996],[21.7205739,47.0510769],[21.7203181,47.0507993],[21.7200434,47.0505283],[21.7196266,47.0502055],[21.7192856,47.0499861],[21.7188972,47.0497602],[21.7185088,47.0495213],[21.7179593,47.0492115],[21.7176088,47.0489921],[21.7171352,47.0486887],[21.7167657,47.0484563],[21.7162636,47.04814],[21.7159321,47.0479206],[21.7157142,47.0477269],[21.7155816,47.0475397],[21.7153542,47.0472234],[21.7151553,47.0469523],[21.7148332,47.0465521],[21.7143217,47.0459905],[21.7139617,47.045558],[21.7136017,47.0451256],[21.713147,47.0445833],[21.7127965,47.0441766],[21.712427,47.0438087],[21.7120671,47.043402],[21.7116881,47.0430211],[21.7113282,47.0426661],[21.7110629,47.042382],[21.7107693,47.0421303],[21.7104945,47.0419301],[21.7102293,47.0418139],[21.7098693,47.04173],[21.7093672,47.0416332],[21.708401,47.0415041],[21.70788,47.0414331],[21.7074821,47.0413491],[21.7071221,47.0412459],[21.7068284,47.0411361],[21.7064685,47.0409618],[21.7061369,47.0407423],[21.7058906,47.0405745],[21.7057106,47.0403291],[21.7056159,47.040129],[21.7054738,47.0399031],[21.7052275,47.0396448],[21.7047823,47.0392639],[21.7042991,47.038883],[21.7038634,47.0385861],[21.7033234,47.0382374],[21.7028403,47.0378953],[21.702414,47.0375725],[21.7019309,47.0372303],[21.7013909,47.0368946],[21.7008983,47.0365395],[21.700472,47.036249],[21.6998657,47.0358164],[21.69943,47.0354871],[21.6989374,47.0351126],[21.6983785,47.0346607],[21.6977627,47.0341829],[21.6970804,47.0336203],[21.6964268,47.0331361],[21.6959058,47.0327228],[21.695489,47.0324],[21.6950437,47.0320513],[21.6946174,47.031735],[21.694229,47.0314186],[21.6938312,47.0310828],[21.6933575,47.0307471],[21.6928554,47.0304823],[21.6924007,47.0302757],[21.6920218,47.0301078],[21.6916239,47.0299787],[21.6908472,47.029785],[21.6899377,47.0296429],[21.6889146,47.0295267],[21.6878252,47.0294363],[21.6868211,47.0293911],[21.6855706,47.0293588],[21.6847844,47.0293524],[21.6843013,47.0293717],[21.6836855,47.0293846],[21.6830697,47.0293911],[21.6825961,47.0293588],[21.6818761,47.0292813],[21.6809383,47.029178],[21.6802657,47.0291199],[21.6793847,47.0290553],[21.6787027,47.0289649],[21.6782479,47.0289068],[21.6776701,47.0288358],[21.6767417,47.0287066],[21.6758039,47.0285775],[21.6749892,47.0284419],[21.6738714,47.0282611],[21.6728104,47.0280738],[21.6718631,47.0278801],[21.6710863,47.027667],[21.6702432,47.0274217],[21.669599,47.0272667],[21.668898,47.0271246],[21.6683486,47.0270471],[21.6678939,47.0269503],[21.6675244,47.0268405],[21.6671739,47.026692],[21.6664919,47.0263239],[21.6657908,47.0259752],[21.6653361,47.0257427],[21.664872,47.0254651],[21.6644172,47.0252068],[21.6640004,47.0249807],[21.6636689,47.0248128],[21.66329,47.0246643],[21.6628542,47.0244964],[21.662409,47.0243543],[21.6616795,47.024109],[21.6611585,47.0239346],[21.6606564,47.0237344],[21.6603249,47.0235859],[21.6600691,47.0234051],[21.6598039,47.023179]],[[21.6598039,47.023179],[21.65923,47.0226328]]]},"properties":{"name":"Crișul Repede","name_ro":"Crișul Repede","type":"river","source":"manual_premap","source_detail":"HOTOSM Waterways HDX snapshot 2026-08-07, waterway=river name match (22 segments, 4147 points), ANCPI validation: see README","osm_type":"way","osm_id":"way/1084060476","geocode_tier":"tier1","confidence":"high"}}]}