{"type":"FeatureCollection","metadata":{"pipeline":"tier1_premap","pipeline_version":"1.0","generated_at":"2026-08-11T10:41:03.332675+00:00"},"features":[{"type":"Feature","id":"crisul-alb","geometry":{"type":"MultiLineString","coordinates":[[[22.3408349,46.2777994],[22.3396923,46.2778952],[22.3394692,46.2778439],[22.3388965,46.2777123],[22.3377866,46.2767864],[22.3351164,46.275975],[22.3341405,46.2752731],[22.3330021,46.2748293],[22.3321284,46.2747923],[22.3309722,46.2751229],[22.3290081,46.2752968],[22.32781,46.275664],[22.327305,46.2759644],[22.326307,46.2767842],[22.325691,46.2770817],[22.3247804,46.2772498],[22.3239396,46.2772517],[22.3229494,46.277],[22.3222362,46.2766468],[22.3215167,46.2764765],[22.3207197,46.2766357],[22.3195152,46.2770263],[22.3182132,46.2783592],[22.3166611,46.2788679],[22.3146496,46.2791036],[22.3133196,46.2791087],[22.3120821,46.2791135],[22.3112676,46.2793039],[22.3102563,46.2801155],[22.3099613,46.2813913],[22.3093853,46.2821452],[22.3076372,46.2825985],[22.3061781,46.2826661],[22.3051749,46.2830626],[22.3048494,46.283295],[22.3046857,46.2836697],[22.3047482,46.2841118],[22.3050569,46.2845396],[22.3060693,46.2851391],[22.307133,46.2854793],[22.3072839,46.2859811],[22.3065338,46.2865317],[22.3062102,46.2869132],[22.3053076,46.2873252],[22.3046452,46.2874479],[22.3042122,46.2874117],[22.3034511,46.2866741],[22.3029864,46.2866949],[22.3026511,46.2868566],[22.3023787,46.2871294],[22.3023473,46.2876023],[22.3025839,46.2882727],[22.302247,46.2895419],[22.3020233,46.2899063],[22.3017439,46.2906375],[22.3013159,46.2912483],[22.3003774,46.2924761],[22.3003954,46.2929908],[22.3003788,46.2933995],[22.3005996,46.2938121],[22.30179,46.2944202],[22.3019497,46.2946522],[22.3017792,46.2950572],[22.3016237,46.2952466],[22.3009383,46.2960813],[22.2996101,46.2968493],[22.2982099,46.2972915],[22.2975554,46.2977519],[22.2964696,46.2978354],[22.2954737,46.2987144],[22.2951509,46.2991853],[22.2926343,46.3012131],[22.2921893,46.302088],[22.2914943,46.3026433],[22.2897513,46.3033825],[22.288016,46.3035236],[22.2876479,46.3036892],[22.2873082,46.3041478],[22.2860428,46.3050143],[22.2854716,46.3051197],[22.2849622,46.3049556],[22.2838393,46.3041065],[22.2832526,46.3035594],[22.2827342,46.3030761],[22.2822734,46.302779],[22.2811733,46.3024426],[22.2801621,46.3024063],[22.2798746,46.302595],[22.2798326,46.3028577],[22.2793362,46.3028577],[22.278872,46.3026445],[22.2784185,46.3025637],[22.2776669,46.3025933],[22.2770515,46.3029298],[22.2770001,46.3032535],[22.2765778,46.3038557],[22.2766111,46.3042357],[22.2766964,46.304405],[22.2775286,46.3048179],[22.2784672,46.3055262],[22.2790072,46.3063362],[22.2795214,46.3064249],[22.2799462,46.3062952],[22.280422,46.3062638],[22.2806855,46.3064329],[22.2808496,46.3067103],[22.2807553,46.3069757],[22.2799556,46.3073086],[22.2795993,46.3082085],[22.278501,46.3088123],[22.2774639,46.3086561],[22.2760186,46.3091297],[22.2751958,46.3094721],[22.2748432,46.3095476],[22.2743789,46.3093736],[22.2740862,46.308652],[22.2736037,46.3085482],[22.2730203,46.3087253],[22.2727567,46.3088689],[22.2725715,46.3091043],[22.2726678,46.3092903],[22.2729073,46.3094796],[22.2727095,46.310373],[22.2724424,46.310803],[22.2710846,46.3109393],[22.2699574,46.3107907],[22.2696325,46.3106885],[22.2695239,46.3105367],[22.2691337,46.3102348],[22.2677215,46.3095586],[22.2671499,46.3087715],[22.2637907,46.3078303],[22.2629587,46.3071793],[22.2623831,46.3065469],[22.2621928,46.3062791],[22.2621687,46.30583],[22.2624629,46.3055243],[22.2628999,46.3049289],[22.2634284,46.3044359],[22.2643552,46.3039659],[22.2645969,46.3036366],[22.2646463,46.3031657],[22.2644373,46.3029591],[22.263802,46.3027805],[22.2592518,46.302866],[22.2588339,46.3031933],[22.2588166,46.30348],[22.2585714,46.3037912],[22.2585746,46.303973],[22.2589302,46.3041777],[22.2590293,46.3044512],[22.2590586,46.3051621],[22.2588833,46.3056022],[22.258648,46.3059503],[22.2580659,46.3063579],[22.2575819,46.3070522],[22.2571499,46.3072809],[22.2559496,46.3075913],[22.2545637,46.3076778],[22.2543157,46.3075351],[22.2542713,46.3074276],[22.2537947,46.3070404],[22.253286,46.3064928],[22.2536254,46.3059381],[22.2547133,46.3053243],[22.2550407,46.3049606],[22.254938,46.3046112],[22.2543558,46.3042944],[22.2537008,46.3040226],[22.2527459,46.3039776],[22.2523007,46.3042546],[22.2520864,46.3045795],[22.2518808,46.3050223],[22.2514808,46.3051554],[22.2510519,46.3051719],[22.2500795,46.3049345],[22.2488805,46.3042999],[22.2477716,46.3035101],[22.246816,46.3034026],[22.2460233,46.3034794],[22.2455784,46.303768],[22.2446269,46.304886],[22.2445166,46.3054189],[22.244555,46.305862],[22.2447672,46.3067791],[22.2444232,46.307168],[22.2437396,46.3073373],[22.2428281,46.3073807],[22.2417422,46.307161],[22.2401716,46.3065696],[22.2396975,46.3062318],[22.239455,46.3058925],[22.2393863,46.3048875],[22.2389813,46.3043791],[22.2385773,46.3040319],[22.2376527,46.303736],[22.2370255,46.3036626],[22.2367481,46.30372],[22.236284,46.3041557],[22.2361587,46.3042734],[22.2355907,46.3045395],[22.2350661,46.3049017],[22.2348178,46.3052372],[22.2347848,46.3057322],[22.2351907,46.3060066],[22.2350919,46.3063802],[22.2344054,46.3064194],[22.23403,46.3066224],[22.2340053,46.3069056],[22.2342103,46.3071001],[22.2345338,46.3072536],[22.2348326,46.3072536],[22.2350746,46.3072144],[22.235287,46.3068323],[22.235529,46.3067606],[22.2359068,46.3068101],[22.2363365,46.306996],[22.2365116,46.30718],[22.2365243,46.3078914],[22.2364004,46.3081274],[22.2359568,46.3082673],[22.2346961,46.308137],[22.2343506,46.3083438],[22.2344324,46.3087377],[22.2341985,46.3090376],[22.2337388,46.3091224],[22.2333042,46.309003],[22.2330968,46.3083053],[22.2329955,46.308104],[22.2326819,46.3079198],[22.232404,46.3074236],[22.2311107,46.3069622],[22.2301959,46.3070289],[22.2294948,46.3075438],[22.2285507,46.3084277],[22.2287707,46.3086424],[22.2287242,46.3088429],[22.2275147,46.3092554],[22.2257441,46.3092578],[22.2242299,46.3089873],[22.2237274,46.3086112],[22.223152,46.3078777],[22.22237,46.3073435],[22.2215938,46.3072926],[22.2211073,46.3074137],[22.220904,46.3076519],[22.2209606,46.3079269],[22.2213024,46.3083229],[22.2213749,46.3085508],[22.2213029,46.3089422],[22.2209722,46.3091179],[22.2204741,46.3091024],[22.2198937,46.3088482],[22.2194037,46.3085339],[22.2185799,46.3083794],[22.217784,46.3085282],[22.2174173,46.30848],[22.2170788,46.3082624],[22.2165826,46.3073123],[22.2160867,46.3069143],[22.2159301,46.3062269],[22.2157514,46.3052906],[22.2160972,46.3048734],[22.2170506,46.3044149],[22.2174417,46.3043642],[22.2179655,46.3039719],[22.2183392,46.3034918],[22.2182783,46.3030992],[22.2178503,46.3028428],[22.2168169,46.3030945],[22.2161009,46.3029546],[22.2154758,46.3027736],[22.2149936,46.3027274],[22.2145957,46.3029136],[22.2144456,46.3034637],[22.2146787,46.304171],[22.2142648,46.3048512],[22.2136431,46.3051021],[22.2135209,46.3054206],[22.2138736,46.305809],[22.2135174,46.3064676],[22.2132035,46.3065828],[22.2125838,46.3064625],[22.2124567,46.3061677],[22.2121892,46.3060765],[22.2116025,46.3061127],[22.2111784,46.3060482],[22.2104469,46.3056645],[22.2094823,46.3058576],[22.2085836,46.3055992],[22.2072991,46.3057446],[22.2069452,46.3062654],[22.2064796,46.3065428],[22.2059179,46.3064515],[22.2052682,46.306046],[22.2048074,46.3059986],[22.2046218,46.3060616],[22.203932,46.3059971],[22.2034493,46.3057983],[22.2030975,46.3053146],[22.2031073,46.3048826],[22.203332,46.3047341],[22.2035796,46.3047071],[22.203801,46.3045699],[22.2038173,46.3042234],[22.203661,46.3040501],[22.2030259,46.3039444],[22.2028305,46.3037464],[22.2027751,46.3034381],[22.2030487,46.3032041],[22.203335,46.3031114],[22.2037522,46.3030849],[22.2041332,46.3032469],[22.2042309,46.3036091],[22.2044557,46.3038679],[22.2049478,46.3039135],[22.2057747,46.3031029],[22.2065315,46.302415],[22.2066732,46.3019157],[22.2065705,46.301686],[22.2056749,46.3014542],[22.2052401,46.3012314],[22.2050122,46.3002554],[22.2048336,46.3000701],[22.2037502,46.3001552],[22.2024573,46.3007041],[22.2018664,46.3011384],[22.2004684,46.3013934],[22.1990715,46.3021796],[22.1984486,46.3033553],[22.1976307,46.3039934],[22.1963432,46.3045152],[22.1957498,46.3053459],[22.1953398,46.3055203],[22.1944701,46.3055829],[22.1936833,46.3056996],[22.1922246,46.3063262],[22.1915061,46.3067385],[22.190204,46.3072332],[22.1895708,46.3073773],[22.188311,46.3070901],[22.187833,46.3070329],[22.1872944,46.3067665],[22.1871605,46.3064341],[22.1872466,46.3061082],[22.1875844,46.3058],[22.187782,46.3052034],[22.1877228,46.3048226],[22.1876185,46.3036125],[22.187978,46.3027087],[22.1886479,46.3018511],[22.1889188,46.3013491],[22.1888892,46.3008442],[22.1886215,46.3005954],[22.1880099,46.3004284],[22.1831338,46.3003922],[22.1806324,46.3001984],[22.1789915,46.3005937],[22.177181,46.3007159],[22.1761293,46.3008898],[22.1753842,46.301272],[22.1748864,46.3015878],[22.174488,46.3019642],[22.1743421,46.3023944],[22.174578,46.3028876],[22.1744986,46.3031469],[22.1737882,46.3033254],[22.1736733,46.3034608],[22.1733706,46.3036383],[22.1724508,46.3035656],[22.1715585,46.3033344],[22.1713641,46.3030813],[22.1717323,46.3025959],[22.171463,46.3020929],[22.1711873,46.3018979],[22.1706806,46.3018803],[22.1693007,46.3023097],[22.168824,46.3026725],[22.1681614,46.3028049],[22.1675147,46.3027317],[22.1666682,46.3029392],[22.1657119,46.3033964],[22.1651766,46.3037246],[22.1650571,46.303983],[22.1648115,46.3040328],[22.1643551,46.3045468],[22.1634394,46.3047064],[22.16313,46.3047936],[22.1624813,46.3049765],[22.1615847,46.3048519],[22.1607712,46.3048535],[22.1602619,46.3049204],[22.1597538,46.3051946],[22.1595858,46.3054124],[22.1592501,46.3055509],[22.1587475,46.3058872],[22.1584771,46.3062297],[22.1579926,46.3070345],[22.1575315,46.3075671],[22.156654,46.3077506],[22.1557909,46.3075825],[22.154245,46.3072182],[22.153652,46.3072327],[22.1532625,46.3074112],[22.1529282,46.307754],[22.153057,46.3082383],[22.1527794,46.3087752],[22.1525654,46.3088001],[22.1521823,46.3090227],[22.1516937,46.3098527],[22.151169,46.3100407],[22.1503893,46.3098585],[22.149403,46.3094954],[22.1491949,46.3091176],[22.1489403,46.3089214],[22.1483205,46.3089074],[22.1479217,46.3091145],[22.1477121,46.309513],[22.1471092,46.3098083],[22.1460428,46.3103917],[22.1452819,46.3113063],[22.1452716,46.3121308],[22.1455818,46.3131718],[22.145781,46.3139709],[22.1461395,46.3154092],[22.1461292,46.3163548],[22.146271,46.3173848],[22.1467331,46.3184237],[22.1469092,46.3190551],[22.1467881,46.3194882],[22.1457895,46.3202143],[22.144802,46.3207384],[22.1438522,46.321074],[22.1421552,46.3211428],[22.1418836,46.321263],[22.1415329,46.3216978],[22.1416047,46.3219076],[22.1417618,46.3220196],[22.14356,46.3222681],[22.144858,46.3231149],[22.1460317,46.3234296],[22.1463859,46.3232927],[22.1464956,46.3229299],[22.1468823,46.3225275],[22.1471944,46.3219858],[22.1477009,46.3217204],[22.1481666,46.3217348],[22.1487852,46.3218969],[22.1492722,46.3224275],[22.1492795,46.3226273],[22.1490365,46.3230336],[22.1490807,46.323745],[22.1488901,46.3240978],[22.1489619,46.3244316],[22.1496109,46.3247005],[22.1503301,46.3246416],[22.1507487,46.3244354],[22.1511216,46.3239033],[22.1517071,46.3238003],[22.1520926,46.3239753],[22.1523958,46.3248137],[22.1522044,46.3257901],[22.1524114,46.3265857],[22.152338,46.3270595],[22.1517717,46.3278588],[22.1519175,46.3283734],[22.1523248,46.3284939],[22.1529569,46.3285077],[22.1535082,46.3282067],[22.1541424,46.3282528],[22.1547952,46.3287771],[22.1552093,46.3293658],[22.1550084,46.3302559],[22.1539071,46.3308718],[22.1534267,46.3308816],[22.1528252,46.3306254],[22.1520141,46.3300003],[22.1503479,46.329897],[22.14973,46.330066],[22.1492108,46.3306495],[22.1492853,46.3309108],[22.1496002,46.3311834],[22.1500614,46.3316678],[22.1505021,46.3319188],[22.1516292,46.3320972],[22.1520636,46.3325812],[22.1520746,46.3329073],[22.1519697,46.3331228],[22.1517709,46.3332696],[22.1517284,46.3334668],[22.1515223,46.3343107],[22.1511759,46.334734],[22.1507455,46.3349706],[22.1476679,46.3357473],[22.1460687,46.335886],[22.1451323,46.3362507],[22.1447423,46.3366179],[22.1446059,46.337159],[22.1447848,46.3385059],[22.1452908,46.3393498],[22.1458652,46.3397942],[22.1458644,46.3401317],[22.1453598,46.3405758],[22.1444098,46.3407245],[22.1433744,46.3419769],[22.143695,46.3428834],[22.1444163,46.3433815],[22.1453791,46.344427],[22.146064,46.344833],[22.1464616,46.3452536],[22.1463154,46.3454526],[22.1461828,46.3455251],[22.1459784,46.3457443],[22.1457603,46.3458358],[22.144923,46.3465071],[22.1443028,46.3467277],[22.1413422,46.3468634],[22.1395807,46.3467987],[22.1386213,46.3468645],[22.1364245,46.3472692],[22.1344944,46.3473268],[22.1337733,46.3475647],[22.1312075,46.3487089],[22.1285067,46.3498332],[22.1276461,46.3500518],[22.1255364,46.3499268],[22.1240245,46.3502393],[22.1234012,46.3505267],[22.1229888,46.3509942],[22.1226976,46.3521283],[22.1227955,46.35238],[22.1226981,46.3530683],[22.1220939,46.3538789],[22.121135,46.3544845],[22.1199044,46.3549741],[22.117937,46.3553671],[22.1165948,46.355754],[22.1150995,46.3560483],[22.1140982,46.3561371],[22.1130294,46.3559751],[22.1125245,46.3559883],[22.1117004,46.3561102],[22.1112597,46.3564126],[22.1110839,46.3567037],[22.1113656,46.3573112],[22.1125915,46.3578681],[22.1127399,46.3581431],[22.1128493,46.3585474],[22.1124146,46.3590441],[22.1123845,46.3595851],[22.1120135,46.3602078],[22.1114768,46.3605964],[22.110791,46.3608088],[22.1100997,46.3607387],[22.1093967,46.3601566],[22.1090563,46.3601557],[22.1081859,46.3609948],[22.1075374,46.3613432],[22.1067631,46.3628852],[22.1066823,46.3637035],[22.1070338,46.3642857],[22.1075103,46.3645364],[22.1077707,46.3648643],[22.1075799,46.3657409],[22.1070547,46.3661063],[22.1061386,46.3661842],[22.1057129,46.3665768],[22.1049328,46.3669118],[22.1045703,46.3672206],[22.1043122,46.3680871],[22.1045548,46.3686014],[22.1049964,46.3687571],[22.1048203,46.3691709],[22.1043143,46.3694155],[22.1032615,46.3691873],[22.1030123,46.36895],[22.1032541,46.3684544],[22.1030474,46.3677511],[22.1023685,46.3672707],[22.1019526,46.3671244],[22.1011483,46.3669869],[22.1006962,46.3671172],[22.1002891,46.3674102],[22.1001797,46.3679147],[22.0999782,46.3680556],[22.099873,46.3682857],[22.0999677,46.3687482],[22.0997695,46.3697768],[22.0992162,46.3703144],[22.0986055,46.3707188],[22.0986827,46.3711353],[22.0994637,46.3719006],[22.100343,46.3720541],[22.1008198,46.3719427],[22.1017702,46.3710438],[22.1022338,46.3709967],[22.1025842,46.3713896],[22.1025668,46.3717424],[22.1027886,46.372192],[22.1025942,46.3726733],[22.1008705,46.3733683],[22.1007032,46.3736732],[22.1007255,46.3740054],[22.1011678,46.3741843],[22.1019855,46.3741455],[22.1027365,46.3742884],[22.103105,46.3746661],[22.1030489,46.3754385],[22.1031924,46.3758027],[22.1036525,46.3760778],[22.1049311,46.3761679],[22.1053126,46.3763577],[22.1053078,46.3765941],[22.1052185,46.376743],[22.1048934,46.3768064],[22.1045488,46.3777452],[22.1041214,46.3784856],[22.103524,46.3789036],[22.1030537,46.3790392],[22.1026817,46.3790259],[22.1023834,46.378906],[22.1021167,46.3785937],[22.1008254,46.378045],[22.1000244,46.3779247],[22.0994504,46.3783133],[22.0991616,46.3791748],[22.09922,46.3800556],[22.0997493,46.3807388],[22.0999209,46.3814372],[22.1000461,46.3818962],[22.0998304,46.382159],[22.0986067,46.3828946],[22.0972089,46.3838671],[22.0966332,46.3843845],[22.0957857,46.3844396],[22.0932363,46.3838624],[22.0909753,46.3837693],[22.0897042,46.3837017],[22.0886237,46.3837353],[22.0879979,46.3839769],[22.0873458,46.3842652],[22.0867755,46.3848286],[22.0865748,46.385206],[22.086453,46.3856957],[22.086799,46.3864287],[22.0871392,46.3869676],[22.0870363,46.3874031],[22.0867696,46.3877194],[22.0859001,46.387914],[22.0852425,46.3879709],[22.0833751,46.3884417],[22.0819084,46.3883749],[22.0812847,46.3883524],[22.0808421,46.3880676],[22.0806075,46.387664],[22.0807519,46.3870888],[22.0805394,46.3866243],[22.0802245,46.3863273],[22.0798949,46.3856287],[22.078818,46.3853008],[22.0773901,46.3850957],[22.0762692,46.3852533],[22.0751328,46.3850266],[22.0716847,46.3862051],[22.0705534,46.3867593],[22.0685373,46.3878488],[22.0681061,46.3881909],[22.0674994,46.3890576],[22.0672789,46.389724],[22.0674714,46.3904593],[22.0678626,46.3909123],[22.0687509,46.3910361],[22.0692048,46.3910552],[22.0700466,46.3916799],[22.0704179,46.3921982],[22.0709643,46.3926427],[22.0709447,46.3931027],[22.0706849,46.3937051],[22.0702325,46.3941757],[22.0698354,46.3942602],[22.0690751,46.3942254],[22.0685256,46.3943401],[22.06779,46.3943875],[22.0663459,46.3941322],[22.0659986,46.3942367],[22.0650183,46.3949085],[22.0637887,46.3950662],[22.0632957,46.395269],[22.0626016,46.3957534],[22.0624044,46.3961545],[22.0621375,46.3966433],[22.0619238,46.3979563],[22.0616006,46.3984669],[22.0611491,46.3988028],[22.0605678,46.3988969],[22.0594711,46.3987618],[22.0580544,46.3987311],[22.0569762,46.3988028],[22.0559846,46.3990427],[22.0551887,46.3993393],[22.053926,46.3997368],[22.0524967,46.3998206],[22.0514223,46.399618],[22.0501499,46.3990051],[22.0491591,46.398983],[22.04858,46.3991824],[22.0482859,46.3995176],[22.0481916,46.4000585],[22.047983,46.4005274],[22.0472731,46.4010169],[22.0461524,46.4015607],[22.0453367,46.4016866],[22.0445421,46.4016565],[22.0433894,46.4014643],[22.0422143,46.4011334],[22.041604,46.4011565],[22.0410756,46.4012714],[22.0403337,46.4020365],[22.0401935,46.4025199],[22.0404305,46.4029001],[22.0402139,46.404025],[22.0404444,46.4045438],[22.0410756,46.405018],[22.0411113,46.4057114],[22.0407822,46.4061928],[22.0400984,46.4064039],[22.0393688,46.4062934],[22.0382174,46.4057342],[22.0375537,46.4052606],[22.0369712,46.4044744],[22.0369054,46.4038154],[22.0364247,46.4032867],[22.0357512,46.4029958],[22.034686,46.4031804],[22.0338736,46.4037826],[22.0337805,46.4041941],[22.033904,46.4047898],[22.0337371,46.4051541],[22.033182,46.4053525],[22.0324838,46.4054176],[22.0317429,46.405742],[22.0314796,46.4061436],[22.0314939,46.4065422],[22.0314483,46.4069119],[22.0316777,46.4073016],[22.0320239,46.4074042],[22.0323243,46.4072325],[22.0326819,46.407343],[22.0328879,46.4075344],[22.0336026,46.4077188],[22.0348958,46.4089655],[22.0352284,46.4097893],[22.0349702,46.411098],[22.034742,46.4117501],[22.0336942,46.4125162],[22.031105,46.4132717],[22.0303272,46.4135117],[22.0295862,46.413492],[22.0286102,46.4131889],[22.0267995,46.4123597],[22.0258353,46.4121802],[22.0249337,46.4122717],[22.0240296,46.4128161],[22.0235118,46.4134827],[22.0231658,46.4141173],[22.0226193,46.4145138],[22.0212116,46.4149601],[22.0183562,46.4153784],[22.0174836,46.4157847],[22.0170659,46.4161845],[22.0168112,46.4166742],[22.0167511,46.4170564],[22.0159014,46.4175672],[22.0150375,46.4178143],[22.0142648,46.4177802],[22.0129458,46.4175574],[22.0122248,46.4176422],[22.0109874,46.4184217],[22.0101731,46.4191592],[22.0086436,46.4196408],[22.0077676,46.4192628],[22.0073979,46.4192363],[22.0067884,46.4196529],[22.0055575,46.4205831],[22.0043401,46.4210558],[22.0031009,46.4217593],[22.0020482,46.4220426],[22.0012127,46.4221353],[21.9999913,46.4219107],[21.9987922,46.4212656],[21.9978108,46.4209026],[21.9968238,46.4204135],[21.9960374,46.420252],[21.9952763,46.4204138],[21.9949154,46.4206147],[21.9946522,46.4208553],[21.9944977,46.4214352],[21.9947213,46.4220764],[21.9951843,46.4223996],[21.995654,46.4226819],[21.995768,46.4231037],[21.9956507,46.4234844],[21.9953136,46.4238435],[21.9942344,46.4243265],[21.9933503,46.4243502],[21.9928101,46.4244332],[21.991771,46.4243758],[21.9906214,46.4240565],[21.9898769,46.4237033],[21.9896773,46.4234688],[21.9898941,46.4230722],[21.9900962,46.4223248],[21.9905402,46.4219617],[21.990654,46.4216243],[21.9901265,46.4204552],[21.9894862,46.4197326],[21.9884271,46.4188952],[21.9878582,46.418845],[21.9875173,46.4190253],[21.9872826,46.4197728],[21.9873775,46.4209614],[21.9870509,46.421394],[21.9862527,46.4218161],[21.9845993,46.4220876],[21.9839486,46.4224511],[21.9835379,46.42277],[21.983217,46.4231304],[21.9828569,46.4237747],[21.9828222,46.4242557],[21.9831032,46.424646],[21.9837664,46.4250465],[21.9836442,46.4257388],[21.9830005,46.4260251],[21.9822034,46.4261924],[21.9810386,46.4262117],[21.9798687,46.4262064],[21.9792485,46.4256998],[21.9792213,46.4250182],[21.9795248,46.4245999],[21.9796637,46.4239638],[21.9785102,46.4230282],[21.9776175,46.4228487],[21.9770945,46.4229481],[21.9756416,46.4224808],[21.9752807,46.4224945],[21.9748977,46.4227195],[21.9745973,46.4234315],[21.9744538,46.4242222],[21.9744999,46.4247938],[21.9749377,46.4255965],[21.9748286,46.4260917],[21.9743511,46.426334],[21.9730291,46.4263717],[21.9722117,46.425932],[21.9712879,46.4260152],[21.9692969,46.4267344],[21.9688821,46.4270658],[21.9688744,46.42742],[21.9699018,46.4279053],[21.970139,46.4286012],[21.9686431,46.4308895],[21.9681819,46.4313595],[21.9675359,46.4315245],[21.9658157,46.4310262],[21.9649288,46.4305726],[21.9642179,46.4303885],[21.963886,46.430142],[21.9635018,46.430083]],[[22.376065,46.2766786],[22.3754468,46.2766238],[22.3752992,46.2759207],[22.3750174,46.2755125],[22.3752563,46.2747843],[22.3756731,46.2744008],[22.3765768,46.2742602],[22.3771851,46.2739629],[22.3777713,46.2734327],[22.3782571,46.2731006],[22.3784584,46.2728483],[22.3784423,46.272468],[22.3779522,46.2719567],[22.3769105,46.2715356],[22.3755842,46.2706557],[22.3747006,46.2698815],[22.3743011,46.2691469],[22.3742655,46.2684875],[22.3739087,46.268128],[22.3732171,46.2677839],[22.3724233,46.2676613],[22.3716311,46.2677351],[22.37018,46.2686753],[22.3692922,46.2690455],[22.3681187,46.2690979],[22.3671475,46.2688198],[22.366235,46.2682073],[22.3647964,46.2673125],[22.3642461,46.2670857],[22.3632504,46.2670751],[22.3620443,46.2672417],[22.3588867,46.2672697],[22.3560667,46.2674067],[22.3543988,46.267318],[22.3538366,46.2673136],[22.3522952,46.2673017],[22.3517826,46.2674772],[22.3504526,46.2688817],[22.3502912,46.2691708],[22.3498688,46.2699276],[22.3495588,46.2717975],[22.3490453,46.2726856],[22.3486749,46.2737561],[22.3480123,46.275046],[22.3479039,46.275913],[22.3476329,46.2763045],[22.3450647,46.2767031],[22.343254,46.2770057],[22.3426302,46.2772652],[22.3408349,46.2777994]],[[22.5032094,46.2847317],[22.5020881,46.2843252],[22.5012742,46.2837729],[22.5011692,46.282915],[22.4999491,46.2822521],[22.4987136,46.2819664],[22.4978907,46.2813837],[22.497563,46.2809467],[22.4971304,46.2800279],[22.4966021,46.2778133],[22.4949887,46.2766847],[22.4940531,46.2759345],[22.4938798,46.2756734],[22.4936797,46.2754888],[22.4924618,46.2753958],[22.492236,46.2753402],[22.4920536,46.2751032],[22.4916694,46.2748511],[22.4913984,46.2745778],[22.4910651,46.2739142],[22.4907533,46.2736028],[22.4897678,46.2732972],[22.4889087,46.273116],[22.4882779,46.2732158],[22.4871052,46.2736171],[22.485442,46.2739614],[22.484189,46.274048],[22.4833882,46.2739874],[22.4827036,46.2740002],[22.4807772,46.2737763],[22.4804226,46.2738803],[22.4794896,46.2744386],[22.4783317,46.2747174],[22.4773725,46.2750458],[22.4759592,46.2755996],[22.47563,46.2757971],[22.4755508,46.2760537],[22.4756339,46.2775294],[22.4757931,46.278501],[22.4762014,46.279685],[22.476399,46.2806566],[22.4762782,46.281026],[22.475876,46.2812403],[22.4749703,46.281514],[22.4740859,46.281943],[22.4721573,46.2826243],[22.471194,46.2828359],[22.470408,46.282889],[22.4695281,46.2832381],[22.4682835,46.2836464],[22.4671074,46.2842019],[22.4663332,46.2844007],[22.465842,46.2843583],[22.4653017,46.2841482],[22.4647506,46.2837241],[22.4631861,46.2820239],[22.4626675,46.2810165],[22.4623236,46.2808319],[22.4619894,46.2807478],[22.4615315,46.2808255],[22.4611174,46.2807817],[22.4599533,46.2799283],[22.4587899,46.2795057],[22.4581735,46.2790771],[22.4578783,46.278639],[22.4551296,46.2764975],[22.4537265,46.2754726],[22.4533796,46.2753644],[22.4530384,46.2753837],[22.4508639,46.2761913],[22.4490965,46.2772536],[22.4485756,46.2780815],[22.4483253,46.278627],[22.4477283,46.2791726],[22.4470558,46.2794417],[22.444777,46.2793676],[22.4438383,46.2798151],[22.4436091,46.280283],[22.4436799,46.280756],[22.44399,46.2812271],[22.4432145,46.2824399],[22.4425869,46.2828439],[22.439698,46.2836858],[22.4387387,46.2848045],[22.4384115,46.2849741],[22.4381935,46.2851926],[22.4377216,46.285327],[22.4358479,46.2864147],[22.4350351,46.2869234],[22.4346721,46.287518],[22.4346997,46.2881608],[22.4346935,46.2884111],[22.4349975,46.2887803],[22.4353392,46.2889821],[22.4358418,46.2889394],[22.4366891,46.288653],[22.4375242,46.2884642],[22.4383739,46.2887444],[22.4386521,46.2893434],[22.4394768,46.2899747],[22.4396611,46.2906402],[22.4382403,46.2912541],[22.43734,46.2915361],[22.4363867,46.2921501],[22.4360338,46.2923774],[22.4339778,46.2929863],[22.4325162,46.2930713],[22.4313388,46.2934086],[22.4294983,46.2930947],[22.4270544,46.2922312],[22.4260691,46.2916597],[22.4235374,46.2913197],[22.4229769,46.2914089],[22.4214118,46.2921499],[22.4204935,46.2923331],[22.4192992,46.292401],[22.4181718,46.292258],[22.4144576,46.2914569],[22.4115053,46.2906703],[22.4098647,46.2905786],[22.4086738,46.2906934],[22.4073594,46.2913339],[22.4068172,46.2915447],[22.4059717,46.2913827],[22.4047928,46.2908205],[22.4041788,46.2900143],[22.404178,46.2894077],[22.4038078,46.2888744],[22.4034542,46.2886778],[22.4020165,46.2884604],[22.4004823,46.2885123],[22.3992605,46.288717],[22.3977018,46.2892967],[22.3969487,46.2894066],[22.3966079,46.2893302],[22.3961723,46.2891034],[22.3953215,46.2888104],[22.3949561,46.2885686],[22.3947996,46.2881952],[22.3950452,46.2879809],[22.3955732,46.2878748],[22.3954443,46.287198],[22.3940314,46.285669],[22.3933599,46.2854375],[22.3929214,46.285398],[22.3925521,46.2853647],[22.3916181,46.2851055],[22.3909383,46.2850437],[22.3893514,46.2853908],[22.3863749,46.2856285],[22.3848168,46.2854926],[22.382156,46.2849498],[22.3810015,46.2845496],[22.3800897,46.2837485],[22.3796769,46.2828277],[22.3797395,46.2819155],[22.3792925,46.2809793],[22.3786295,46.2808253],[22.3780283,46.2808995],[22.3774829,46.2807843],[22.377164,46.2804172],[22.3773894,46.2799868],[22.3778304,46.2795693],[22.3777384,46.279076],[22.3774959,46.2786357],[22.3770866,46.2784851],[22.3771107,46.2781883],[22.377363,46.2779675],[22.3774838,46.2777913],[22.3775002,46.2773566],[22.3773848,46.2771767],[22.376065,46.2766786]],[[21.6916901,46.4238409],[21.6905189,46.4250051],[21.6901118,46.4255696],[21.6899806,46.4262822],[21.6903997,46.4269033],[21.6904085,46.4271517],[21.6898391,46.4275468],[21.6891992,46.4278327],[21.6882961,46.42787],[21.6869363,46.428136],[21.6859557,46.4285544],[21.684568,46.4293383],[21.6842566,46.429607],[21.6837353,46.4297731],[21.6832576,46.4296624],[21.6826063,46.4290509],[21.6817811,46.4287746],[21.6811203,46.4287069],[21.6799215,46.4289946],[21.6782867,46.4292738],[21.6774534,46.4292889],[21.6766677,46.429497],[21.6753236,46.4295381],[21.6739373,46.4292442],[21.6728913,46.4290979],[21.6711888,46.4291992],[21.6702942,46.4295892],[21.6697467,46.4302122],[21.669083,46.4308176],[21.6685731,46.4312431],[21.6680229,46.4313822],[21.6673166,46.4313783],[21.6668677,46.4315338],[21.6664859,46.4319025],[21.6662613,46.4331257],[21.6658071,46.433476],[21.6655317,46.4335505],[21.6652536,46.43357],[21.6649801,46.433258],[21.6643719,46.4330491],[21.6637761,46.4330749],[21.6630604,46.4335317],[21.6620008,46.4336695],[21.6609763,46.4337006],[21.659489,46.4338278],[21.6586481,46.4337283],[21.6579877,46.4334733],[21.6572143,46.4326993],[21.6566142,46.4323393],[21.656265,46.4322417],[21.6557289,46.4322996],[21.652471,46.4319965],[21.6511608,46.4319665],[21.6504717,46.4317954],[21.6499357,46.4319301],[21.6493732,46.43236],[21.6473538,46.4326908],[21.6458931,46.432529],[21.6436496,46.4320625],[21.642527,46.4320507],[21.641692,46.4323385],[21.6414457,46.4326599],[21.6414667,46.433039],[21.6415924,46.4333135],[21.641481,46.4337159],[21.6410004,46.434292],[21.6403515,46.4345275],[21.6395124,46.434505],[21.638602,46.4342801],[21.6378306,46.4343137],[21.6370133,46.4346784],[21.6353263,46.4348083],[21.6346568,46.4349709],[21.6339803,46.4353342],[21.6327276,46.4354402],[21.6313536,46.4353297],[21.6306035,46.4350776],[21.6300084,46.4346386],[21.628684,46.434089],[21.627513,46.4337997],[21.6268967,46.4337594],[21.6263951,46.4336338],[21.6251089,46.4328074],[21.6244755,46.432606],[21.6234061,46.4325309],[21.6231856,46.4323225],[21.6225847,46.4311545],[21.6219552,46.4307562],[21.621894,46.4307175],[21.6213507,46.4306448],[21.620791,46.4306266],[21.6198491,46.4308317],[21.6192206,46.4312377],[21.6187172,46.4314656],[21.6182932,46.43179],[21.6158992,46.4323473],[21.6151369,46.4324909],[21.6146673,46.4327991],[21.6142458,46.4332476],[21.613217,46.4337573],[21.6115979,46.434218],[21.6107172,46.4345174],[21.6098623,46.4351475],[21.6093191,46.435975],[21.6090149,46.4369459],[21.6087333,46.4377313],[21.6078138,46.4386256],[21.6077703,46.4390606],[21.6079431,46.4393919],[21.6084052,46.4399279],[21.6085123,46.4401454],[21.6084052,46.4407019],[21.6079431,46.4412837],[21.6068799,46.4418566],[21.6065643,46.4423795],[21.606085,46.4426173],[21.6056289,46.4425348],[21.6047868,46.4418602],[21.6041641,46.441611],[21.6036494,46.4415748],[21.6031197,46.4416265],[21.6022857,46.4414971],[21.6014493,46.4414111],[21.6007567,46.4415178],[21.6001109,46.4418049],[21.5993557,46.4425038],[21.598532,46.4432018],[21.5973897,46.4438626],[21.5967899,46.4444212],[21.5959207,46.4449024],[21.595153,46.4449957],[21.5940417,46.4448605],[21.5935981,46.4449753],[21.5934023,46.4453948],[21.5933014,46.4457718],[21.5933917,46.4460647],[21.5934022,46.4464814],[21.5931261,46.4473698],[21.5926489,46.4480585],[21.5922569,46.4483929],[21.5916858,46.4486362],[21.5909795,46.4487345],[21.5902094,46.4487084],[21.5892569,46.4485563],[21.5887309,46.448634],[21.5883884,46.4488295],[21.5880885,46.449074],[21.5878218,46.4496409],[21.5881186,46.4501146],[21.5881486,46.4505857],[21.5880389,46.4509375],[21.5878143,46.4511706],[21.5862061,46.451814],[21.5854813,46.4522784],[21.5850509,46.4527474],[21.5844406,46.4532827],[21.5839372,46.4541032],[21.5838545,46.4551795],[21.5836916,46.4557569],[21.5833846,46.4563544],[21.5831775,46.4566331],[21.5828578,46.4572419],[21.5827595,46.4578055],[21.5826892,46.4587093],[21.582405,46.4592224],[21.5820486,46.459654],[21.5817021,46.4600459],[21.581455,46.460454],[21.5804275,46.4614808],[21.5798557,46.461785],[21.5789434,46.4619712],[21.5784926,46.4619065],[21.5782709,46.4617435],[21.5780466,46.4614336],[21.5776285,46.4613605],[21.5769898,46.4615313],[21.5765479,46.4618452],[21.5760694,46.4630529],[21.5756449,46.4635395],[21.5751188,46.463676],[21.5745342,46.4637503],[21.5741721,46.4636993],[21.5736618,46.4634758],[21.5731202,46.4634619],[21.572579,46.4637613],[21.5721122,46.4642153],[21.5713619,46.4646628],[21.5713206,46.4650328],[21.5718241,46.465512],[21.571857,46.4658501],[21.5715632,46.4660435],[21.570635,46.4662197],[21.5701161,46.46641],[21.5695221,46.4670723],[21.5688048,46.4670918],[21.568076,46.4666959],[21.5674861,46.4665691],[21.5670314,46.4665894],[21.5662067,46.4668935],[21.5654682,46.4673308],[21.5645783,46.4677864],[21.5641132,46.4680701],[21.5636486,46.468642],[21.563244,46.4690713],[21.562966,46.4695702],[21.5628528,46.4705688],[21.5625685,46.4708926],[21.562335,46.4712158],[21.5619073,46.47154],[21.5615888,46.4719105],[21.5611795,46.4722593],[21.560908,46.4725877],[21.5599855,46.4730149],[21.5597092,46.4730094],[21.5594269,46.4730982],[21.5588615,46.4732962],[21.5582642,46.4738188],[21.5580489,46.4744694],[21.5580726,46.4749236],[21.5582341,46.4755238],[21.5585948,46.4759352],[21.5591207,46.4761189],[21.5594175,46.4762612],[21.5595096,46.4765305],[21.5593349,46.4769959],[21.5593428,46.4778473],[21.5587563,46.4793528],[21.5583793,46.4798561],[21.5576123,46.4805066],[21.5570507,46.4810628],[21.5568591,46.4815414],[21.5570139,46.4819363],[21.5577497,46.4823168],[21.5578551,46.4826571],[21.557091,46.4834934],[21.5562043,46.4842307],[21.555607,46.4846523],[21.5548327,46.4850553],[21.5534795,46.4863502],[21.5531264,46.486852],[21.5526192,46.4874211],[21.552265,46.4879722],[21.5515039,46.4886734],[21.5509873,46.4890595],[21.5502271,46.4894293],[21.5495639,46.4898508],[21.5488709,46.4906294],[21.5484458,46.491007],[21.5482587,46.4914402],[21.5482374,46.4919612],[21.5480399,46.4923741],[21.5470206,46.4932005],[21.5464169,46.493584],[21.5460727,46.4939419],[21.5454543,46.49434],[21.5446389,46.4945587],[21.5438481,46.4946276],[21.5432951,46.494538],[21.5428141,46.4943538],[21.5422038,46.4939026],[21.5407417,46.4936151],[21.5386457,46.4934618],[21.5378507,46.4935632],[21.5370898,46.493869],[21.5352953,46.4950597],[21.534692,46.4956895],[21.5336173,46.4963684],[21.5331046,46.4965877],[21.5322376,46.4972435],[21.5313921,46.498421],[21.5307196,46.4995479]],[[21.9635018,46.430083],[21.9621128,46.4302672],[21.9598411,46.430636],[21.9584836,46.4306706],[21.955468,46.4303985],[21.9537354,46.4298689],[21.9517217,46.4292143],[21.9498403,46.4290581],[21.948965,46.4291557],[21.948448,46.4299478],[21.9483785,46.4303847],[21.947886,46.4308706],[21.9474953,46.4308687],[21.947117,46.4308123],[21.9465504,46.430262],[21.9447086,46.4296522],[21.9427705,46.4292484],[21.9416501,46.4293496],[21.9406659,46.4297444],[21.939748,46.4301801],[21.939178,46.4300661],[21.9386257,46.429886],[21.9378585,46.4291108],[21.9371558,46.4289389],[21.9358294,46.4294318],[21.934561,46.4297351],[21.9337075,46.4296539],[21.93274,46.4294215],[21.9311275,46.4295431],[21.9293102,46.4298117],[21.9288376,46.4301311],[21.9284824,46.4305579],[21.927957,46.4321728],[21.9273091,46.4327183],[21.9266324,46.4329329],[21.9246104,46.4332542],[21.9238217,46.4334989],[21.9230904,46.4338233],[21.9224878,46.4338803],[21.922005,46.4338384],[21.9215272,46.4337425],[21.9212934,46.4334315],[21.9211666,46.4330122],[21.9212646,46.4324864],[21.9214709,46.432096],[21.9215449,46.4318361],[21.9212366,46.4311665],[21.9211736,46.4299557],[21.9212484,46.4289207],[21.9210328,46.4286198],[21.9198706,46.4279789],[21.9192989,46.4278128],[21.918855,46.4278785],[21.9185466,46.4280795],[21.9183402,46.4285751],[21.918152,46.4292976],[21.9181363,46.4299221],[21.9179524,46.430353],[21.9178814,46.4307587],[21.9179395,46.4310744],[21.9186747,46.4316535],[21.9179601,46.4332913],[21.9173625,46.4337887],[21.9162352,46.4340825],[21.915726,46.4341752],[21.9152564,46.4342121],[21.9142239,46.433909],[21.9134682,46.4336461],[21.9124843,46.4328363],[21.9122296,46.4324813],[21.9119033,46.4321949],[21.9118062,46.4316432],[21.9119121,46.431024],[21.9118289,46.4307416],[21.9115086,46.4304817],[21.9107445,46.4302033],[21.9096575,46.4301504],[21.9092111,46.4300578],[21.9088449,46.4301406],[21.9086647,46.4302688],[21.9078749,46.4304182],[21.9071111,46.4308071],[21.9068507,46.4311226],[21.9068278,46.4314989],[21.9073514,46.4324024],[21.9072541,46.4327037],[21.9068307,46.432852],[21.9057406,46.4329304],[21.9049481,46.4331833],[21.9044102,46.4337512],[21.9038665,46.4338616],[21.9030913,46.4338473],[21.9016808,46.4334412],[21.9002243,46.4330098],[21.8989311,46.4329309],[21.8983334,46.4327904],[21.8975377,46.4321047],[21.8974319,46.4315367],[21.8972977,46.431349],[21.8962735,46.4313056],[21.8952768,46.4315603],[21.8927902,46.4321515],[21.891892,46.4320567],[21.8913619,46.4318894],[21.8907031,46.4313619],[21.8904157,46.4309706],[21.8878599,46.4300368],[21.8866032,46.4299371],[21.8854005,46.43027],[21.8848511,46.4305481],[21.8846005,46.4308383],[21.8843592,46.431532],[21.8837324,46.4318654],[21.8829672,46.432136],[21.8823236,46.4325215],[21.8810359,46.4337213],[21.8801814,46.434052],[21.879101,46.434066],[21.8774275,46.4338942],[21.8739287,46.4327436],[21.8727863,46.4319791],[21.8714592,46.4317538],[21.8704859,46.432061],[21.8699307,46.4321638],[21.8690241,46.4321539],[21.8684865,46.4324411],[21.8672326,46.4327253],[21.8658075,46.4327595],[21.8632211,46.4321969],[21.8611099,46.4319924],[21.8603642,46.4318345],[21.8597741,46.4315924],[21.8592485,46.4311892],[21.858419,46.4298933],[21.8575934,46.429332],[21.8554736,46.4288206],[21.8534287,46.4287906],[21.851697,46.4291592],[21.8507532,46.4291899],[21.8499702,46.4291037],[21.8493849,46.4288613],[21.8485024,46.4281289],[21.8478483,46.4278921],[21.84696,46.4272923],[21.8465899,46.4269097],[21.8459492,46.4263786],[21.8452307,46.4260685],[21.8444413,46.4259465],[21.8437202,46.42592],[21.8424615,46.426414],[21.8417663,46.426799],[21.8411792,46.4270547],[21.8408548,46.4271147],[21.8405398,46.4271361],[21.8397665,46.4269838],[21.839423,46.4269772],[21.8389491,46.4270028],[21.8381766,46.4270619],[21.8365387,46.4272805],[21.8342584,46.427647],[21.832968,46.4279699],[21.8322484,46.4282767],[21.832125,46.4283268],[21.8319642,46.428338],[21.831496,46.4283106],[21.8310707,46.4282478],[21.8307191,46.428132],[21.8297144,46.4273833],[21.8293124,46.4272415],[21.8287801,46.4270804],[21.82806,46.4270208],[21.8273996,46.4270637],[21.826401,46.4276074],[21.8240137,46.4282678],[21.8230035,46.4286402],[21.8223467,46.4288001],[21.8218988,46.4287639],[21.8214763,46.428663],[21.8208933,46.4281158],[21.8205547,46.4274291],[21.8200899,46.4269841],[21.8193089,46.4266455],[21.8176139,46.4265766],[21.816044,46.4261294],[21.8140596,46.4256015],[21.8122736,46.4249116],[21.8118241,46.4248539],[21.8110287,46.4248292],[21.8105809,46.4249661],[21.8087061,46.4259675],[21.8071622,46.4265926],[21.8062949,46.4271074],[21.8057125,46.4272848],[21.8040416,46.4273248],[21.8028625,46.4271226],[21.80223,46.4271858],[21.8017056,46.4273516],[21.8003989,46.4282062],[21.7995789,46.4286588],[21.7979107,46.4292626],[21.7966376,46.4295001],[21.7954886,46.4294549],[21.7936466,46.4289771],[21.7926379,46.428912],[21.7908379,46.4290437],[21.7898575,46.4293597],[21.7893283,46.4296327],[21.7880002,46.4306493],[21.7871207,46.4310633],[21.7852457,46.4315063],[21.7822766,46.4316104],[21.7806627,46.4321097],[21.7795884,46.432294],[21.7785611,46.4323153],[21.7772202,46.4322615],[21.7748076,46.4324006],[21.7731964,46.4328515],[21.7720206,46.4331472],[21.7710948,46.433059],[21.7700287,46.4327982],[21.76914,46.4324817],[21.7686507,46.4321435],[21.7681952,46.4317151],[21.7676675,46.4314449],[21.7671387,46.4312961],[21.7656404,46.4313688],[21.7642899,46.4312755],[21.7626793,46.4314146],[21.7612531,46.4313469],[21.7600233,46.4311086],[21.7588188,46.4305683],[21.7578279,46.4303133],[21.7567146,46.4301885],[21.7553056,46.4300143],[21.7538466,46.4299225],[21.7495967,46.4290502],[21.7478072,46.428679],[21.7459819,46.4281262],[21.7440568,46.4274836],[21.7428418,46.4272273],[21.7417334,46.4270667],[21.7411031,46.4271108],[21.7406011,46.4272761],[21.740078,46.4276066],[21.7395191,46.4285488],[21.7389696,46.4289545],[21.7384609,46.4290072],[21.738019,46.4289901],[21.7368069,46.4286662],[21.7355832,46.4281297],[21.7349269,46.4280536],[21.7334925,46.4282626],[21.7327399,46.4281778],[21.7310969,46.4275603],[21.7303928,46.4270991],[21.7297641,46.4270728],[21.7285889,46.4272604],[21.7276001,46.427026],[21.7267242,46.4265798],[21.7261824,46.4261269],[21.7260377,46.4254718],[21.7260144,46.4248616],[21.7262486,46.4243503],[21.7267516,46.4238097],[21.7268109,46.423276],[21.7265772,46.4228385],[21.7254892,46.4219309],[21.7253559,46.4214579],[21.7251891,46.4208659],[21.7251089,46.4199544],[21.7249134,46.4195438],[21.7238156,46.4191168],[21.7220631,46.4188795],[21.72016,46.4181881],[21.7189759,46.4179874],[21.7181929,46.4179434],[21.7173701,46.4181029],[21.7161886,46.4180793],[21.7150459,46.4187091],[21.7143217,46.4196083],[21.7138493,46.4205685],[21.7127222,46.4214524],[21.7121587,46.4222081],[21.7116478,46.4223999],[21.7110773,46.4224357],[21.7105533,46.4223986],[21.7097069,46.4221692],[21.7088614,46.4216209],[21.7075588,46.4211326],[21.7061974,46.4208188],[21.7031075,46.4204638],[21.7016254,46.4202368],[21.7008264,46.4200219],[21.7002816,46.4197111],[21.6997503,46.4190895],[21.6992264,46.418638],[21.698532,46.4184005],[21.697838,46.4183852],[21.696954,46.4185929],[21.6962479,46.4191581],[21.695945,46.4196047],[21.696109,46.420099],[21.6967037,46.4208882],[21.696789,46.4214329],[21.6967587,46.4218886],[21.6962411,46.4225974],[21.6956778,46.4229582],[21.6940264,46.423241],[21.6928038,46.4232844],[21.6922459,46.4234264],[21.6916901,46.4238409]],[[21.5307196,46.4995479],[21.5305213,46.5003245],[21.5305171,46.501031],[21.5308614,46.5019253],[21.531631,46.502809],[21.5321581,46.5032363],[21.5326201,46.5037783],[21.5325535,46.5042927],[21.5317543,46.5051413],[21.5311713,46.5060594],[21.5303555,46.5072043],[21.529257,46.5081012],[21.527839,46.508897],[21.5263872,46.5099116],[21.5241799,46.5113718],[21.5231316,46.5119039],[21.5219324,46.5127485],[21.5204438,46.5136713],[21.5198331,46.5141743],[21.5193767,46.514626],[21.5187871,46.5152095],[21.518173,46.5156485],[21.5169829,46.5167979],[21.5161955,46.5172751],[21.5148929,46.5174181],[21.5135941,46.5173443],[21.5124746,46.5175131],[21.5119373,46.5177596],[21.511705,46.5180041],[21.5110055,46.5190286],[21.5105124,46.5194721],[21.5089222,46.5205921],[21.5084748,46.5211435],[21.5083493,46.5216804],[21.5085388,46.5235507],[21.5083797,46.5239562],[21.5078508,46.5245363],[21.5074368,46.5251877],[21.5073207,46.5260962],[21.5075527,46.5269796],[21.5075452,46.5276474],[21.5073094,46.5282197],[21.5063835,46.5292409],[21.5058445,46.5295648],[21.5020891,46.5307894],[21.4998417,46.5314512],[21.4983073,46.531957],[21.4966855,46.5324556],[21.4961032,46.5327546],[21.4953375,46.5329374],[21.4941633,46.5335367]],[[21.4941633,46.5335367],[21.4923871,46.5350496],[21.4915185,46.5353835],[21.490782,46.5353991],[21.4900323,46.535347],[21.4890938,46.534854],[21.4883735,46.5346046],[21.4876796,46.5345854],[21.4868143,46.5348215],[21.4861248,46.5347129],[21.4848943,46.5341239],[21.4842625,46.5336155],[21.483594,46.5332342],[21.4829679,46.53313],[21.4823799,46.5331736],[21.4808185,46.5335663],[21.4796301,46.5336512],[21.4787382,46.5336021],[21.477125,46.5337834],[21.4752816,46.5341171],[21.4747356,46.5343875],[21.4742913,46.5346769],[21.4738691,46.5356605],[21.472586,46.5367667],[21.4719761,46.5371396],[21.4714605,46.5373143],[21.4698076,46.5370853],[21.4689613,46.537137],[21.4640158,46.5366806],[21.462261,46.5367858],[21.4612601,46.5370327],[21.4602821,46.5371477],[21.4583848,46.5378611],[21.4579382,46.5382068],[21.455913,46.539173],[21.4555825,46.5394984],[21.4552284,46.540089],[21.4548361,46.5410835],[21.4535612,46.5416677],[21.4527068,46.5417957],[21.4517762,46.5421758],[21.4514759,46.5424951],[21.4501445,46.5434281],[21.450081,46.5436697],[21.4501879,46.5446653],[21.4500293,46.5449308],[21.4495916,46.5452485],[21.4491091,46.5454642],[21.4475684,46.5458482],[21.4471078,46.5461424],[21.4458463,46.5475149],[21.4455219,46.5480626],[21.4452246,46.5483375],[21.4449688,46.5489559],[21.444989,46.5500931],[21.4454477,46.5512522],[21.4453441,46.551899],[21.4450556,46.5526937],[21.4439016,46.5547662],[21.4421278,46.5557937],[21.4418934,46.5561539],[21.4405481,46.5571474],[21.4401563,46.5576316],[21.4396073,46.5579988],[21.4392369,46.5584211],[21.4390029,46.5591819],[21.4392369,46.5598925],[21.4381109,46.5615616],[21.4372771,46.5623067],[21.4371117,46.562748],[21.4370483,46.5632909],[21.4362196,46.5641857],[21.4361222,46.5645879],[21.4353738,46.5651724],[21.4345604,46.5668501],[21.4341537,46.567407],[21.4336381,46.5679364],[21.4331085,46.5689311],[21.4330917,46.5697855],[21.4333535,46.5705683],[21.4335707,46.5709118],[21.4347698,46.5717638],[21.4353151,46.5724618],[21.4356537,46.5731418],[21.4357673,46.5737491],[21.4355258,46.5747896],[21.4348043,46.5763845],[21.4345105,46.5775087],[21.4340201,46.5784757],[21.4337143,46.5788745],[21.4322197,46.5805032],[21.4312041,46.5813911],[21.430952,46.5818019],[21.4305901,46.5820625],[21.4303179,46.5824249],[21.4298146,46.5828347],[21.4294016,46.5833152],[21.428769,46.5837912],[21.4282353,46.5840994],[21.4277576,46.5845533],[21.4273718,46.5849915],[21.4270892,46.5854463],[21.426934,46.5860811],[21.4267034,46.5863434],[21.4265175,46.5864612],[21.4261519,46.5865566],[21.4257157,46.5865868],[21.4247042,46.5863834],[21.423878,46.5861558],[21.4232004,46.5860161],[21.4226504,46.5861357],[21.4218474,46.5868369],[21.4209958,46.5880693],[21.420653,46.5883354],[21.420086,46.5886888],[21.4195218,46.5888969],[21.4187062,46.5889072],[21.4180548,46.5888409],[21.4174929,46.5888669],[21.4171896,46.5890256],[21.4169621,46.5892696],[21.4168553,46.5896747],[21.4167105,46.5899328],[21.416388,46.5900405],[21.4158992,46.5900154],[21.4153386,46.589868],[21.4148531,46.5898624],[21.4136992,46.590202],[21.4128185,46.5901494],[21.4121864,46.5899337],[21.4116361,46.5893359],[21.4112783,46.5886748],[21.4106471,46.5883047],[21.4103424,46.5882176],[21.4099817,46.5881539],[21.4096797,46.5881685],[21.4092603,46.5882477],[21.4082342,46.5887334],[21.4077639,46.5891806],[21.4071448,46.5898958],[21.4067911,46.5905463],[21.4067005,46.5910937],[21.4068638,46.5917184],[21.4073711,46.592433],[21.4075493,46.5927273],[21.4074068,46.5930607],[21.406856,46.5932818],[21.4062077,46.5934492],[21.4054038,46.5935071],[21.4051732,46.5936371],[21.4050043,46.5940806],[21.4050382,46.5944791],[21.4051122,46.5946208],[21.4055647,46.595487],[21.4055333,46.5957702],[21.4054023,46.5960284],[21.4050767,46.5962899],[21.4045372,46.5964855],[21.4033516,46.596791],[21.4027172,46.5970398],[21.4024931,46.5973157],[21.4022794,46.5977491],[21.4023225,46.59828],[21.402844,46.5987389],[21.4036093,46.599047],[21.403598,46.5992976],[21.4031382,46.5995691],[21.402147,46.5998257],[21.4008601,46.5997805],[21.4000632,46.5996214],[21.3994322,46.5996065],[21.3986635,46.5998141],[21.3982175,46.6001741],[21.3960956,46.601287],[21.3950144,46.6014597],[21.3939528,46.6013129],[21.3929167,46.6011],[21.3905465,46.6002708],[21.3902029,46.6002457],[21.3898348,46.6003362],[21.3894741,46.6005706],[21.3892123,46.6008706],[21.3880854,46.6036917],[21.3877357,46.6039993],[21.3874099,46.6041935],[21.386662,46.6043355],[21.3855694,46.6044445],[21.3851713,46.6045556],[21.3845716,46.6049942],[21.3831417,46.6056811],[21.3805542,46.6069593],[21.3793022,46.608159],[21.3783474,46.6086911],[21.3779347,46.6094901],[21.377814,46.6100228],[21.3780514,46.6108971],[21.3788136,46.6119572],[21.3786843,46.6122353],[21.3781983,46.6126283],[21.3774066,46.6130188],[21.3757452,46.6136731],[21.374897,46.6142122],[21.3746851,46.6148245],[21.3749117,46.615216],[21.3750977,46.6157669],[21.375144,46.6164353],[21.3747821,46.6170603],[21.3741789,46.6173799],[21.3733689,46.6176143],[21.3731133,46.6178791],[21.3726789,46.6190553],[21.3720371,46.6199946],[21.3714416,46.6204803],[21.3701304,46.6210109],[21.3689222,46.6213766],[21.3673845,46.6220078],[21.366808,46.622008],[21.3659842,46.6218406],[21.3653116,46.6214823],[21.3647699,46.6209742],[21.3641699,46.6201809],[21.3623844,46.6194586],[21.3612782,46.6188392],[21.3607613,46.6181563],[21.3607905,46.6171451],[21.3604562,46.6164868],[21.3602357,46.6162781],[21.3594877,46.6160627],[21.3585617,46.6160577],[21.357723,46.6158922],[21.3568866,46.6158788],[21.3557044,46.6163613],[21.3546793,46.6170106],[21.3542915,46.6172562],[21.3536431,46.6176684],[21.3519182,46.6180643],[21.34909,46.6183483],[21.3479115,46.6189023],[21.3464306,46.620281],[21.3457496,46.6209829],[21.3452552,46.6219784],[21.3450218,46.6227977],[21.3445412,46.6238463],[21.3431932,46.6247446],[21.3413698,46.6253969],[21.3403768,46.6261771],[21.3402442,46.6262813],[21.3387515,46.6272645],[21.3384558,46.6274011],[21.3362611,46.6282869],[21.3348353,46.6290029]],[[21.3348353,46.6290029],[21.3299635,46.6315742]],[[21.3299635,46.6315742],[21.3249026,46.6341726],[21.3205282,46.6363655],[21.3155871,46.6389681],[21.3121522,46.6405291],[21.3118809,46.640677],[21.3116869,46.6408515],[21.3113025,46.6413342],[21.3108489,46.6423697],[21.3106169,46.6427311],[21.3096363,46.6442019],[21.2980639,46.6624973],[21.2801338,46.6906636],[21.2768723,46.6957408],[21.2758266,46.6967191],[21.2692943,46.7000772],[21.2686774,46.7006378]],[[22.9843335,46.1932868],[22.9841967,46.193247],[22.9839681,46.1932383],[22.9836874,46.1933267],[22.9833112,46.1934627],[22.9826211,46.1935054],[22.9822553,46.1934088],[22.9817142,46.1934439],[22.9806276,46.1939064],[22.9794628,46.194199],[22.9786066,46.1939268],[22.9768741,46.1935998],[22.9765816,46.1934939],[22.9759655,46.1929335],[22.9751694,46.1926163],[22.9745439,46.1923936],[22.9736703,46.1917327],[22.9736246,46.191505],[22.9735115,46.1912742],[22.9731152,46.1908144],[22.9731152,46.1903985],[22.9726578,46.1898169],[22.9724227,46.1890883],[22.9722057,46.188812],[22.9717938,46.1882233],[22.971746,46.1878673],[22.9722064,46.1870684],[22.9725203,46.1862922],[22.9724097,46.1854995],[22.9710315,46.184328],[22.9696084,46.1834628],[22.9692826,46.1829867],[22.9687265,46.1823823],[22.9683887,46.1822499],[22.9678924,46.1822022],[22.9670822,46.182196],[22.9664604,46.1822292],[22.9651181,46.1824196],[22.9640968,46.1827397],[22.9631064,46.1828829],[22.9622209,46.1832695],[22.9615761,46.1832417],[22.9604284,46.1834383],[22.9594627,46.1832951],[22.9587345,46.1834297],[22.9577164,46.1833101],[22.9570932,46.1831819],[22.9565748,46.1832588],[22.9556184,46.1835493],[22.9552248,46.1834928],[22.9543689,46.1830858],[22.9525176,46.1829427],[22.9516568,46.1832396],[22.9511663,46.1836647],[22.9494293,46.1838292],[22.949022,46.1840599],[22.9469826,46.1846751],[22.946526,46.1848865],[22.9459891,46.1848096],[22.9457145,46.1848353],[22.9450049,46.1853009],[22.9432987,46.1855167],[22.9419227,46.1853287],[22.9416111,46.1854355],[22.9415648,46.1856747],[22.9411514,46.1859033],[22.9398957,46.1861318],[22.9394143,46.1864095],[22.9392601,46.1866039],[22.9393002,46.1870204],[22.9389886,46.1872938],[22.9383499,46.1875779],[22.9381864,46.1879474],[22.9373133,46.1885476],[22.9371065,46.1889897],[22.9367517,46.1892076],[22.9363537,46.1890965],[22.9359125,46.1884857],[22.9357428,46.1880585],[22.9354281,46.1878919],[22.9348759,46.1879004],[22.9346445,46.1877103],[22.9342279,46.187674],[22.9327193,46.188288],[22.9311735,46.1881119],[22.9281711,46.1886632],[22.9274424,46.1886791],[22.925612,46.1882977],[22.9253807,46.188115],[22.9250426,46.1879926],[22.9243008,46.1880228],[22.9236878,46.1879096],[22.9233911,46.1875637],[22.9230137,46.1876317],[22.9219643,46.1879503],[22.9217439,46.18805],[22.9216981,46.188189],[22.9218377,46.1882781],[22.9220494,46.1882373],[22.9222959,46.188269],[22.9223592,46.1883914],[22.922115,46.1884464],[22.9219545,46.1886173],[22.9220163,46.1889932],[22.9218188,46.1890936],[22.9213097,46.1889868],[22.9209549,46.1889334],[22.9202673,46.1889849],[22.9192561,46.1890202],[22.9185729,46.189138],[22.9173889,46.1891908],[22.9165892,46.1891321],[22.9160308,46.189021],[22.9157191,46.1887604],[22.9147411,46.1885127],[22.9123747,46.1885532],[22.911881,46.1885725],[22.9111344,46.1884165],[22.9073024,46.1881367],[22.9054019,46.1878932],[22.9039919,46.1874191],[22.9035322,46.1873849],[22.9031959,46.1874062],[22.9028133,46.187528],[22.9025079,46.1878292],[22.9022024,46.1880684],[22.9019186,46.1881538],[22.9018013,46.1880321],[22.9012892,46.1879594],[22.9007492,46.1877074],[22.900524,46.1873849],[22.8998761,46.1868851],[22.8988147,46.1865369],[22.898463,46.1866223],[22.8976701,46.1865027],[22.8972906,46.1862549],[22.8972536,46.1860072],[22.8975498,46.1856227],[22.8974696,46.1853087],[22.8969697,46.18489],[22.8965008,46.1842962],[22.8958251,46.182504],[22.8954425,46.182049],[22.895569,46.1811133],[22.8955844,46.1807609],[22.8951525,46.1804682],[22.894483,46.1802674],[22.8938659,46.1802311],[22.8922832,46.1803849],[22.8909904,46.1803592],[22.8899201,46.1802717],[22.8895157,46.1801659],[22.8892287,46.1800473],[22.8889171,46.1797333],[22.8888708,46.1794172],[22.8890251,46.179086],[22.8892687,46.1789301],[22.8893566,46.1787724],[22.8893951,46.1782082],[22.8894123,46.1778193],[22.8892318,46.1773962],[22.8890684,46.1771345],[22.8888184,46.1768643],[22.8884812,46.176621],[22.8871862,46.1760225],[22.8858781,46.1753816],[22.8855001,46.1751608],[22.8853505,46.1750077],[22.8852611,46.1748763],[22.8851064,46.1745491],[22.8847982,46.1740719],[22.8847179,46.1739224],[22.8846919,46.1737051],[22.8845935,46.1735162],[22.8840762,46.1729695],[22.8830026,46.1716897],[22.8829516,46.1715464],[22.8829285,46.1712709],[22.8828143,46.1710454],[22.8826507,46.1708885],[22.8824102,46.1707496],[22.8820439,46.1704791],[22.8818918,46.170286],[22.8818451,46.1701283],[22.8818776,46.1697803],[22.8818287,46.1694972],[22.8817128,46.1692393],[22.8815858,46.1690681],[22.8813982,46.1689292],[22.8810822,46.1688164],[22.8809715,46.1687189],[22.8808817,46.1685714],[22.8807787,46.1684264],[22.8806617,46.1683346],[22.8804156,46.1682373],[22.8796758,46.1680367],[22.8795098,46.1679816]],[[22.8793689,46.1679349],[22.879137,46.1678579],[22.8790435,46.1677825],[22.8790062,46.1676925],[22.8788611,46.1673694],[22.878631,46.1671694],[22.8784886,46.1670776],[22.8783311,46.1670083],[22.8782998,46.1669945],[22.8781751,46.1669562],[22.8780517,46.166935],[22.8779152,46.1669316],[22.8777734,46.16693],[22.8776336,46.1669128],[22.8772109,46.1668076],[22.877047,46.166774],[22.8768768,46.166743],[22.8766423,46.1667064],[22.8763792,46.1666943],[22.8761719,46.166695],[22.8760555,46.1667068],[22.8758979,46.1667346],[22.8757813,46.1667624],[22.8756245,46.1668218],[22.8755213,46.16687],[22.8744659,46.1675034],[22.8740387,46.1676752],[22.8735846,46.1677875],[22.8731769,46.167836],[22.8727762,46.1678456],[22.8724521,46.167805],[22.8720648,46.1677159],[22.8719412,46.1676352],[22.8718647,46.1675575],[22.8717602,46.1675113],[22.871481,46.1675219],[22.8712944,46.1675193],[22.8709675,46.1674729],[22.8704469,46.1673266],[22.8693552,46.1668777],[22.8688433,46.1665675],[22.86843,46.1664029],[22.8680711,46.1663099],[22.8676264,46.1662285],[22.8669332,46.1661682],[22.8666792,46.1661017],[22.8666021,46.1659836],[22.8665542,46.1657071],[22.8666135,46.1650759],[22.8667933,46.1646932],[22.8668911,46.1644015],[22.8671353,46.1640186],[22.8677836,46.1634529],[22.8689089,46.1626521],[22.8698968,46.1621254],[22.8703291,46.1618903],[22.8704762,46.1617977],[22.8705058,46.1616666],[22.8705682,46.1600192],[22.8706808,46.1595694],[22.8708754,46.1592219],[22.8708435,46.1588805],[22.8706324,46.1587239],[22.8703475,46.158715],[22.8700163,46.1588042],[22.8698682,46.158785],[22.8697946,46.1587206],[22.869754,46.1586476],[22.8697786,46.1585682],[22.8699265,46.1584271],[22.8701847,46.1581433],[22.870656,46.1577779],[22.8709418,46.1574645],[22.8709973,46.1570631],[22.8707233,46.1565169],[22.8705126,46.1562582],[22.8702972,46.1559834],[22.8701237,46.1557151],[22.8700527,46.1554338],[22.8698969,46.1549703],[22.8693313,46.1538552],[22.8687925,46.1526421],[22.8685455,46.1522902],[22.8682312,46.151983],[22.8677626,46.1517439],[22.8676194,46.1515495],[22.867698,46.1513317],[22.8679899,46.1511082],[22.868147,46.1507893],[22.868481,46.1502236],[22.8689384,46.1498969],[22.8698674,46.1493603],[22.8703529,46.1489209],[22.8703978,46.1484368],[22.8702546,46.1475386],[22.869988,46.147105],[22.8692977,46.146757],[22.8689384,46.1463623],[22.8684193,46.1457926],[22.8677934,46.1453823],[22.867437,46.1449332],[22.8674174,46.1447076],[22.8674819,46.1445773],[22.8678327,46.1445929],[22.867945,46.144346],[22.8678973,46.1438443],[22.8680432,46.143399],[22.8683435,46.1429868],[22.8686017,46.1427807],[22.869553,46.142526],[22.8698505,46.1422849],[22.8705072,46.1420535],[22.8708468,46.1418571],[22.8709478,46.1416043],[22.8707317,46.1412873],[22.8703164,46.1410696],[22.8701676,46.1407837],[22.8701452,46.1402451],[22.8690507,46.1394789],[22.8674567,46.1388956],[22.8670048,46.1382499],[22.8669824,46.1377774],[22.8668421,46.1371551],[22.8664155,46.1366203],[22.8661208,46.1363656],[22.8658542,46.13642],[22.8644538,46.1352921],[22.8637887,46.1350451],[22.8632218,46.135016],[22.8628907,46.1349498],[22.8628121,46.1347943],[22.862972,46.1345045],[22.8632667,46.1341389],[22.8641479,46.1337071],[22.8649702,46.1334427],[22.8654641,46.132939],[22.8656578,46.1326025],[22.8656386,46.1322286],[22.865199,46.1318598],[22.8654009,46.131357],[22.8656365,46.1304709],[22.8657711,46.1303295],[22.8660928,46.1302625],[22.8663999,46.1301517],[22.86681,46.1296489],[22.8668499,46.1291912],[22.8667574,46.1290119],[22.8664398,46.1288778],[22.8653231,46.1286213],[22.8648962,46.1286009],[22.8642547,46.1287335],[22.8638552,46.1287321],[22.8634745,46.1285382],[22.8632221,46.1281957],[22.8632032,46.1278503],[22.8636785,46.1271725],[22.8635376,46.1262921],[22.8637626,46.1258374],[22.8633393,46.1252861],[22.863035,46.1248899],[22.8623283,46.1239162],[22.8611106,46.1227865],[22.8597871,46.1219799],[22.8593662,46.1215192],[22.8580144,46.1206517],[22.8574722,46.1204376],[22.8568768,46.1203136],[22.8563282,46.120358],[22.8557331,46.1205562],[22.854936,46.1208594],[22.8544481,46.1209323],[22.8536889,46.120737],[22.8531883,46.1208128],[22.8524775,46.1206831],[22.8517351,46.1204702],[22.8513523,46.120221],[22.8505363,46.1192486],[22.8502377,46.1190781],[22.849672,46.1190373],[22.84853,46.1193871],[22.8476825,46.1195096],[22.8470999,46.1193798],[22.8465952,46.1191714],[22.8462418,46.1190183],[22.8459453,46.11896],[22.8454742,46.1190839],[22.8437076,46.1196408],[22.8433438,46.1196903],[22.8428285,46.1195271],[22.8424332,46.1194396],[22.8420567,46.1195781],[22.8412113,46.1202297],[22.8405993,46.1205183],[22.8396718,46.1207836],[22.838839,46.12096],[22.8385214,46.1209498],[22.8378863,46.1207632],[22.8367948,46.1202151],[22.8361786,46.1201729],[22.8358295,46.1200519],[22.8354383,46.1197224],[22.8333184,46.1195533],[22.8317222,46.1200227],[22.8302647,46.1205898],[22.8299514,46.1208449],[22.8296296,46.1209804],[22.8294166,46.1212173],[22.8292814,46.1213008],[22.8290336,46.1213736],[22.8287664,46.1214012],[22.8285548,46.1213642],[22.827272,46.1210067],[22.8269103,46.1209411],[22.8265254,46.1209352],[22.8262571,46.1209785],[22.8260466,46.1210684],[22.825945,46.1211577],[22.8256041,46.1215852],[22.8255791,46.1217428],[22.8255933,46.1218808],[22.8256694,46.1220895],[22.8257757,46.1224609],[22.8257746,46.1226524],[22.8255328,46.1230373],[22.8250597,46.1235075],[22.8247212,46.1237037],[22.8243118,46.1237876],[22.8238251,46.1237888],[22.8233688,46.1236566],[22.8228177,46.1234002],[22.8225148,46.1230504],[22.8223359,46.1229703],[22.8221228,46.1230032],[22.8217868,46.1232623],[22.821617,46.1233846],[22.8214823,46.1235457],[22.8214375,46.1236856],[22.8213866,46.1244004],[22.8214339,46.1245314],[22.8216876,46.1249897],[22.8217037,46.1250862],[22.8216563,46.1251528],[22.8213246,46.1253142],[22.8209734,46.1256538],[22.8206258,46.125763],[22.8203435,46.1258266],[22.8196505,46.1258171],[22.8194128,46.1257896],[22.8192383,46.1257281],[22.8188265,46.1253154],[22.8183298,46.1249742],[22.8178789,46.1248043],[22.8175018,46.1247148],[22.8172085,46.1247263],[22.8169364,46.1247719],[22.8163531,46.1249451],[22.8151254,46.1253854],[22.8143082,46.1255236],[22.8131196,46.1259477],[22.812621,46.1259721],[22.8116201,46.125754],[22.8109984,46.1256849],[22.8089535,46.1259559],[22.8074325,46.1262309],[22.8063761,46.1263979],[22.8060864,46.1264211],[22.8057686,46.1263932],[22.8054559,46.1263334],[22.8048028,46.1261569],[22.8045531,46.1261103],[22.8042084,46.1260763],[22.80379,46.1260715],[22.8030771,46.1261117],[22.802666,46.1260983],[22.8024125,46.1260619],[22.8021618,46.125973],[22.8018726,46.1258258],[22.8015539,46.1255819],[22.8013842,46.125489],[22.8011864,46.1254301],[22.8009549,46.1254029],[22.8007099,46.1254221],[22.800426,46.1254828],[22.7999279,46.1256456],[22.7997321,46.1257228],[22.7995012,46.1257586],[22.7992661,46.1257473],[22.798357,46.1255607],[22.7980902,46.1255429],[22.7973826,46.1256554],[22.7967794,46.1259193],[22.7964084,46.1262526],[22.7961699,46.1265209],[22.7954348,46.1278555],[22.7940277,46.1296507],[22.7939981,46.1296884],[22.793329,46.1305104],[22.7906528,46.1326448],[22.7882101,46.1346507],[22.7874122,46.1351386],[22.7853028,46.1366464],[22.7821025,46.1388626],[22.7802503,46.140151],[22.7800754,46.1403006],[22.7799006,46.1405078],[22.7796772,46.1407393],[22.779457,46.140869],[22.7791791,46.1410087],[22.7786171,46.1412391],[22.778302,46.1414499],[22.7779773,46.1417528],[22.7777669,46.1420699],[22.7776783,46.1424428],[22.7777018,46.1426595],[22.777724,46.1430204],[22.7776457,46.143175],[22.777555,46.1433011],[22.7770963,46.1437341],[22.7768926,46.1439453],[22.7767302,46.1443093],[22.7764232,46.1445274],[22.7757546,46.1446764],[22.7753421,46.1448823],[22.7751437,46.1450256],[22.7748417,46.1455121],[22.7747263,46.1457722],[22.7747595,46.1462395],[22.7749648,46.1468164],[22.7755885,46.1476034],[22.7757957,46.1481478],[22.7761222,46.1486666],[22.7762571,46.1492124],[22.7761691,46.1494846],[22.7761736,46.1496397],[22.7760911,46.1497823],[22.7756292,46.1501172],[22.7754848,46.1502363],[22.7753207,46.1503811],[22.7750954,46.1506059],[22.7748137,46.1509315],[22.7744329,46.1512172],[22.7738818,46.1516042],[22.7736604,46.1517598],[22.7733453,46.1518928],[22.7732474,46.1520404],[22.7732444,46.1523125],[22.7729649,46.1526754],[22.7728965,46.1528054],[22.7730313,46.1530519],[22.7738446,46.1537142],[22.7738798,46.1540148],[22.7736882,46.154203],[22.7729844,46.1545023],[22.7725956,46.154781],[22.7723999,46.155105],[22.7722767,46.1558728],[22.7720692,46.1564364],[22.7721245,46.1566777],[22.7723844,46.1571508],[22.7725257,46.1578027],[22.7724494,46.158213],[22.7721659,46.1584202],[22.7715755,46.1585962],[22.7712797,46.1589686],[22.7708318,46.159252],[22.7700134,46.159476],[22.769795,46.1598227],[22.7694301,46.1599816],[22.7697591,46.1603435],[22.7699969,46.1606863],[22.7701793,46.1619961],[22.7701959,46.1622872],[22.7705636,46.162494],[22.7706051,46.1626338],[22.769795,46.1635913],[22.7690375,46.1641696],[22.7686394,46.164654],[22.7685315,46.1651231],[22.7687582,46.1656401],[22.7689822,46.1663678],[22.7691554,46.1665566]],[[22.8795098,46.1679816],[22.8793689,46.1679349]],[[22.7691554,46.1665566],[22.7689814,46.1667863],[22.7690012,46.1670239],[22.7689618,46.1672511],[22.7685057,46.1676397],[22.7680431,46.1677533],[22.7673935,46.1680192],[22.7669932,46.1684668],[22.7665666,46.1695575],[22.7666257,46.1702346],[22.7664879,46.1707072],[22.7656315,46.1722591],[22.7653264,46.1724749],[22.7635382,46.1728067],[22.7616614,46.1724227],[22.7600898,46.1715047],[22.7594631,46.171382],[22.7590431,46.1714729],[22.7586691,46.1717978],[22.7584919,46.1723113],[22.7581573,46.1726681],[22.7576749,46.1729089],[22.7561624,46.1724659],[22.7554274,46.1723113],[22.7547712,46.1724159],[22.7526254,46.173386],[22.7514672,46.17382],[22.7489342,46.1742153],[22.7448853,46.1749606],[22.7414369,46.1755536],[22.7382313,46.175465],[22.7370665,46.175474],[22.7360855,46.1757876],[22.735262,46.1764919],[22.734901,46.1766623],[22.7337724,46.1766986],[22.7332966,46.1765101],[22.733103,46.176092],[22.7322106,46.1755604],[22.7312722,46.1747538],[22.7307833,46.174597],[22.7303929,46.1746675],[22.7293888,46.1743358],[22.7285161,46.1740608],[22.7277713,46.1740995],[22.7272168,46.1742835],[22.7266984,46.1748174],[22.7259568,46.175165],[22.7240768,46.1766237],[22.7229908,46.1771462],[22.7214388,46.1774325],[22.7209106,46.1775779],[22.7205923,46.1778141],[22.7194013,46.1781436],[22.7186007,46.1780777],[22.7180921,46.1781208],[22.717787,46.1785207],[22.7171701,46.1790387],[22.7164024,46.1794135],[22.7151687,46.1796589],[22.7150243,46.1798588],[22.7151031,46.1800746],[22.7160086,46.1808334],[22.7158938,46.1811196],[22.7161399,46.1816194],[22.7154902,46.1825894],[22.7150735,46.1830256],[22.7141548,46.1832369],[22.7138235,46.1834322],[22.7122026,46.1828598],[22.7107622,46.181867],[22.7100568,46.1817557],[22.7096696,46.1818693],[22.7089183,46.1825531],[22.708121,46.1828211],[22.7069988,46.1831414],[22.7066478,46.1829779],[22.706067,46.1823146],[22.7055289,46.1820147],[22.7053288,46.1821487],[22.7048432,46.1820283],[22.7045544,46.1820942],[22.7039573,46.1826212],[22.7030583,46.1831301],[22.7022183,46.1832414],[22.7006926,46.1843795],[22.7000856,46.1846703],[22.7002136,46.1848747],[22.6991276,46.1866692],[22.6986387,46.1870327],[22.698094,46.1871167],[22.6976347,46.1870077],[22.6972508,46.1866715],[22.6972213,46.1859242],[22.696985,46.184911],[22.696401,46.1845635],[22.6952362,46.1839229],[22.6946161,46.1838547],[22.6937335,46.1839502],[22.6920404,46.1846725],[22.690459,46.1848883],[22.6895304,46.184668],[22.6871976,46.1842795],[22.6857999,46.1841523],[22.6851338,46.1841569],[22.6843824,46.184484],[22.6836409,46.185011],[22.6828042,46.1856993],[22.6816099,46.1857061],[22.6812064,46.1854562],[22.68077,46.184936],[22.6807488,46.1845859],[22.6803637,46.1837892],[22.6800899,46.1837121],[22.6768233,46.1845731],[22.6763036,46.1847883],[22.6758721,46.1848237],[22.6755565,46.1847112],[22.6752967,46.1843418],[22.67527,46.1843291],[22.6744568,46.1839434],[22.6728374,46.1837924],[22.6722156,46.1837635],[22.6716913,46.1835001],[22.6714593,46.183121],[22.6714686,46.1826969],[22.6715863,46.1819692],[22.6710941,46.1815285],[22.6703067,46.1816534],[22.6698637,46.1815194],[22.6693092,46.1815307],[22.6685874,46.1816716],[22.6679049,46.1820146],[22.6669469,46.182528],[22.6660446,46.1828483],[22.6649356,46.1827938],[22.6646567,46.1826916],[22.6644861,46.1823418],[22.6645681,46.1821305],[22.664929,46.1821464],[22.6653129,46.1817466],[22.6652867,46.1815467],[22.6650274,46.1814013],[22.6646993,46.1814512],[22.6646501,46.1816193],[22.6642892,46.1816943],[22.6636527,46.1814262],[22.6624059,46.1815444],[22.6620023,46.1817079],[22.6608802,46.1815875],[22.6592823,46.1813308],[22.6567821,46.1814444],[22.6556173,46.1815944],[22.6546822,46.1816103],[22.6537963,46.1806902],[22.6525397,46.1800677],[22.6519327,46.1801427],[22.6511157,46.1799042],[22.6495342,46.1797747],[22.6491996,46.1799519],[22.647395,46.1803108],[22.6464993,46.1800359],[22.6464336,46.1797474],[22.6461646,46.1794294],[22.6450589,46.1791885],[22.6444519,46.1793816],[22.6440056,46.1795157],[22.6435496,46.1793498],[22.6424209,46.1791954],[22.6421912,46.1793158],[22.6422503,46.1795793],[22.6419451,46.1799859],[22.6415547,46.1800427],[22.6409116,46.1798587],[22.6402193,46.1798178],[22.6396812,46.1796974],[22.6394909,46.1794339],[22.6397567,46.1788932],[22.6394909,46.1786728],[22.639002,46.178607],[22.6380111,46.1790954],[22.6375682,46.1794657],[22.6371285,46.1800132],[22.6366823,46.1800677],[22.6356127,46.1796429],[22.6352518,46.1793112],[22.6355241,46.1787683],[22.6353042,46.1784093],[22.6344052,46.1778663],[22.6330797,46.1776868],[22.6326433,46.1771393],[22.6324235,46.1763532],[22.6328828,46.1746379],[22.6329057,46.1744581],[22.6331781,46.1723204],[22.633083,46.1716683],[22.6328008,46.1710662],[22.6311504,46.1702368],[22.6302777,46.169387],[22.6298085,46.1682441],[22.6300316,46.1678305],[22.629628,46.1669261],[22.6295558,46.1662194],[22.6289259,46.1655513],[22.6288405,46.1650537],[22.6288274,46.1647923],[22.629126,46.1646628],[22.6294705,46.1646583],[22.6295394,46.1643606],[22.6294049,46.1638584],[22.6290997,46.1633925],[22.6284862,46.1630789],[22.6270327,46.162988],[22.6248048,46.1634675],[22.6226951,46.1641106],[22.6221734,46.1641379],[22.6216616,46.1639561],[22.6211333,46.1635448],[22.6204902,46.1626767],[22.6200735,46.1625608],[22.619332,46.1625199],[22.6187939,46.1625744],[22.6185872,46.1628176],[22.6185183,46.1631766],[22.6186495,46.1637538],[22.6184232,46.164606],[22.6188267,46.1657854],[22.6188759,46.1662989],[22.6184822,46.1671352],[22.6182919,46.1677805],[22.618223,46.1686258],[22.618013,46.1688712],[22.6165759,46.1690962],[22.6148402,46.168853],[22.6142923,46.1685576],[22.6135147,46.1683349],[22.6125599,46.1683145],[22.6115493,46.1686303],[22.6104862,46.1686531],[22.6099646,46.1685372],[22.6094068,46.1681577],[22.6086193,46.1676328],[22.6077334,46.167651],[22.606713,46.1678896],[22.6064243,46.1681918],[22.6064308,46.168903],[22.605919,46.1697324],[22.6050036,46.1708139],[22.6046886,46.1709048],[22.6039504,46.1707867],[22.6024312,46.1703527],[22.6012894,46.1703254],[22.6003543,46.1705685],[22.5995472,46.1710275],[22.5988877,46.1711343],[22.5974145,46.1708867],[22.5960397,46.1712502],[22.5951801,46.1716728],[22.5950016,46.1719441],[22.5950718,46.1726222],[22.5956523,46.173795],[22.5974001,46.1747911],[22.598274,46.1750561],[22.5994573,46.1752858],[22.6009659,46.1755442],[22.6016644,46.1757584],[22.6021014,46.1760698],[22.6021556,46.1764916],[22.601741,46.1767699],[22.6017186,46.1771476],[22.6015879,46.1775694],[22.6008033,46.1778079],[22.6004141,46.1781105],[22.600261,46.1783534],[22.6003376,46.1785588],[22.6006752,46.1787649],[22.6012878,46.1796577],[22.6025658,46.1806711],[22.6036323,46.1826909],[22.6047287,46.184137],[22.6048953,46.1850536],[22.6048634,46.1870948],[22.6042791,46.1876368],[22.6031649,46.1877426],[22.6017259,46.1873873],[22.6004652,46.1863676],[22.5983538,46.1862351],[22.5977185,46.1863346],[22.595988,46.1874989],[22.5953417,46.1885002],[22.5952587,46.1895777],[22.594577,46.1910655],[22.5955423,46.1938769],[22.596099,46.1950268],[22.5957175,46.1957266],[22.5951537,46.195881],[22.5947107,46.1957609],[22.5938941,46.1964985],[22.5929356,46.1968631],[22.5923159,46.1968427],[22.5906339,46.196475],[22.5890656,46.1960128],[22.5884078,46.19625],[22.5875732,46.1969424],[22.5866642,46.1984149],[22.5862705,46.1986897],[22.5848285,46.1988765],[22.5837193,46.1986334],[22.5825144,46.1981947],[22.5816638,46.198568],[22.581077,46.199314],[22.5808854,46.2002929],[22.5809381,46.2022358],[22.5802957,46.2030489],[22.5796902,46.2033201],[22.5791599,46.203888],[22.5784659,46.2040392],[22.5777845,46.204166],[22.5773288,46.2044601],[22.5771674,46.2048998],[22.5767462,46.20577],[22.576804,46.2064639],[22.5764643,46.2069985],[22.5730409,46.2074182],[22.5727431,46.2077292],[22.5727262,46.20812],[22.5738749,46.2098159],[22.5744531,46.2107977],[22.5746854,46.2123471],[22.5741104,46.2143344],[22.5728193,46.2149521],[22.5726443,46.2156645],[22.57239,46.2172548],[22.5728876,46.2184287],[22.5732728,46.2189413],[22.5733302,46.2193327],[22.5730181,46.2195914],[22.5724303,46.2197164],[22.5718642,46.2195981],[22.5714548,46.2191602],[22.5712076,46.2187143],[22.5711571,46.2172754],[22.5708858,46.2166924],[22.5703602,46.2165111],[22.5699724,46.2165958],[22.5687276,46.2168678],[22.5673072,46.2168659],[22.5663417,46.217005],[22.5653471,46.2173604],[22.5645817,46.2178571],[22.5631531,46.2190629],[22.5623206,46.2204211],[22.5609593,46.220938],[22.5605868,46.221595],[22.5605007,46.2222406],[22.560738,46.2234235],[22.5609618,46.2239523],[22.5605767,46.2248091],[22.5582603,46.2257986],[22.5551197,46.2261645],[22.5524365,46.2268353],[22.5510339,46.2284208],[22.5522535,46.2298234],[22.5517961,46.2325677],[22.5537781,46.2331165],[22.5554856,46.2345496],[22.5555771,46.2356473],[22.5546014,46.2376597],[22.555882,46.2390014],[22.5586872,46.2391538],[22.5603769,46.2410678],[22.562364,46.2413],[22.5632019,46.2430967],[22.5630948,46.2440584],[22.5623753,46.2447841],[22.5617375,46.2452033],[22.5609066,46.245497],[22.5600998,46.245559],[22.5590204,46.2454358],[22.5582829,46.2456639],[22.5581109,46.2459969],[22.5582691,46.2464483],[22.5590862,46.2471135],[22.559562,46.2481482],[22.5602491,46.2488857],[22.5605963,46.2495596],[22.5604653,46.25053],[22.5605821,46.2509174],[22.561661,46.2519497],[22.5618035,46.2523427],[22.5615754,46.2528734],[22.5609923,46.253457],[22.5558123,46.2546829],[22.5555892,46.2549982],[22.5557876,46.2556294],[22.5566286,46.2568569],[22.5574255,46.2576774],[22.5575271,46.2583308],[22.5573655,46.258449],[22.5565159,46.2590702],[22.5562681,46.2598845],[22.5538802,46.2617309],[22.5528438,46.2629642],[22.5526109,46.2635082],[22.5521288,46.2640985],[22.5520194,46.2646251],[22.5527412,46.2661299],[22.5542646,46.2673188],[22.5544119,46.2680953],[22.5543722,46.2687238],[22.5538086,46.2697128],[22.5533636,46.270057],[22.5528267,46.2701742],[22.5523676,46.2701034],[22.5521168,46.2698715],[22.5520038,46.2695834],[22.5521975,46.2692042],[22.5521288,46.2690751],[22.5508566,46.2693566],[22.545571,46.2716837],[22.5452631,46.2716385],[22.5448923,46.2713455],[22.5442848,46.2706399],[22.5442671,46.270032],[22.5433806,46.2687185],[22.5418327,46.2680515],[22.5412293,46.2676195],[22.5401513,46.2674112],[22.5382371,46.2677569],[22.5373143,46.2678221],[22.5357459,46.2683157],[22.5350655,46.2686161],[22.5341644,46.269028],[22.5338846,46.2694388],[22.5336479,46.2704666],[22.5336824,46.2725753],[22.5340227,46.2736177],[22.5341846,46.2744119],[22.5341157,46.2758017],[22.5349184,46.277257],[22.5355638,46.2783647],[22.5357562,46.2798641],[22.5353979,46.2805001],[22.5343625,46.2815693],[22.5335697,46.2817397],[22.5328811,46.2813553],[22.5321786,46.2810983],[22.5316328,46.2812712],[22.5309052,46.2814228],[22.5289492,46.2816526],[22.5280963,46.2818384],[22.5269207,46.2821118],[22.5265812,46.2824683],[22.5264077,46.2830544],[22.5264147,46.2835371],[22.5269209,46.2840677],[22.5285389,46.2842992],[22.5294941,46.2846891],[22.5305139,46.2852599],[22.5308213,46.2856147],[22.5308895,46.2859405],[22.5307981,46.2863246],[22.5302799,46.2867029],[22.5295956,46.2869179],[22.5286245,46.2870301],[22.5265131,46.2870859],[22.525089,46.2868427],[22.523305,46.286285],[22.5225673,46.2861369],[22.5219043,46.2862643],[22.521199,46.2870144],[22.5209884,46.2874797],[22.5210541,46.2885512],[22.5207426,46.2892397],[22.5205958,46.2900182],[22.5198433,46.2913725],[22.5190635,46.292332],[22.5171362,46.2933196],[22.5164255,46.2934971],[22.5157159,46.2934497],[22.5147624,46.2931496],[22.5137946,46.2924132],[22.5133669,46.2919302],[22.5132744,46.2913613],[22.5134636,46.2907265],[22.5137358,46.2893766],[22.5135868,46.2889146],[22.5123744,46.2880509],[22.5112617,46.2874823],[22.5100764,46.2865777],[22.5081894,46.2856363],[22.5068449,46.2855434],[22.5046705,46.2849262],[22.5032094,46.2847317]]]},"properties":{"name":"Crișul Alb","name_ro":"Crișul Alb","type":"river","source":"manual_premap","source_detail":"HOTOSM Waterways HDX snapshot 2026-08-07, waterway=river name match (13 segments, 3067 points), ANCPI validation: see README","osm_type":"way","osm_id":"way/1089314433","geocode_tier":"tier1","confidence":"high"}}]}