{"type":"FeatureCollection","metadata":{"pipeline":"tier1_premap","pipeline_version":"1.0","generated_at":"2026-08-11T10:41:03.366503+00:00"},"features":[{"type":"Feature","id":"crisul-negru","geometry":{"type":"MultiLineString","coordinates":[[[22.4930749,46.453915],[22.4924282,46.4540843],[22.4921981,46.4542177],[22.4919433,46.4544191],[22.4917877,46.4545522],[22.4915356,46.4546834],[22.4914659,46.454748],[22.4914337,46.4548109],[22.4914283,46.4548663],[22.4912716,46.4549858],[22.4908946,46.455343],[22.4906827,46.4555999],[22.4905217,46.4558844],[22.4903072,46.4561062],[22.4902026,46.4562873],[22.4901114,46.4565256],[22.4900497,46.4566273],[22.4899156,46.4568841],[22.4896822,46.4572241],[22.4896251,46.4574917],[22.4893687,46.4578394],[22.4889938,46.4582215],[22.4889908,46.4584378],[22.4891415,46.4587546],[22.4892121,46.4590687],[22.489209,46.4592433],[22.489178,46.4594284],[22.4890868,46.4597351],[22.4890412,46.4600622],[22.4888427,46.4604299],[22.4885986,46.4608622],[22.488435,46.461241],[22.4882499,46.4615144],[22.4878529,46.4618655],[22.4874131,46.4621574],[22.4870349,46.4623754],[22.4865816,46.4625639],[22.486125,46.4627237],[22.4860907,46.4627357],[22.485742,46.4628428],[22.4854604,46.4629204],[22.4851546,46.4631034],[22.484814,46.4632271],[22.484409,46.4633953],[22.4839396,46.4636244],[22.4836124,46.4637906],[22.483202,46.4639495],[22.4829338,46.4641047],[22.4825824,46.464356],[22.4822552,46.4646202],[22.4819977,46.4648585],[22.4817053,46.4651633],[22.4813637,46.465478],[22.4811796,46.4657268],[22.4810348,46.4659005],[22.4809811,46.4659744],[22.480965,46.4660889],[22.4808899,46.4662293],[22.4808095,46.4664012],[22.480721,46.4665342],[22.4805868,46.4666801],[22.4803535,46.4668408],[22.4800692,46.4670053],[22.4796749,46.4671863],[22.4794871,46.4672676],[22.4792404,46.4674396],[22.4790221,46.4676447],[22.4787781,46.4678686],[22.4784116,46.4681728],[22.4781621,46.4683834],[22.4779498,46.4685845],[22.4776328,46.4688545],[22.4773621,46.4690829],[22.4770024,46.469386],[22.476632,46.469698],[22.4764043,46.4699125],[22.4762741,46.470044],[22.4761786,46.4702343],[22.4760277,46.4706144],[22.4759126,46.4709209],[22.4758493,46.4710575],[22.4757389,46.471261],[22.4756084,46.4716032],[22.4754923,46.4719606],[22.4752091,46.4726072],[22.4750228,46.473073],[22.4749305,46.4734083],[22.4747909,46.4738248],[22.4747026,46.474065],[22.4746377,46.4744999],[22.4745554,46.4748853],[22.4745269,46.475084],[22.4744336,46.475354],[22.474115,46.475933],[22.4738337,46.4763558],[22.4735847,46.4767915],[22.4734031,46.4771727],[22.4731594,46.4777441],[22.4730568,46.47808],[22.4730176,46.4782993],[22.472841,46.4785617],[22.4727229,46.4788378],[22.4726711,46.4789652],[22.4726749,46.479346],[22.4726371,46.4796283],[22.4725268,46.4798111],[22.4722908,46.4801518],[22.4722982,46.4802479],[22.472335,46.4804456],[22.4723932,46.4806863],[22.4724406,46.4808169],[22.4725645,46.481212],[22.4725821,46.4812556],[22.4726695,46.4814715],[22.4726703,46.4816546],[22.4726073,46.4817993],[22.4724968,46.4818899],[22.4722499,46.4820297],[22.4719988,46.4821845],[22.4717865,46.4823368],[22.4716681,46.4825652],[22.4716061,46.482727],[22.4716075,46.482934],[22.4716321,46.4830873],[22.4716578,46.4831642],[22.4717063,46.4833292],[22.47166,46.4834758],[22.4714378,46.4836684],[22.4711294,46.4838401],[22.4706278,46.4840729],[22.4705131,46.484159],[22.4703948,46.4843482],[22.470371,46.484511],[22.4703309,46.4846664],[22.4703167,46.4847972],[22.4702806,46.4849849],[22.4702606,46.4851685],[22.470196,46.4854968],[22.4700487,46.4857808],[22.4698949,46.4859248],[22.4695541,46.4861912],[22.4692168,46.4864408],[22.4689165,46.4867156],[22.4686443,46.4870272],[22.4683172,46.4871944],[22.4678936,46.4874535],[22.4672597,46.4877668],[22.4668,46.4879337],[22.4662394,46.4881206],[22.4657731,46.4882802],[22.4652772,46.4886105],[22.4647829,46.4888518],[22.4642152,46.489017],[22.4638828,46.4891872],[22.4635567,46.4895185],[22.4633871,46.4897447],[22.4633607,46.4899586],[22.4634824,46.4902354],[22.4636301,46.4907088],[22.463725,46.491026],[22.4637117,46.4912004],[22.4637479,46.49136],[22.4637318,46.4916444],[22.4637184,46.4918734],[22.4638579,46.492071],[22.4640242,46.4922723],[22.4641985,46.4925585],[22.4643836,46.492697],[22.4645955,46.4927542],[22.4649013,46.4927634],[22.4652822,46.4927099],[22.4655584,46.492721],[22.4658427,46.4927819],[22.4660788,46.4929259],[22.4660707,46.493142],[22.4657462,46.4934023],[22.465258,46.493768],[22.4650354,46.4939711],[22.464904,46.4942037],[22.4649066,46.4945435],[22.464912,46.4947632],[22.464904,46.4949534],[22.4646679,46.4952248],[22.464499,46.4954446],[22.4644373,46.4955572],[22.4644534,46.4956735],[22.4645606,46.4957972],[22.4649308,46.4961813],[22.4651668,46.4964066],[22.4652741,46.4966245],[22.4653653,46.4968183],[22.4655048,46.4971599],[22.4655665,46.4974239],[22.4657247,46.4976123],[22.4659661,46.4978948],[22.4661163,46.4980923],[22.4661324,46.4982382],[22.4660519,46.4983158],[22.4658159,46.4983878],[22.4655933,46.4984265],[22.4651024,46.4985632],[22.4645714,46.498722],[22.4641449,46.4988272],[22.4637855,46.4989786],[22.4636192,46.4991411],[22.4634797,46.4993423],[22.4633644,46.4994956],[22.4631552,46.4997116],[22.462895,46.4999313],[22.4626107,46.5001399],[22.4623264,46.5004409],[22.4621091,46.5006587],[22.4617282,46.5008711],[22.4615244,46.5010132],[22.461291,46.5013308],[22.4610201,46.5016317],[22.4608163,46.5017684],[22.4606124,46.5018902],[22.4606285,46.5021911],[22.4607278,46.5023721],[22.4608109,46.5025438],[22.4611784,46.5027081],[22.4616826,46.5028687],[22.4620796,46.5030662],[22.4621654,46.5031826],[22.4622164,46.5034226],[22.4622647,46.503598],[22.4621574,46.5036736],[22.4619079,46.5035943],[22.4616504,46.5035278],[22.4615432,46.5035813],[22.4614949,46.503681],[22.4614895,46.5038343],[22.4613634,46.5038583],[22.4610818,46.5038398],[22.4607063,46.5039173],[22.460363,46.5040226],[22.4599928,46.5041647],[22.4597002,46.5043075],[22.4600247,46.5048706],[22.4602232,46.5052269],[22.4601535,46.5054337],[22.459668,46.505622],[22.4595956,46.5062829],[22.4597431,46.5068164],[22.4597377,46.5070859],[22.4580667,46.5079204],[22.4577931,46.5081327],[22.4576215,46.5085056],[22.4574981,46.5089966],[22.4574766,46.5096593],[22.4574257,46.5099897],[22.4573505,46.5102279],[22.4579675,46.5108149],[22.4583081,46.5108924],[22.4590082,46.5108223],[22.4594105,46.5108832],[22.4595446,46.5109847],[22.4595205,46.511269],[22.4597324,46.5116806],[22.4605719,46.5123027],[22.4603895,46.5126663],[22.4600998,46.5128509],[22.4594749,46.5127512],[22.4590833,46.5127789],[22.4589518,46.5129303],[22.4590859,46.5131407],[22.4593863,46.5133216],[22.459491,46.513473],[22.4598906,46.5143737],[22.4596626,46.5148334],[22.4594507,46.5149293],[22.4590645,46.5147632],[22.4587507,46.5148223],[22.4585575,46.5149792],[22.4585951,46.5152191],[22.4589357,46.5158688],[22.459043,46.5163377],[22.459153,46.5168711],[22.4594454,46.5173436],[22.4594883,46.5176574],[22.4594722,46.5179176],[22.4593059,46.5182185],[22.4591838,46.5187975],[22.4594331,46.5190676],[22.4599211,46.5194508],[22.4599927,46.5196059],[22.4599821,46.5198212],[22.459746,46.5201643],[22.4590312,46.5207985],[22.4585887,46.5211133],[22.4581686,46.5215572],[22.457726,46.5218669],[22.4570209,46.5221817],[22.4564809,46.5223572],[22.4562933,46.5224914],[22.4563984,46.5225843],[22.4569759,46.5227443],[22.4574185,46.5228269],[22.4577635,46.5229043],[22.4579136,46.5230953],[22.457948,46.523295],[22.4578242,46.5235144],[22.4575579,46.523615],[22.4573854,46.5237105],[22.4573029,46.5238628],[22.4570295,46.5242171],[22.4567959,46.5243846],[22.456466,46.5245794],[22.4555883,46.5247652],[22.4550783,46.524853],[22.4548232,46.5250078],[22.4547932,46.5253433],[22.4547557,46.5256942],[22.4545082,46.5259729],[22.4539156,46.5265716],[22.4536906,46.5269225],[22.4532255,46.5274076],[22.452993,46.5277276],[22.4527079,46.5279495],[22.4526404,46.5281198],[22.4527829,46.5284604],[22.4524979,46.5286462],[22.4518453,46.5290642],[22.4517628,46.5293119],[22.4514628,46.5296267],[22.4512077,46.5298796],[22.4510502,46.5300395],[22.4510202,46.5303801],[22.4512602,46.5305659],[22.4514399,46.5306419],[22.4516486,46.5306955],[22.4518057,46.5306732],[22.4519308,46.530579],[22.4519542,46.5304027],[22.4520391,46.5302677],[22.4522566,46.5301692],[22.4525138,46.5302112],[22.4527949,46.5304429],[22.452787,46.5307877],[22.4527074,46.5310577],[22.4525819,46.5314508],[22.4525632,46.5316934],[22.4523532,46.5321346],[22.4522331,46.5322946],[22.4519856,46.53239],[22.4517006,46.5324571],[22.4515093,46.5325887],[22.4513518,46.5328545],[22.4512243,46.5330738],[22.4512618,46.5332595],[22.451288,46.5334169],[22.4514268,46.5335408],[22.4515355,46.5335666],[22.4517831,46.533564],[22.4519894,46.5337007],[22.4521244,46.5339742],[22.4520681,46.5341471],[22.4518393,46.5343922],[22.4515656,46.5346321],[22.4514793,46.534774],[22.4514793,46.5349005],[22.4514793,46.535112],[22.4513705,46.5353365],[22.451078,46.5356022],[22.4506992,46.535886],[22.4503579,46.5360382],[22.4499603,46.5361002],[22.4496453,46.5360228],[22.4492627,46.5359505],[22.4491352,46.5358215],[22.4489589,46.5355945],[22.4487339,46.5354758],[22.4483363,46.5355042],[22.4482051,46.5356022],[22.4478,46.5361492],[22.4472562,46.5367194],[22.4471924,46.5369438],[22.4471924,46.537207],[22.4471287,46.5374598],[22.4469299,46.5376791],[22.4466861,46.5377384],[22.4463786,46.5377204],[22.4459285,46.5378752],[22.4454822,46.5379242],[22.4452009,46.5379809],[22.4449571,46.538128],[22.4449084,46.538306],[22.4450396,46.5388246],[22.4450059,46.5389871],[22.4447508,46.5392477],[22.4443983,46.5393637],[22.4441132,46.5393534],[22.443862,46.5392631],[22.4436857,46.5392683],[22.4436594,46.5394282],[22.4436369,46.5396475],[22.4435357,46.5398462],[22.4433744,46.5400164],[22.4433144,46.5402512],[22.4433219,46.5404266],[22.4435169,46.5407027],[22.4437344,46.5409658],[22.4438132,46.5411412],[22.4436894,46.5413682],[22.4433819,46.5416778],[22.4429506,46.541861],[22.4425793,46.5420261],[22.4423728,46.5421191],[22.4423177,46.5421515],[22.4422299,46.5422022],[22.4421603,46.5423478],[22.4421788,46.5424872],[22.4424855,46.5429006],[22.4425556,46.5429579],[22.442629,46.5430179],[22.4429431,46.5432746],[22.4434269,46.5437028],[22.4434744,46.5439218],[22.4434907,46.5439969],[22.4434269,46.5443503],[22.4432544,46.544518],[22.4429706,46.5447426],[22.4426868,46.5448046],[22.441965,46.544868],[22.4416874,46.5449196],[22.4412749,46.5452085],[22.4409411,46.5453633],[22.4408435,46.5455051],[22.4410648,46.5458508],[22.4410536,46.5460262],[22.440731,46.5466788],[22.4403747,46.5469651],[22.4399059,46.5470451],[22.4396921,46.5472824],[22.4396996,46.5475326],[22.4397784,46.5480098],[22.4397071,46.5481594],[22.4394333,46.5484019],[22.4389533,46.548634],[22.4387661,46.5488071],[22.4386282,46.5491099],[22.438782,46.5493142],[22.4391745,46.5495148],[22.4394185,46.5497483],[22.4401452,46.5502626],[22.4405854,46.5504377],[22.4411795,46.550445],[22.4415773,46.5504997],[22.4421342,46.5509447],[22.4422032,46.5512146],[22.4424312,46.5514408],[22.4425585,46.5517727],[22.4425638,46.5520098],[22.4423835,46.5528816],[22.4422721,46.5531697],[22.4423994,46.5534798],[22.4424153,46.5538992],[22.4426593,46.5540816],[22.4431048,46.5541472],[22.4433807,46.5542056],[22.4434867,46.5543661],[22.443561,46.5547673],[22.4435239,46.5552378],[22.4433541,46.555526],[22.4429457,46.5559855],[22.442776,46.556208],[22.4426169,46.5569338],[22.44241,46.5573386],[22.4420228,46.5577581],[22.4415561,46.5579806],[22.4408718,46.5581739],[22.4403626,46.5584693],[22.4399914,46.5587647],[22.4399542,46.5589616],[22.4402141,46.5592643],[22.4403998,46.5596728],[22.4407286,46.5600193],[22.440665,46.5602454],[22.4404528,46.5603111],[22.4401929,46.5602892],[22.4397527,46.5603183],[22.4395352,46.5604496],[22.4394504,46.560621],[22.439461,46.5611608],[22.4393337,46.5612921],[22.4390791,46.5613614],[22.4385274,46.5616057],[22.438013,46.5619339],[22.4375886,46.5620397],[22.4372014,46.5620361],[22.4366604,46.5619303],[22.4362997,46.5616896],[22.435886,46.5615073],[22.4353874,46.5614781],[22.4349207,46.5615291],[22.4345123,46.5616969],[22.4343425,46.5619267],[22.4342524,46.5622658],[22.4342842,46.5624919],[22.4346661,46.5626852],[22.4348411,46.5627873],[22.4352389,46.5631994],[22.4355041,46.5636881],[22.4356792,46.5639908],[22.4359868,46.5642789],[22.4364323,46.5645597],[22.4366604,46.564866],[22.43674,46.5652416],[22.4366233,46.5655516],[22.4363528,46.5659126],[22.4363846,46.5661678],[22.4368885,46.5669336],[22.4370158,46.5672655],[22.4367983,46.56759],[22.4364376,46.5679875],[22.4361088,46.5681771],[22.4361194,46.5683813],[22.4365172,46.5690413],[22.4367506,46.5694059],[22.436915,46.5699456],[22.4370582,46.5710213],[22.4370317,46.5714333],[22.4368089,46.5720386],[22.4365596,46.5725491],[22.4364748,46.5729392],[22.4364161,46.5731583],[22.4363263,46.5734934],[22.4361618,46.5740367],[22.4365915,46.5748716],[22.4368514,46.575156],[22.4373128,46.5754623],[22.4378804,46.5757503],[22.4380607,46.5760529],[22.4379599,46.576392],[22.4375515,46.5768696],[22.4369681,46.5772452],[22.4365133,46.5775497],[22.4360988,46.5777158],[22.4358887,46.5778177],[22.43572,46.5779221],[22.435253,46.5782308],[22.4349492,46.5785608],[22.4348292,46.578749],[22.4346304,46.5789192],[22.4343754,46.5789733],[22.4339854,46.5789192],[22.4333065,46.5787593],[22.4326464,46.5784062],[22.4319901,46.5783752],[22.4318138,46.5784938],[22.4314012,46.5789707],[22.4310524,46.579177],[22.4308499,46.5793677],[22.4307524,46.5797235],[22.4308162,46.5802004]],[[21.4567156,46.6673461],[21.4557714,46.6671221],[21.4533929,46.6667048],[21.4529337,46.6666103],[21.451976,46.6666307],[21.450939,46.6667259],[21.4502169,46.6668238],[21.4498438,46.6667852],[21.4492518,46.66667],[21.4487382,46.6665253],[21.4484108,46.6663904],[21.4477418,46.6661097],[21.4471094,46.6659732],[21.4466199,46.6659481],[21.4453879,46.6660432],[21.4439159,46.6661291],[21.4421532,46.666715],[21.4419666,46.6671191],[21.4417525,46.6678263],[21.4412193,46.6685551],[21.4408735,46.6689258],[21.4405113,46.6691794],[21.438713,46.6697387],[21.4384207,46.6699526],[21.4378765,46.6704662],[21.4375158,46.6710979],[21.4367737,46.6722692],[21.4357579,46.6736987],[21.4357215,46.6739618],[21.4350593,46.6748524],[21.4343175,46.6757432],[21.4330661,46.6767203],[21.4314951,46.6775646],[21.4310613,46.6779737],[21.4310053,46.6780504],[21.4302689,46.6799955],[21.4302886,46.6804744],[21.4303578,46.6807356],[21.4305707,46.6809239],[21.4312957,46.6813799],[21.4315535,46.6816375],[21.4316425,46.6818491],[21.4316625,46.6820293],[21.4316313,46.6821954],[21.4314952,46.6824592],[21.4306413,46.6831525],[21.4298071,46.6841008],[21.4293428,46.6849921],[21.4290722,46.6853088],[21.4285165,46.6858203],[21.428337,46.6867044],[21.4285942,46.6876707],[21.428576,46.6877988],[21.4285153,46.6879318],[21.4279187,46.6885087],[21.4276153,46.688994],[21.4275941,46.6892844],[21.4278114,46.6897403],[21.4290383,46.691217],[21.4300895,46.6924878],[21.4302987,46.6930268],[21.4303318,46.6935676],[21.4301998,46.6937473],[21.4299905,46.693885]],[[22.4308162,46.5802004],[22.4307749,46.5804427],[22.4305086,46.5809969],[22.4305349,46.5814867],[22.4307186,46.5817265],[22.4311537,46.5821054],[22.4314162,46.5822575],[22.4317875,46.58234],[22.4320313,46.5825179],[22.4319863,46.5827267],[22.4318476,46.5827808],[22.4315738,46.5827731],[22.43124,46.5827731],[22.4311087,46.5828401],[22.4308574,46.5831185],[22.4309099,46.5832912],[22.4309774,46.583518],[22.4309774,46.5836057],[22.4306624,46.5837655],[22.4302836,46.5838145],[22.4300961,46.5837423],[22.4300248,46.5835618],[22.4298073,46.5829432],[22.429631,46.5826957],[22.4294472,46.5826364],[22.4291284,46.5825668],[22.4288284,46.5826364],[22.4284983,46.5825978],[22.4282508,46.5826442],[22.4280295,46.582804],[22.427947,46.5830643],[22.427992,46.5832912],[22.4281458,46.583384],[22.4285058,46.5834252],[22.4289371,46.5833582],[22.4291809,46.5833891],[22.4293234,46.5835206],[22.4292334,46.583701],[22.4290234,46.583781],[22.4289446,46.5839614],[22.4288284,46.5843274],[22.4287496,46.5847347],[22.4285808,46.5850311],[22.428172,46.5852863],[22.4281045,46.5854822],[22.4281608,46.5858328],[22.4282695,46.5862065],[22.4284496,46.5864256],[22.4287721,46.5865932],[22.4291322,46.5866318],[22.4293985,46.5867117],[22.429496,46.5867942],[22.429466,46.5872633],[22.4293084,46.5874721],[22.4292709,46.5877892],[22.4292709,46.5881887],[22.4291509,46.5883407],[22.4286859,46.5884645],[22.4284421,46.5885366],[22.4281533,46.5887119],[22.4279695,46.5888305],[22.4279545,46.5890908],[22.4282433,46.5892609],[22.4287684,46.5893743],[22.4289296,46.5895728],[22.4288359,46.5897351],[22.4286221,46.5898795],[22.4285096,46.5900419],[22.428262,46.5901243],[22.428052,46.59023],[22.4280745,46.5903821],[22.4280333,46.5905625],[22.4278607,46.5907867],[22.4275119,46.5909568],[22.4270394,46.5910393],[22.4265518,46.5911037],[22.4261655,46.5911321],[22.4259367,46.5911656],[22.4258242,46.591261],[22.4257762,46.5913491],[22.4258392,46.5914182],[22.4260417,46.5915007],[22.4262475,46.5915976],[22.4263424,46.5917855],[22.4262813,46.592028],[22.4262025,46.5921775],[22.4260973,46.5923194],[22.4259964,46.5923977],[22.4258433,46.5924622],[22.4255874,46.5925099],[22.4254074,46.5924558],[22.4252799,46.5922986],[22.4250886,46.5921414],[22.4248523,46.5921801],[22.4244998,46.5923012],[22.4242598,46.5923579],[22.4239785,46.5925254],[22.4235472,46.5926929],[22.4231871,46.5929146],[22.4227483,46.5931156],[22.4224633,46.5933759],[22.4221107,46.5936053],[22.4217544,46.5937625],[22.4211806,46.5938527],[22.4206517,46.5939635],[22.4203217,46.5941182],[22.4199692,46.5944738],[22.4199016,46.5948269],[22.4198507,46.5950691],[22.4200549,46.5953434],[22.420434,46.5954612],[22.4205968,46.5956832],[22.4207415,46.5959661],[22.420725,46.5962396],[22.4205959,46.5964644],[22.4203229,46.5968161],[22.4199947,46.597017],[22.4188152,46.5967921],[22.4186602,46.5968242],[22.4181989,46.5973241],[22.4179889,46.5974375],[22.4168825,46.5976823],[22.4163541,46.5976752],[22.4161018,46.5975824],[22.4159511,46.5973708],[22.4157695,46.5972525],[22.4154991,46.5972574],[22.4152829,46.5972985],[22.4149495,46.5974091],[22.4147171,46.5975026],[22.4144456,46.5977586],[22.414247,46.5982111],[22.4142346,46.5987183],[22.4142719,46.5990336],[22.4143923,46.5993174],[22.4146904,46.5996817],[22.4148497,46.5999063],[22.4149656,46.6001694],[22.4150024,46.6003844],[22.4149614,46.6005713],[22.4147564,46.600806],[22.4145084,46.6009603],[22.4140508,46.6011922],[22.4136846,46.6014536],[22.4132589,46.6022535],[22.4114648,46.6064889],[22.4101253,46.6071946],[22.409172,46.607437],[22.4084998,46.6078825],[22.4080057,46.608767],[22.4083958,46.610232],[22.4078887,46.6107591],[22.4067313,46.6108931],[22.4047027,46.610768],[22.4036624,46.6112415],[22.4031162,46.6118936],[22.4029341,46.6126797],[22.4020759,46.6132246],[22.4010095,46.613698],[22.3996701,46.6144394],[22.3985518,46.6153416],[22.396068,46.61594],[22.3934672,46.616467],[22.3930121,46.6174406],[22.3912045,46.6185393],[22.3898391,46.6184589],[22.3886427,46.6178872],[22.3874724,46.6177533],[22.3870432,46.6184589],[22.3867051,46.6194682],[22.3855608,46.6200398],[22.3837012,46.6204238],[22.3824268,46.6203792],[22.3814645,46.6203613],[22.3803462,46.6212545],[22.379644,46.6225138],[22.3786297,46.6229603],[22.3775561,46.6230947],[22.3761459,46.6234962],[22.3751706,46.623916],[22.3745724,46.6246483],[22.3744684,46.6254074],[22.3736881,46.6265952],[22.3725695,46.6296828],[22.3717604,46.6308699],[22.3705282,46.6317287],[22.3682662,46.6329663],[22.3677696,46.6336229],[22.3677696,46.6351761],[22.3673467,46.6364641],[22.3660593,46.6386486],[22.3650662,46.639785],[22.3640732,46.6416537],[22.3647536,46.6428279],[22.3640916,46.6439011],[22.3634295,46.6447597],[22.3608548,46.6466661],[22.3579308,46.6485598],[22.3548779,46.6501631],[22.3530205,46.6508826],[22.3509608,46.6518547],[22.3502987,46.6527005],[22.3500597,46.654089],[22.3500964,46.6551115],[22.3499401,46.6556985],[22.3486252,46.6561087],[22.3475402,46.6563738],[22.3463632,46.6563675],[22.3454712,46.6568981],[22.3451034,46.6575229],[22.3447676,46.658565],[22.3447708,46.6594888],[22.3446961,46.659973],[22.3440816,46.6608677],[22.3433195,46.6615722],[22.3421492,46.6625762],[22.3406407,46.6636249],[22.3401401,46.6638792],[22.3392103,46.6639506],[22.3378904,46.6639283],[22.3362844,46.6639461],[22.3348214,46.6637766],[22.3327668,46.6632188],[22.3310178,46.6624602],[22.330088,46.6621657],[22.328586,46.6621256],[22.3275614,46.6625265],[22.3271569,46.6630566],[22.3272212,46.663877],[22.3268074,46.66459],[22.3262649,46.6652148],[22.3254006,46.6655681],[22.3242971,46.6655618],[22.3232857,46.6653978],[22.3230558,46.6650191],[22.3229822,46.6642745],[22.3229822,46.6634731],[22.3222282,46.6627789],[22.3212811,46.6622236],[22.3204168,46.6619081],[22.3199108,46.6619199],[22.3193501,46.6624382],[22.3186973,46.6633153],[22.3179065,46.6637192],[22.3165364,46.6637003],[22.3156444,46.6640473],[22.3148169,46.6647162],[22.3139893,46.6652842],[22.3127388,46.665789],[22.3120951,46.6661865],[22.3118836,46.6665715],[22.3120951,46.667051],[22.3122054,46.6676568],[22.3118928,46.6680985],[22.311056,46.6685213],[22.3105779,46.6686727],[22.3098423,46.6686159],[22.3089319,46.6682436],[22.3085273,46.6678903],[22.3084078,46.6673792],[22.3083067,46.6668239],[22.3078285,46.6662496],[22.3071573,46.666054],[22.3063573,46.6659657],[22.3054561,46.6660351],[22.3044171,46.6662496],[22.3037734,46.6667103],[22.3032309,46.6670447],[22.3025597,46.6670952],[22.30187,46.666887],[22.3008731,46.6663168],[22.3003237,46.6663056],[22.2998393,46.6662632],[22.2994362,46.666058],[22.2986527,46.6657233],[22.297375,46.6654757],[22.2968461,46.6652912],[22.2962944,46.6651966],[22.295522,46.6653732],[22.293683,46.6656383],[22.292506,46.6655941],[22.291375,46.6655752],[22.2906945,46.6657582],[22.2900049,46.6659853],[22.2894072,46.6665028],[22.2890854,46.6665785],[22.2885139,46.6672271],[22.2880266,46.6683187],[22.2878611,46.6701296],[22.2871898,46.6711392],[22.286114,46.6722118],[22.2857002,46.6727103],[22.2852864,46.6730068],[22.2847163,46.6730447],[22.2843577,46.6728995],[22.2838979,46.6725525],[22.2837048,46.6720604],[22.2834014,46.6717007],[22.2827301,46.6716187],[22.2820313,46.6716944],[22.2818106,46.671909],[22.28216,46.6738396],[22.2824175,46.6746094],[22.2821876,46.6749942],[22.2812865,46.6752087],[22.279852,46.6755999],[22.2792359,46.6759154],[22.2785371,46.6766346],[22.2782521,46.6773475],[22.2786015,46.6781677],[22.2790153,46.6788995],[22.2788038,46.6795303],[22.277967,46.6801738],[22.2770199,46.6808488],[22.2767702,46.6812007],[22.2755763,46.6818519],[22.2744544,46.682142],[22.2732958,46.682243],[22.2722108,46.6825269],[22.2716783,46.6827823],[22.2710798,46.6830694],[22.2702154,46.6838894],[22.2691764,46.6851763],[22.2682477,46.6859206],[22.2663994,46.6860468],[22.2650477,46.6860594],[22.2646546,46.6861167],[22.2642592,46.6864778],[22.2635834,46.6868579],[22.2630087,46.6870092],[22.2625949,46.6870502],[22.2618601,46.686942],[22.2615245,46.6867149],[22.2609865,46.6861188],[22.2606739,46.6856583],[22.2603245,46.6850843],[22.2602647,46.6845481],[22.2602946,46.6838574],[22.2602026,46.6832849],[22.2597814,46.6821656],[22.2591897,46.6811486],[22.258468,46.680252],[22.2579153,46.6797613],[22.256732,46.6791948],[22.2554641,46.6789851],[22.2544303,46.6789539],[22.2538841,46.6791055],[22.2531559,46.6795427],[22.2516084,46.6801449],[22.2510687,46.6801851],[22.250295,46.6800959],[22.2495928,46.6802341],[22.248728,46.6803903],[22.2476227,46.6804973],[22.2466604,46.680649],[22.2460297,46.680591],[22.2451649,46.6803635],[22.2442741,46.6799888],[22.2437904,46.6798317],[22.2428567,46.6793821],[22.2421415,46.6790074],[22.2417579,46.678539],[22.2417644,46.6776602],[22.2418164,46.6769821],[22.2421651,46.6764294],[22.2426072,46.6759387],[22.2428673,46.6754122],[22.2429128,46.6747832],[22.2429714,46.6741943],[22.243329,46.6732664],[22.2434005,46.6726908],[22.24329,46.6721108],[22.2429974,46.6717628],[22.2425747,46.6715308],[22.2420286,46.6714505],[22.2413328,46.671455],[22.2406631,46.6716067],[22.2392717,46.6719547],[22.2380103,46.6721778],[22.2371651,46.6724633],[22.236181,46.6729232],[22.2355799,46.6730467],[22.2343676,46.6729565],[22.2329004,46.6729013],[22.2317795,46.6734146],[22.2303147,46.6742724],[22.2295151,46.675344],[22.2284194,46.6756774],[22.2268148,46.6761695],[22.2253029,46.6766706],[22.2240891,46.6773456],[22.2228477,46.6778188],[22.2214501,46.67821],[22.2205489,46.6782857],[22.2200297,46.6784169],[22.2183513,46.6788408],[22.2169168,46.6791373],[22.2153996,46.6795222],[22.2148143,46.679843],[22.2138272,46.6804054],[22.2129905,46.6806135],[22.2121905,46.6806135],[22.2100664,46.680582],[22.209721,46.6804776],[22.2088342,46.6796988],[22.2074917,46.6789481],[22.2065354,46.6786768],[22.2049814,46.6783046],[22.203924,46.6779702],[22.2032159,46.6779134],[22.2026642,46.6772132],[22.201901,46.6767778],[22.2004482,46.6759135],[22.1993356,46.6751564],[22.1992252,46.6749482],[22.1993356,46.6741659],[22.199593,46.6732762],[22.1996666,46.6725759],[22.1996206,46.6721279],[22.199354,46.6717557],[22.1987471,46.6715033],[22.1980666,46.6715096],[22.1971471,46.6716863],[22.195869,46.672027],[22.1943977,46.6725696],[22.1934046,46.6731248],[22.1926186,46.6736259],[22.1918231,46.6744309],[22.1904346,46.6755097],[22.1894139,46.6759829],[22.1887611,46.6761722],[22.1879519,46.6761974],[22.1870875,46.6764939],[22.1864071,46.6766517],[22.185506,46.6765065],[22.1839428,46.6761343],[22.1832531,46.6754529],[22.1828853,46.6746391],[22.18226,46.6741596],[22.1812118,46.6732762],[22.1804302,46.6723803],[22.1798509,46.6717178],[22.1794463,46.6713834],[22.1786371,46.6710995],[22.1783442,46.6709596],[22.177267,46.6708597],[22.1766969,46.6709859],[22.1756855,46.6714717],[22.1748395,46.6720711],[22.1739292,46.6727399],[22.1725775,46.6737873],[22.1718694,46.674229],[22.1711338,46.6746264],[22.1704442,46.6752447],[22.1701775,46.6756359],[22.1698557,46.6765065],[22.1695247,46.6770996],[22.1693775,46.6778314],[22.16935,46.6785317],[22.1691844,46.6787967],[22.1687891,46.6790112],[22.1674741,46.6796294],[22.1665178,46.6800395],[22.1655247,46.680317],[22.1648811,46.6805505],[22.1640443,46.6810236],[22.1635478,46.6812696],[22.1628306,46.6813895],[22.1618099,46.6815283],[22.1603478,46.6816355],[22.159272,46.6816734],[22.1583709,46.6815093],[22.1575341,46.6810804],[22.1563663,46.6805],[22.1552813,46.6802792],[22.1537641,46.6802729],[22.1527158,46.6803107],[22.1514377,46.6803864],[22.150748,46.6803738],[22.1498377,46.6804558],[22.1490561,46.6806199],[22.1477884,46.6810943],[22.1470883,46.6814021],[22.1460953,46.6819005],[22.1452677,46.6822727],[22.1443941,46.682525],[22.143824,46.682443],[22.1428402,46.6821528],[22.141939,46.6820645],[22.1409092,46.6819762],[22.1394379,46.6820203],[22.1378655,46.6817238],[22.1364219,46.6814273],[22.1351162,46.6811182],[22.133838,46.6809037],[22.13313,46.6809605],[22.1324677,46.6810684],[22.1315392,46.6812002],[22.130399,46.6811372],[22.1297554,46.6811498],[22.1291393,46.6812444],[22.1285784,46.681604],[22.1280359,46.6823294],[22.1275393,46.6834145],[22.1270335,46.6845407],[22.1269263,46.6850449],[22.1273071,46.6865168],[22.1281974,46.688436],[22.1282781,46.6887358],[22.1262883,46.6897827],[22.1214894,46.691686],[22.1178048,46.6921661],[22.1165788,46.6911032],[22.1128804,46.6895996],[22.110465,46.6892374],[22.1098867,46.6893626],[22.1083364,46.6899449],[22.1075915,46.6911049],[22.1078369,46.6916924],[22.1085718,46.6920163],[22.1096796,46.6926159],[22.1110891,46.6959135],[22.1111602,46.6965143],[22.1104789,46.6971361],[22.1106076,46.6977763],[22.1114981,46.6981847],[22.1134556,46.6985031],[22.1140838,46.6990677],[22.1143305,46.7001861],[22.1144524,46.7012242],[22.1140272,46.702469],[22.1115643,46.7034475],[22.1041965,46.7037529],[22.1036302,46.7038518],[22.1026989,46.7048987],[22.1025477,46.7065997],[22.1053544,46.7111122],[22.104893,46.7138136],[22.1032525,46.7145993],[22.1029103,46.7155276],[22.1046269,46.7169031],[22.106454,46.7172481],[22.1104516,46.717193],[22.1110631,46.7177343],[22.1107466,46.718286],[22.109398,46.71914],[22.1092982,46.7234346],[22.1086728,46.7245327],[22.1065871,46.7256249],[22.1040594,46.7264147],[22.1010993,46.7271369],[22.0968861,46.7293351],[22.0956705,46.7307331],[22.0971442,46.7331482],[22.0975545,46.7339812],[22.0973506,46.7347643],[22.094854,46.7360945],[22.0917722,46.7361658],[22.0895019,46.7369592],[22.0884237,46.7385997],[22.0889848,46.7400768],[22.0895084,46.7406245],[22.0902926,46.741026],[22.0904461,46.7413308],[22.0906144,46.7420443],[22.0900126,46.7437453],[22.0903248,46.7446653],[22.0902535,46.7454123],[22.0884081,46.7474281],[22.0872666,46.7496442],[22.081215,46.7511461],[22.0785097,46.7513394],[22.0727928,46.7524891],[22.070868,46.7522998],[22.0694423,46.7524183],[22.0685077,46.7528731],[22.0679725,46.7534989],[22.0680463,46.7543139],[22.0683253,46.7548137],[22.0679725,46.7556747],[22.067188,46.7563573],[22.0632947,46.7577622],[22.0578337,46.7616135],[22.0547438,46.7627894],[22.0531989,46.7625542],[22.0513106,46.7610255],[22.0499373,46.7611431],[22.049079,46.7632598],[22.0477057,46.7639653],[22.0456458,46.7639653],[22.040597,46.7661398],[22.0397323,46.7673175],[22.0420626,46.767849],[22.0420513,46.7689368],[22.0396304,46.7696447],[22.0364182,46.7689107],[22.0354587,46.7699698],[22.0370302,46.7717555],[22.0363262,46.7725792],[22.0346981,46.7723882],[22.0336295,46.7701972],[22.0315695,46.7703148],[22.0309243,46.7706295],[22.0296015,46.7712747],[22.0277322,46.7712136],[22.0259047,46.7703148],[22.0236731,46.7698445],[22.0210388,46.770399],[22.0186955,46.7694119],[22.0169627,46.7692396],[22.0148148,46.7704131],[22.0124696,46.7709276],[22.0110903,46.7708869],[22.010136,46.7708649],[22.0090883,46.770683],[22.0083329,46.7704737],[22.0073579,46.7703797],[22.0068097,46.7704884],[22.0061447,46.7708242],[22.0061597,46.7713871],[22.0065539,46.7721098],[22.0067705,46.7728791],[22.0065762,46.7733176],[22.0060878,46.7736282],[22.0051482,46.7737824],[22.0042025,46.7733924],[22.0034242,46.7734219],[22.0025619,46.773832],[22.0020047,46.7743067],[22.0015372,46.774482],[22.0008438,46.7744241],[22.0001824,46.7739403],[21.9992034,46.7736035],[21.9978388,46.77339],[21.9964373,46.7729873],[21.9957176,46.7729237],[21.9946313,46.7730118],[21.9931618,46.7736101],[21.9918978,46.7737959],[21.9902233,46.7737443],[21.9893914,46.7734416],[21.9891338,46.7730653],[21.9893567,46.7726455],[21.989296,46.771631],[21.989735,46.7708149],[21.9898472,46.770187],[21.9897504,46.7697567],[21.9894734,46.7692511],[21.9886133,46.7685944],[21.9877568,46.7685456],[21.9863428,46.7689009],[21.9857436,46.7692877],[21.9852471,46.7698088],[21.9853068,46.7704987],[21.9847439,46.7708722],[21.9839186,46.7710704],[21.9826714,46.7709371],[21.9817718,46.7711804],[21.980699,46.7715235],[21.9799112,46.772304],[21.9796004,46.7730512],[21.979599,46.7737987],[21.9791742,46.7741511],[21.9789056,46.7742377],[21.9780095,46.7741372],[21.97688,46.7738],[21.9755846,46.7731806],[21.9749749,46.7724945],[21.9746124,46.7721025],[21.9742798,46.7707571],[21.9733087,46.7701724],[21.97045,46.7694916],[21.9658484,46.7685061],[21.9604759,46.7680803],[21.959852,46.7702904],[21.9581821,46.7715076],[21.9560953,46.7714621],[21.9516552,46.7711354],[21.9491044,46.7708044],[21.9474806,46.7703062],[21.9457161,46.7706696],[21.943978,46.7718318],[21.9427163,46.7716991],[21.9402982,46.7699149],[21.9387028,46.7692028],[21.936128,46.768768],[21.934111,46.7687621],[21.9320939,46.7684349],[21.9304498,46.7683043],[21.9292074,46.7681035],[21.9273177,46.7673359],[21.9256569,46.7667791],[21.9242456,46.7665059],[21.9225617,46.7657566],[21.9218388,46.7647829],[21.9220105,46.763607],[21.9223538,46.7619608],[21.9220105,46.76102],[21.9213239,46.7600792],[21.9190923,46.7600792],[21.917204,46.7607848],[21.9163457,46.7619608],[21.9148007,46.7623135],[21.9118825,46.7623135],[21.9105092,46.7617256],[21.9105092,46.7609024],[21.9118825,46.7601968],[21.9118825,46.7594912],[21.9108525,46.7587857],[21.9078078,46.7589373],[21.9065788,46.7592976],[21.9053415,46.7607071],[21.9042128,46.7611358],[21.9030029,46.7608089],[21.9021027,46.7598426],[21.9023197,46.7586526],[21.9021623,46.7582646],[21.9032132,46.7577754],[21.9041055,46.7578147],[21.9050556,46.7575187],[21.9061333,46.7557605],[21.9063519,46.7551025],[21.9039036,46.7530854],[21.9008158,46.7514453],[21.8988422,46.7508296],[21.8979362,46.7510908],[21.8981282,46.7520958],[21.8979032,46.752857],[21.8979257,46.7547445],[21.897429,46.7554176],[21.8939523,46.7552666],[21.8929599,46.7547035],[21.8933287,46.7532909],[21.8915799,46.753267],[21.8901334,46.7545242],[21.8890881,46.7545708],[21.8884092,46.753956],[21.8867162,46.7541204],[21.8862691,46.7543419],[21.8854041,46.7537751],[21.88579,46.7523172],[21.8851104,46.7519387],[21.8839798,46.7507491],[21.8830987,46.7491337],[21.8819636,46.7489251],[21.8800306,46.7510049],[21.8786288,46.7504382],[21.8789235,46.7485535],[21.8780652,46.7472596],[21.8772069,46.7466715],[21.8760053,46.7466715],[21.8749753,46.7470243],[21.8729153,46.7472596],[21.8718854,46.7472596],[21.8705121,46.7465538],[21.8703404,46.7457304],[21.8689671,46.7444365],[21.8672505,46.7442012],[21.8653622,46.7442012],[21.8627873,46.7446718],[21.8617574,46.7438483],[21.8596974,46.7437307],[21.8578091,46.743966],[21.8567792,46.7434954],[21.8554059,46.7427896],[21.8556013,46.7424771],[21.8559209,46.7419662],[21.8566075,46.7407898],[21.8570283,46.7396644],[21.8566075,46.738084],[21.8539518,46.7360248],[21.8531342,46.7338552],[21.8523103,46.7331614],[21.8493137,46.732708],[21.8483685,46.7323474],[21.8482263,46.7307398],[21.8477505,46.7279431],[21.8470113,46.7263626],[21.8461364,46.7258916],[21.8439428,46.7255463],[21.8408519,46.7242706],[21.8376611,46.7244979],[21.8354719,46.7241724],[21.8336049,46.7233763],[21.8320599,46.7224349],[21.8313779,46.7203797],[21.8298272,46.7187559],[21.8282884,46.7181381],[21.8270818,46.7171391],[21.8263951,46.7153737],[21.8263951,46.7132551],[21.8262235,46.7110188],[21.8262235,46.7100771],[21.8243352,46.7098417],[21.8229708,46.7092505],[21.8232847,46.7071496],[21.8231392,46.7066902],[21.8228117,46.706178],[21.8218249,46.7058919],[21.820623,46.7058065],[21.8190029,46.7058101],[21.8177158,46.7054395],[21.8165514,46.7049971],[21.8147221,46.7041915],[21.8116322,46.7037206],[21.8078792,46.7030608],[21.8051172,46.7023399],[21.8004742,46.7012484],[21.7975323,46.7002469],[21.7969045,46.6994155],[21.7967627,46.6977121],[21.7948094,46.6940667],[21.7930798,46.6927741],[21.7893915,46.6909956],[21.7862733,46.6895494],[21.781277,46.6883064],[21.7788158,46.6867237],[21.7781037,46.6847617],[21.7767248,46.6835986],[21.7746485,46.6836467],[21.7697062,46.6848247],[21.7681581,46.6860882],[21.766142,46.6852353],[21.7645862,46.6862203],[21.761235,46.6872065],[21.7597166,46.6883425],[21.7589322,46.687826],[21.7563573,46.6865307],[21.7540504,46.6851047],[21.7531916,46.6832316],[21.752924,46.6825268],[21.7503491,46.680878],[21.7486367,46.6788078],[21.7479406,46.6768205],[21.7467442,46.6764026],[21.7410924,46.6762379],[21.7382742,46.6769092],[21.7361274,46.6767248],[21.7346546,46.6771054],[21.7317202,46.6771221],[21.7289004,46.6779758],[21.7273595,46.6764221],[21.7270932,46.6737725],[21.7257781,46.6729445],[21.7236763,46.6726466],[21.7234239,46.6716341],[21.7211252,46.6689061],[21.7204635,46.6677953],[21.7174793,46.6674485],[21.7160258,46.6663438],[21.7156735,46.6658013],[21.7128952,46.6652768],[21.7123896,46.6645629],[21.7118638,46.6626852],[21.7108808,46.6606745],[21.7082042,46.6600083],[21.7048571,46.6589214],[21.7028374,46.6588553],[21.7011009,46.659301],[21.6985274,46.6593767],[21.6972793,46.659643],[21.6961528,46.6603205],[21.694978,46.661933],[21.6909815,46.6636192],[21.6894741,46.664823],[21.6887928,46.6649629],[21.6877897,46.6647862],[21.6853328,46.6640904],[21.6821034,46.6641972],[21.6799362,46.6639726],[21.6787614,46.6641309],[21.6745235,46.6642708],[21.671801,46.663318],[21.6705592,46.6632842],[21.6692878,46.6634793],[21.6674623,46.6646918],[21.6642506,46.6646205],[21.662196,46.6629712],[21.6595407,46.6623675],[21.6583632,46.6623093],[21.6536398,46.6626988],[21.6529344,46.662648],[21.6518964,46.6625589],[21.6502763,46.6631664],[21.6498686,46.6643444],[21.6492168,46.6647096],[21.6475887,46.6647825],[21.6459204,46.6643997],[21.6443647,46.6635492],[21.6433508,46.662014],[21.6410549,46.6604825],[21.6393141,46.6595628],[21.6383968,46.6576151],[21.6365809,46.6553278],[21.6356449,46.6542166],[21.6348134,46.6537747],[21.6324021,46.6530854],[21.630892,46.6507405],[21.6304575,46.6493854],[21.6299961,46.6490356],[21.6293524,46.648822],[21.6255785,46.6476097],[21.6206003,46.6455253],[21.6190876,46.6452601],[21.6165878,46.6454664],[21.6139056,46.644612],[21.6109551,46.6439491],[21.6100861,46.6439564],[21.6081227,46.6447225],[21.6053654,46.6454222],[21.6028763,46.6471825],[21.5989152,46.6476123],[21.5970076,46.6471972],[21.5952803,46.6470794],[21.5937568,46.646306],[21.5928663,46.6461072],[21.59189,46.6464091],[21.5906991,46.6470205],[21.5890039,46.6464828],[21.5881671,46.6466669],[21.5875877,46.6469394],[21.5867294,46.6479485],[21.585281,46.6486408],[21.5840687,46.6495761],[21.5835429,46.6497382],[21.5827168,46.6497161],[21.5807213,46.6493847],[21.5798603,46.6495658],[21.5783969,46.6502298],[21.5759383,46.6503395],[21.5722525,46.6498192],[21.5712439,46.6493],[21.5700356,46.6480405],[21.5702979,46.6465027],[21.5693543,46.6440966],[21.5673749,46.642638],[21.5669323,46.6404841],[21.5654171,46.6394044],[21.5616668,46.639008],[21.5600031,46.6383019],[21.5590946,46.638124],[21.5567193,46.6383553],[21.5547871,46.6382368],[21.551823,46.6381519],[21.5499723,46.6380267],[21.5481823,46.6378323],[21.5416678,46.6388319],[21.5383407,46.6383877],[21.5338765,46.6351464],[21.5305699,46.6301529],[21.5292513,46.629327],[21.5292145,46.6282207],[21.5296493,46.6255421],[21.5288093,46.6250396],[21.5243251,46.6246218],[21.522799,46.6251751],[21.5198668,46.6254815],[21.5191481,46.6259053],[21.5165115,46.6272501],[21.5142266,46.6285343],[21.5138433,46.6293079],[21.5136183,46.6308657],[21.5111034,46.63262],[21.5087868,46.6360005],[21.5062658,46.6393973],[21.504406,46.6403151],[21.5003604,46.6402414],[21.499447,46.6407624],[21.4987396,46.6419833],[21.4981068,46.6424817],[21.4965039,46.6426132],[21.4950164,46.6429929],[21.4910488,46.6457951],[21.4892742,46.6461097],[21.4878584,46.6463863],[21.4873659,46.6467914],[21.4867379,46.6480474],[21.4854725,46.6490635],[21.4834008,46.6494483],[21.4816836,46.650247],[21.4800409,46.6514698],[21.4798791,46.6518978],[21.4801181,46.6522444],[21.4812061,46.6526688],[21.4828295,46.6532542],[21.4832233,46.6535569],[21.4834237,46.6538859],[21.4832598,46.6544289],[21.4824638,46.6555728],[21.481417,46.6560207],[21.4795662,46.6563219],[21.4772397,46.6572251],[21.4742376,46.6593108],[21.4715376,46.6617398],[21.4702387,46.6623167],[21.4671531,46.6626833],[21.4651063,46.6630674],[21.4643731,46.6634625],[21.463716,46.6645166],[21.4624445,46.666258],[21.4616885,46.6669002],[21.4607381,46.6673178],[21.459394,46.6674704],[21.4585384,46.6674881],[21.4573899,46.6674377],[21.4567156,46.6673461]]]},"properties":{"name":"Crișul Negru","name_ro":"Crișul Negru","type":"river","source":"manual_premap","source_detail":"HOTOSM Waterways HDX snapshot 2026-08-07, waterway=river name match (3 segments, 1626 points), ANCPI validation: see README","osm_type":"way","osm_id":"way/1381088896","geocode_tier":"tier1","confidence":"high"}}]}