{"type":"FeatureCollection","metadata":{"pipeline":"tier1_premap","pipeline_version":"1.0","generated_at":"2026-08-11T10:41:30.888054+00:00"},"features":[{"type":"Feature","id":"dunarea","geometry":{"type":"MultiLineString","coordinates":[[[24.6509076,43.7244931],[24.6805569,43.7172174],[24.6967337,43.7133283],[24.7091984,43.7100439],[24.7216054,43.7080511],[24.7368618,43.7063875],[24.7502729,43.7059338],[24.7631475,43.706752],[24.7757216,43.7068256],[24.7888828,43.7076459],[24.8017197,43.7077506]],[[25.8076211,43.7411737],[25.8170574,43.7439403],[25.8244338,43.7466449],[25.8383485,43.7519935],[25.844936,43.7551164],[25.8520814,43.7605332],[25.8582092,43.7641142],[25.8639558,43.7701396]],[[25.8639558,43.7701396],[25.8665907,43.770567],[25.8687602,43.7710443],[25.8717406,43.7722249],[25.8740929,43.7734858],[25.877827,43.7761752],[25.881399,43.7805296],[25.8880428,43.7928844],[25.891559,43.798278],[25.8969829,43.8032666],[25.9119438,43.818099],[25.9199914,43.8279629],[25.9241544,43.8332954],[25.9278657,43.8375047],[25.9360205,43.8442378],[25.9528863,43.8592242],[25.9847712,43.8779171],[25.9966889,43.8839247],[26.0007957,43.8867202],[26.0060581,43.88917],[26.0192728,43.8927897],[26.0294031,43.8955237],[26.0323181,43.8961705],[26.0370322,43.8975902],[26.0422777,43.899536],[26.0504531,43.9028293],[26.0555255,43.9052479],[26.0600071,43.9080354],[26.0614639,43.9091012],[26.0632396,43.9110413],[26.0671211,43.9175985],[26.0716273,43.9259512],[26.0741186,43.9307012],[26.0761817,43.934556],[26.0786033,43.939285],[26.0804401,43.9433841],[26.0823172,43.9466548],[26.0839807,43.948969],[26.0942696,43.9591797],[26.1042046,43.9705624],[26.1239885,43.9739597],[26.1468732,43.9840193],[26.1522031,43.9840301],[26.1541557,43.9841845],[26.1665928,43.9865591],[26.1735665,43.9878482],[26.1881371,43.9855361],[26.2049338,43.9860083],[26.2492561,43.9999461],[26.2630986,44.0067188],[26.2699413,44.0090291],[26.2773572,44.0123441],[26.2855947,44.0164519],[26.29053,44.0199238],[26.2924719,44.0210656],[26.2963343,44.0232412],[26.2984693,44.0242595],[26.3052522,44.0265708],[26.3145228,44.0296587],[26.3317609,44.0351129],[26.3361168,44.0361156],[26.3401079,44.0365938],[26.343348,44.0366555],[26.348569,44.0364163],[26.352489,44.0358996],[26.3560295,44.0348506],[26.363368,44.0313025],[26.3657566,44.0304771],[26.3694834,44.0301839],[26.3807702,44.0307934],[26.390669,44.0314721],[26.3973141,44.0322744],[26.4033329,44.0331691],[26.4101955,44.0343569],[26.4181494,44.0352054],[26.4261125,44.0364365],[26.4462375,44.0402804],[26.4598417,44.041607],[26.4681911,44.0424677],[26.4851618,44.0427638],[26.4928758,44.0433499],[26.5008282,44.0446425],[26.5142584,44.0474526],[26.5189791,44.0484011],[26.5233779,44.0494729],[26.5314054,44.0508272],[26.5410912,44.0520022],[26.5486765,44.0531665],[26.5552425,44.0542691],[26.5653192,44.0579209],[26.5706813,44.0582631],[26.5787601,44.0571297],[26.5851032,44.0563094],[26.5965485,44.0539144],[26.6017758,44.0532021],[26.6057646,44.0532436],[26.6098952,44.0536831],[26.6180774,44.0553948],[26.6227614,44.0564328],[26.627394,44.0573996],[26.6358804,44.0592037],[26.6413951,44.0607997],[26.6462682,44.0620996]],[[26.6462682,44.0620996],[26.65387,44.0642555],[26.6581343,44.0657461],[26.6625202,44.0676841],[26.6682172,44.0708601],[26.6702342,44.0717928],[26.6846668,44.0760986],[26.6914666,44.0782058],[26.6987622,44.0800787],[26.7051535,44.0809543],[26.7107805,44.0810739],[26.7159283,44.0809457],[26.7193293,44.0805257],[26.7262816,44.0785218],[26.7323112,44.0766719],[26.7381608,44.075112],[26.7429864,44.0746987],[26.7491623,44.0752459],[26.7550778,44.0760091],[26.7626868,44.0776941],[26.7766484,44.0815337],[26.7839526,44.0844627],[26.8099583,44.0961835],[26.8158663,44.098974],[26.8252125,44.1049133],[26.8304556,44.1066499],[26.837187,44.1081434],[26.8468302,44.1111215],[26.853868,44.1138026],[26.8639833,44.117929],[26.8782119,44.1216977],[26.8862271,44.1235316],[26.8930957,44.1253379],[26.9043695,44.1288118],[26.9153123,44.1313892],[26.9207098,44.1328887],[26.9251552,44.1338421],[26.9290867,44.1349616],[26.9329284,44.1365023],[26.9388094,44.1383488],[26.942296,44.1385093],[26.9485617,44.1374775],[26.9602078,44.1348636],[26.969043,44.1329884],[26.9771162,44.1325604],[26.9879043,44.131764],[26.9925379,44.1327467],[27.0012414,44.1356207],[27.0054427,44.137008],[27.0364331,44.1470753],[27.0409155,44.147802],[27.0462312,44.1484199],[27.0517945,44.1493725],[27.0534348,44.1495774],[27.055075,44.1496631],[27.0562948,44.1496598],[27.0574593,44.1495572],[27.0589936,44.1493221],[27.0605278,44.1489876],[27.0649504,44.1478452],[27.068038,44.1472939],[27.0757627,44.1467242],[27.0835541,44.1462131],[27.0855474,44.1459698],[27.0871353,44.1455694],[27.0902467,44.1441221],[27.0974802,44.1403927],[27.1026515,44.1382984],[27.1050095,44.1374852],[27.1060717,44.1372157],[27.1072629,44.1370286],[27.1079922,44.1370078],[27.1108204,44.1372122],[27.1172427,44.137898],[27.1241855,44.1385246],[27.1301431,44.1390936],[27.1320354,44.1393756],[27.1396553,44.1406545],[27.1426785,44.1408499],[27.1477265,44.1404447],[27.1557999,44.1380858],[27.1652175,44.1347323],[27.1716222,44.1311701],[27.1780483,44.1263608],[27.1825062,44.1227986],[27.1865724,44.1198009],[27.1898425,44.1185408],[27.1930718,44.1176858],[27.1947455,44.1173931],[27.1997988,44.1167384],[27.2100838,44.1159878],[27.2193575,44.1154598],[27.2294167,44.1152974],[27.2349304,44.1157139],[27.2375942,44.1161943],[27.2419073,44.1171152],[27.2470946,44.1188616],[27.249579,44.1197663],[27.2513965,44.1206011],[27.2531694,44.121404],[27.2556331,44.1224592],[27.2575335,44.1233216],[27.2623432,44.125586],[27.2650194,44.1268047],[27.2673448,44.1277172],[27.2712287,44.1293498],[27.2796292,44.1333261]],[[28.7347259,45.2285556],[28.738812,45.2274226],[28.740856,45.2265489],[28.7428832,45.2253253],[28.745545,45.2217005],[28.74871,45.2185114],[28.7524866,45.2163348],[28.7607263,45.2156093],[28.7630655,45.215567],[28.7741159,45.2153674],[28.7818407,45.2141581],[28.7899087,45.2110139],[28.7931703,45.2048459],[28.7911104,45.1963789],[28.7905954,45.1894834],[28.7919687,45.1848859],[28.7950586,45.1825871],[28.7991785,45.1814981],[28.802955,45.1814981],[28.803985,45.1830711],[28.8069289,45.1902792],[28.8071106,45.1907243],[28.8076863,45.1914393],[28.8125758,45.1953268],[28.8139413,45.196137],[28.8235544,45.2000078],[28.8347124,45.202185],[28.8448404,45.2028897],[28.8519998,45.2024645],[28.8572149,45.2015414],[28.8627167,45.2005043],[28.8670887,45.198846],[28.8743086,45.1963095],[28.8822626,45.1912981],[28.8872407,45.1885168]],[[25.0106717,43.7100888],[25.0112696,43.7090508],[25.0124819,43.7058555],[25.0175889,43.7028617],[25.0230821,43.7022412],[25.0297769,43.701993],[25.0399751,43.6973172],[25.0542541,43.6966067]],[[25.5104532,43.6484759],[25.5192264,43.6523784],[25.5263047,43.65273],[25.529857,43.6531513],[25.5324691,43.6532012],[25.5351817,43.6530597],[25.5374429,43.6527379],[25.5392753,43.6523198],[25.5409502,43.6517585],[25.5419886,43.6511681],[25.5428683,43.6504402],[25.5437048,43.6489896],[25.5437608,43.6480214],[25.5469379,43.6414803]],[[25.8639558,43.7701396],[25.8653724,43.7741461],[25.8655337,43.7765411],[25.8644359,43.7793845],[25.8643252,43.7821658],[25.8653451,43.784126],[25.8693963,43.7863539],[25.8743184,43.7878963],[25.8810089,43.7898792],[25.8880428,43.7928844]],[[25.877827,43.7761752],[25.8892854,43.7807611],[25.8982118,43.7852072],[25.9026964,43.7887546],[25.90746,43.7956164],[25.9091885,43.7999452],[25.9138973,43.8086252],[25.9167619,43.812682],[25.9186395,43.8179155],[25.9199914,43.8279629]],[[26.0370322,43.8975902],[26.042579,43.9030712],[26.0459018,43.9058238],[26.0495099,43.907802],[26.0571916,43.9116203],[26.0671211,43.9175985]],[[26.1042046,43.9705624],[26.1095881,43.9756613],[26.1113079,43.9766952],[26.1141345,43.978316],[26.1173053,43.9799493],[26.1192435,43.980812],[26.1222911,43.9819303],[26.125824,43.9823928],[26.1332162,43.9832883],[26.1391353,43.9839606],[26.1468732,43.9840193]],[[20.5811606,44.8517758],[20.5858655,44.8532791],[20.5915861,44.8546704],[20.5970339,44.8555693],[20.6026611,44.8556986],[20.6093833,44.8553971],[20.6153318,44.8548828],[20.6209646,44.8540215],[20.6244878,44.8531395],[20.6291356,44.8507221],[20.634614,44.8458936],[20.6376932,44.8418037],[20.6425439,44.8332441],[20.6442673,44.8302922]],[[25.9966889,43.8839247],[25.9993408,43.8886879],[26.0001108,43.8917357],[26.0002256,43.8935694],[26.0004268,43.8940688],[26.0010396,43.8948002],[26.0034348,43.8988841],[26.0061843,43.9014436],[26.0152794,43.908284],[26.0187842,43.9103426],[26.0204293,43.9108811],[26.022327,43.9117356],[26.0243915,43.9122114],[26.0265501,43.9126588],[26.0281541,43.9132308],[26.0295274,43.9141196],[26.0305788,43.9152093],[26.0324297,43.9174855],[26.0332564,43.9181239],[26.0338338,43.9185698],[26.0355331,43.9191402],[26.0374816,43.9196019],[26.0394208,43.9197795],[26.0433053,43.9194494],[26.0451485,43.9195372],[26.05047,43.9197845],[26.0584475,43.9213312],[26.0630465,43.9225578],[26.0716273,43.9259512]],[[20.2737284,45.1347914],[20.2761468,45.1327784],[20.281955,45.1272084],[20.2970815,45.1061827],[20.3040771,45.0984036],[20.311931,45.0911092],[20.3131063,45.0899429],[20.3220388,45.0817275],[20.3368064,45.0725336],[20.3472202,45.0625859],[20.3563784,45.0519942],[20.3589548,45.0462394],[20.3615094,45.0315167],[20.364573,45.0244419],[20.3651689,45.0186866],[20.3648288,45.0153407],[20.3627811,45.0113621],[20.3606629,45.0090087],[20.3582658,45.0072166],[20.3525464,45.0049943],[20.346827,45.0031513],[20.3364588,45.0009001],[20.3291455,44.9991817],[20.3098097,44.9964031],[20.3046365,44.9945503],[20.3002358,44.9919994],[20.296319,44.988902],[20.2933249,44.9859261],[20.2908427,44.9827011],[20.289327,44.9798144],[20.2884998,44.9767642],[20.2880502,44.9708808],[20.2881945,44.9676314],[20.2902782,44.9587855],[20.2923818,44.9536357],[20.3066026,44.936889]],[[28.1104424,44.4350598],[28.1110229,44.4410562],[28.102123,44.4489973],[28.097751,44.4577204],[28.0926012,44.4809957],[28.0877947,44.4905482],[28.0788683,44.4981171],[28.0626892,44.5034507],[28.0570478,44.5067494],[28.0534624,44.5103829],[28.0462526,44.5191962],[28.040744,44.5355598],[28.0380727,44.5434932],[28.0360246,44.5485436],[28.0326692,44.551259],[28.0211116,44.5606109],[28.0138903,44.5717342],[28.0138518,44.5832495],[28.0147222,44.5858764],[28.0294298,44.6028557],[28.0345797,44.611655],[28.0345183,44.6122344],[28.0345011,44.6123971],[28.0332064,44.6246071],[28.0277132,44.6292496],[28.0222381,44.6385794],[28.0182384,44.646796],[28.0142066,44.6505842],[28.0088401,44.6531726],[27.9999903,44.6572542],[27.9963917,44.6597235],[27.9887293,44.6666261],[27.9860937,44.6684346],[27.9730249,44.6763993],[27.9624819,44.6802924],[27.9419613,44.6788358],[27.9374975,44.6799612],[27.9284374,44.6850778],[27.9229998,44.6907885],[27.9157945,44.6954289],[27.9017137,44.7003065],[27.8896974,44.7029908],[27.8783678,44.711043],[27.871158,44.7247046],[27.8718447,44.7422649],[27.8766512,44.751043],[27.8820165,44.7650422],[27.8706745,44.7741282],[27.8333925,44.7776131],[27.8234362,44.7849238],[27.8211772,44.7916755],[27.8213762,44.7980808],[27.8265285,44.8103866],[27.8270534,44.8229976],[27.8285047,44.8264355],[27.8309766,44.8322908],[27.8347658,44.8365599],[27.8354525,44.8441066],[27.8405597,44.8541999],[27.8371691,44.8657674],[27.8399156,44.8735535],[27.848842,44.8786626],[27.8735613,44.885474],[27.8783678,44.8891227],[27.8876375,44.9046876],[27.8931307,44.9078488],[27.8969072,44.9122254],[27.9013704,44.9304578],[27.9068636,44.9418805],[27.9058336,44.9550017],[27.9033125,44.9612457],[27.9010271,44.9669053],[27.9037737,44.9819635],[27.9027437,44.9933759],[27.894504,44.9992027],[27.8852343,45.0030869],[27.8807711,45.0084272],[27.8842043,45.0157086],[27.8876375,45.0186209],[27.8962206,45.0220185],[27.9027437,45.0275997],[27.9020571,45.0385178],[27.9006838,45.0504041],[27.9034304,45.0632579],[27.9130434,45.0690776],[27.9212831,45.0763513],[27.9260897,45.0845937],[27.938106,45.0962281],[27.9518389,45.1105254],[27.9624819,45.1248192],[27.9669451,45.1354766],[27.9655718,45.1422575],[27.9620725,45.1458128],[27.9597353,45.149764],[27.9532122,45.153638],[27.9511119,45.1560207],[27.9453157,45.1625955],[27.9436835,45.1736102],[27.9429125,45.1788123],[27.9470323,45.1935728],[27.9559587,45.2017983],[27.9607653,45.2056687],[27.9633752,45.2086108],[27.9641985,45.2095389],[27.9628252,45.2138925],[27.9576754,45.2180039],[27.9556154,45.223566],[27.9556154,45.2300947],[27.9586911,45.2346072],[27.9597353,45.2361391],[27.9636982,45.2402642],[27.9676317,45.2443584],[27.9717516,45.2578936],[27.978618,45.2641767],[27.990291,45.2796398],[27.9945854,45.2877318],[27.9947542,45.2883359],[28.0012773,45.3110363],[28.0112337,45.3281762],[28.0177568,45.3455523],[28.0263399,45.3564096]],[[22.2093973,44.5208786],[22.2421718,44.5736566],[22.2515939,44.583778],[22.2626208,44.5929551],[22.2657147,44.5977155],[22.2731868,44.6143295],[22.2725643,44.6193452],[22.2748446,44.6232508],[22.2770089,44.6265912],[22.283103,44.6288845],[22.298583,44.638007],[22.299144,44.6383376],[22.30304,44.6524136],[22.30541,44.6556344],[22.3129292,44.6641026],[22.3319779,44.6717675],[22.3476562,44.6735862],[22.375297,44.6767925],[22.3849883,44.6779166],[22.3898279,44.679253],[22.3927437,44.6804644],[22.3955737,44.6818589],[22.4011478,44.6855328],[22.4066802,44.6918996],[22.4096027,44.6952626],[22.4155861,44.7052789],[22.4223349,44.7089488],[22.4303282,44.7104227],[22.434455,44.7111871],[22.438707,44.7119746],[22.4462194,44.713366],[22.4514098,44.7143273],[22.45237,44.7145052],[22.4548471,44.7149204],[22.4618415,44.7148218],[22.4677588,44.7138887],[22.4737618,44.7114822],[22.4783072,44.7092431],[22.4795654,44.7086233],[22.4863234,44.7047443],[22.4926837,44.6990456],[22.4959106,44.6961542],[22.4991791,44.6932265],[22.5040471,44.6884575],[22.5080557,44.6848099]],[[29.1857449,45.0481576],[29.1861806,45.0475599],[29.1869615,45.0470319],[29.1920725,45.0448127],[29.2123674,45.0423016],[29.2286752,45.0401183],[29.244468,45.0379348],[29.2590592,45.0378135],[29.2647273,45.0382465],[29.2654107,45.0382987],[29.2727922,45.0392692],[29.2757104,45.0395118],[29.2786286,45.0390266],[29.2793153,45.0370857],[29.279188,45.0359231],[29.277966,45.0334847],[29.2722772,45.0265311],[29.2719338,45.0232552],[29.2721314,45.0222157],[29.2722772,45.0214351],[29.2742671,45.0199809],[29.2773987,45.0194141],[29.2843586,45.0204124],[29.292744,45.0221681],[29.2967052,45.0225305],[29.3006688,45.0218024],[29.3034164,45.0206161],[29.3042392,45.0195534],[29.3041078,45.0184636],[29.3038109,45.0177655],[29.3030301,45.017285],[29.3010455,45.0161313],[29.2962434,45.0141082],[29.2918485,45.0115548],[29.2891061,45.009254],[29.2871729,45.0052804],[29.2866967,45.0033528],[29.2866967,45.002139],[29.2873834,44.9999541],[29.2894433,44.9983761],[29.2922545,44.9976114],[29.2970784,44.9972298],[29.3010984,44.9968224],[29.3057388,44.995678],[29.3090801,44.9940016],[29.3118525,44.9920309],[29.3133755,44.9902775],[29.3159801,44.9860728],[29.3169122,44.9828777],[29.3164962,44.9809107],[29.3152539,44.9783906],[29.3128334,44.974905],[29.3120805,44.9732061],[29.3120349,44.9714988],[29.3131806,44.9706845],[29.3145605,44.9700831],[29.3176549,44.9694455],[29.3192355,44.9692657],[29.3207994,44.9693106],[29.32306,44.9695772],[29.3253038,44.9700093],[29.3297157,44.9719734],[29.3340746,44.9753792],[29.3363397,44.9774763],[29.3381951,44.9799222],[29.340648,44.9822538],[29.3418525,44.9833093],[29.3433412,44.9839981],[29.344989,44.9844903],[29.3462544,44.9845964],[29.3476904,44.9844225],[29.3488685,44.9837228],[29.3510659,44.9810729],[29.3510697,44.9788294],[29.3509515,44.9762572],[29.3480129,44.9717013],[29.347481,44.9678855],[29.3472932,44.9634058],[29.3481408,44.9606387],[29.3515847,44.9583042],[29.3540936,44.9578207],[29.356059,44.9577814],[29.3579735,44.9583167],[29.3599415,44.9590544],[29.3615751,44.9601352],[29.3634294,44.9627985],[29.365661,44.9652277],[29.3672059,44.9688713],[29.3689225,44.9736077],[29.3708108,44.9779794],[29.3726991,44.9821079],[29.3745874,44.984172],[29.3775056,44.985629],[29.3802522,44.9862361],[29.3829988,44.9855076],[29.3847154,44.9839292],[29.3857453,44.9813793],[29.3850587,44.9766436],[29.3829988,44.9692357],[29.3805955,44.9635273],[29.3771623,44.9598833],[29.3723558,44.9563606],[29.3687509,44.9546599],[29.3675958,44.953017],[29.3670494,44.952085],[29.3670107,44.9511638],[29.3671229,44.9507036],[29.3692658,44.9495575],[29.3745874,44.9472491],[29.3823121,44.9453052],[29.3898439,44.9449425],[29.3943459,44.9455057],[29.3991324,44.9475241],[29.4031658,44.9501508],[29.4071992,44.9539922],[29.4118128,44.9593371],[29.4175027,44.9664423],[29.4209588,44.9694181],[29.4251748,44.9723141],[29.4304681,44.973445],[29.437994,44.9743928],[29.4451402,44.9740935],[29.4580148,44.9717861],[29.462478,44.9696],[29.4647096,44.9681426],[29.4654217,44.9666501],[29.4650163,44.9657579],[29.4639381,44.9650843],[29.4606401,44.9640097],[29.4563561,44.961659],[29.4551847,44.9607277],[29.4532068,44.9584925],[29.4528822,44.9577793],[29.4529601,44.9570466],[29.4537643,44.9560904],[29.4555006,44.9555089],[29.4568411,44.9553677],[29.4603311,44.9554938],[29.4666151,44.9570466],[29.4717774,44.9588763],[29.4758315,44.9603649],[29.4788128,44.9608634],[29.4815895,44.9609402],[29.4828184,44.9606397],[29.4868539,44.9580613],[29.494922,44.9522303],[29.5043634,44.949436],[29.5144705,44.9460589],[29.5271526,44.9405255],[29.5337475,44.9364225],[29.5401655,44.9311715],[29.5508836,44.922094],[29.5776628,44.8974142],[29.5807546,44.8960068],[29.5819543,44.8954685],[29.5825605,44.8953672],[29.5914971,44.8933848],[29.5973175,44.8910849],[29.6048494,44.8875713],[29.6078867,44.8854557],[29.6141065,44.8813606],[29.619217,44.8780191]],[[22.5421498,44.6587036],[22.5436019,44.6579391],[22.549299,44.6545276],[22.5544381,44.6501849],[22.560519,44.6443925],[22.5668836,44.6393914],[22.5732963,44.6364592],[22.5805674,44.6337102]],[[22.5805674,44.6337102],[22.582684,44.6325367],[22.602197,44.6217169],[22.6178382,44.6156313],[22.6234837,44.6144358],[22.6313179,44.6135457],[22.6416197,44.6145916],[22.6598035,44.6179376],[22.668507,44.6180733],[22.6739169,44.6176371],[22.6848006,44.6160495],[22.6945558,44.6122837],[22.7024373,44.6085317],[22.70951,44.6024352],[22.7177611,44.5957427],[22.7238962,44.5901833],[22.7337738,44.5816322],[22.7418106,44.5752987],[22.7567757,44.5617483],[22.7585548,44.5587086],[22.7636685,44.5473803],[22.7631007,44.5389794],[22.707404,44.5183383],[22.6947669,44.5184694],[22.6825339,44.5218776],[22.6351329,44.5495612],[22.6301784,44.5505852],[22.6292809,44.5507707],[22.6090421,44.5549534],[22.5883821,44.5518406],[22.5742922,44.54618],[22.5734281,44.5452074],[22.5632819,44.5337854],[22.5596409,44.5126773],[22.5591529,44.5098479],[22.5574096,44.4989393],[22.5499381,44.4888678],[22.5391071,44.4798588],[22.5342616,44.4781557],[22.5176119,44.4759843],[22.4739518,44.4815159],[22.4718161,44.4814486],[22.4696803,44.4811671],[22.4673648,44.480661],[22.4653496,44.4800324],[22.4607753,44.4782582],[22.4596167,44.4772336],[22.4585535,44.4762935],[22.4582106,44.4758702],[22.4570822,44.4744772],[22.4559328,44.4719413],[22.4559779,44.4679268],[22.4586378,44.4628385],[22.4660811,44.4485972],[22.4677745,44.4466825],[22.4820019,44.4305939],[22.4906778,44.420781],[22.4993749,44.4109423],[22.5016307,44.3936622],[22.5087739,44.3721668],[22.5095747,44.3708085],[22.5143485,44.36271],[22.5293192,44.3373062],[22.5362524,44.3308675],[22.5564939,44.3112773]],[[22.5080557,44.6848099],[22.5113089,44.6827503],[22.5151515,44.6803175],[22.5176709,44.6787224],[22.518664,44.6780936],[22.5189752,44.6778966]],[[20.3066026,44.936889],[20.3141745,44.9325647],[20.3204233,44.9282079],[20.3286841,44.9216291],[20.3340143,44.9152485],[20.3431536,44.9048262],[20.352669,44.8916347],[20.3582914,44.8820421],[20.364329,44.8761258],[20.3719508,44.869982],[20.3778658,44.8661462],[20.382778,44.8635179],[20.3925915,44.8596829],[20.4053377,44.8551803],[20.4107568,44.8532988],[20.4147579,44.8515804],[20.4233066,44.8461664],[20.4304978,44.8427095],[20.4398349,44.8392222],[20.451951,44.8346646],[20.4540539,44.834113]],[[25.407301082878707,43.62],[25.41864,43.6222127],[25.4333595,43.6258802],[25.4396398,43.6268988],[25.4479837,43.6290864],[25.4552606,43.6311962],[25.4604828,43.6327983],[25.4643867,43.6341365],[25.4684883,43.6372742],[25.4704499,43.6390335],[25.4725914,43.6401628],[25.4777854,43.6450859],[25.485608,43.6457544],[25.5025366,43.6490983],[25.5083012,43.6491498],[25.5104532,43.6484759],[25.5163348,43.6462048],[25.5240239,43.6439827],[25.5311391,43.6423794],[25.5368775,43.6416691],[25.5436635,43.6413628],[25.5469379,43.6414803],[25.5592554,43.6428329],[25.5646491,43.6434979],[25.5698789,43.6443555],[25.5726957,43.6454544],[25.5815712,43.6497939],[25.5957723,43.6573742],[25.6040727,43.661555],[25.616126,43.6676078],[25.6199455,43.6694005],[25.6221557,43.6704792],[25.6227704,43.6709131],[25.627048,43.6748093],[25.6287236,43.6765278],[25.6375086,43.6802565],[25.6432968,43.6828092],[25.6476711,43.684583],[25.6562841,43.684617],[25.6583118,43.6849118],[25.6636249,43.6867087],[25.6692798,43.6880982],[25.6778812,43.6886048],[25.6889721,43.6879465],[25.7005191,43.6877824],[25.704875,43.6878057],[25.7091182,43.6874139],[25.7180255,43.6865886],[25.7236504,43.6870997],[25.7290524,43.6878748],[25.7394057,43.6905493],[25.7481551,43.6936008],[25.7648292,43.7018319],[25.7763528,43.7073422],[25.7829594,43.7108353],[25.7885408,43.7157489],[25.7919269,43.7207527],[25.7945359,43.7248163],[25.8003534,43.7332654],[25.8031987,43.7372233],[25.8076211,43.7411737],[25.8155345,43.7486812],[25.8221005,43.7553461],[25.8255529,43.7592546],[25.8277143,43.7614765],[25.832355,43.7645547],[25.8348903,43.7660349],[25.8375692,43.7671193],[25.8402323,43.7678136],[25.8434808,43.768266],[25.8468413,43.7686659],[25.8518678,43.7690145],[25.8576452,43.7694484],[25.8639558,43.7701396]],[[24.9665477,43.724897],[24.9786638,43.7268679],[24.9975466,43.727116],[25.0078463,43.7246349],[25.016086,43.7164468],[25.0233757,43.7084198]],[[26.348569,44.0364163],[26.3518476,44.0364057],[26.3584351,44.0365137],[26.3678455,44.0371393],[26.391902,44.0400269],[26.4044832,44.039645],[26.4261125,44.0364365]],[[21.3593018,44.8217246],[21.3714304,44.8202499],[21.3803403,44.8164921],[21.3846295,44.8079233],[21.3869114,44.7992952],[21.3898044,44.7814703],[21.3924036,44.7796796],[21.3972615,44.7770256],[21.4050942,44.7742164],[21.4123537,44.7735771],[21.4247987,44.7737515],[21.4363471,44.7744777],[21.4455416,44.7746947],[21.456783,44.7763908],[21.4629662,44.776842],[21.5326458,44.772961],[21.5382056,44.7726513],[21.5492988,44.7705716],[21.5545678,44.7695607],[21.5680792,44.7653248],[21.575435,44.7630185],[21.5871613,44.7584268],[21.5989924,44.7483943],[21.6066853,44.7353157],[21.6096734,44.7286544],[21.6110737,44.7206822],[21.6119576,44.7159031],[21.6105338,44.685858],[21.6116709,44.6822797],[21.6159331,44.6746677],[21.6222551,44.6668118],[21.636465,44.6613757],[21.6446798,44.6610585],[21.6697305,44.6667274],[21.6796871,44.6666558],[21.691991,44.6647325],[21.7039619,44.6601892],[21.7140553,44.6548987],[21.7246578,44.6533369],[21.7370726,44.654167],[21.7639365,44.6588884],[21.7783736,44.6613709],[21.7928207,44.6629876],[21.7981411,44.6615255],[21.8100518,44.6522159],[21.815955,44.6506949],[21.8266204,44.6508744],[21.8405171,44.6545761],[21.8423236,44.6544781],[21.8516726,44.6522945],[21.8590767,44.6510952],[21.8717342,44.6496329],[21.8842003,44.6477255],[21.8911623,44.647083],[21.9103365,44.6453069],[21.9252772,44.6436203],[21.9450851,44.6380171],[21.9508419,44.6362861],[21.9634088,44.6341745],[21.9698405,44.6334244],[21.9870388,44.6347196],[21.9947717,44.6317231],[21.9994114,44.626245],[22.0022915,44.6166436],[22.0036355,44.610236],[22.0045818,44.6079967],[22.0078455,44.6057573],[22.0217946,44.5962385],[22.0262478,44.5906892],[22.0279197,44.5859208],[22.0261584,44.5777904],[22.026975,44.5668549],[22.0323758,44.5493044],[22.0364161,44.5465637],[22.0453815,44.5404816],[22.0575222,44.5359015],[22.0688026,44.5286021],[22.0712176,44.5263111],[22.0723881,44.5231175],[22.0739036,44.5148424],[22.0777519,44.5015742],[22.1168142,44.4798811],[22.1236588,44.4760791],[22.130595,44.474964],[22.1402319,44.4734148],[22.1450558,44.4737793],[22.1695576,44.4756304],[22.1737101,44.4765101],[22.1776481,44.4780941],[22.1810925,44.4798006],[22.184494,44.4819664],[22.1869447,44.4850696],[22.1890951,44.488479],[22.1996518,44.5053284],[22.2093973,44.5208786]],[[28.1921648,45.4429525],[28.1920981,45.4450179],[28.1922483,45.4473814],[28.1925058,45.4505125],[28.1929779,45.4528909],[28.1932997,45.4548025],[28.1938791,45.4565786],[28.195188,45.4594233],[28.1967544,45.4617561],[28.19875,45.463848],[28.2006597,45.465067],[28.2028913,45.4661355],[28.2051015,45.4668277],[28.208689,45.4673793]],[[28.2139355,45.4671885],[28.2199311,45.4664056],[28.2242095,45.4653153],[28.2263553,45.464766],[28.2280505,45.4643522],[28.2312262,45.4635771],[28.2326769,45.4631829]],[[20.4570218,44.8334731],[20.4600084,44.8328272],[20.4633021,44.8322565],[20.4667997,44.8317391],[20.4818456,44.8293713],[20.4950619,44.8280923],[20.5052327,44.8281296],[20.525478,44.830047],[20.5353133,44.8326571],[20.5436205,44.8361186],[20.5582761,44.844251],[20.5652498,44.8470276],[20.5700598,44.8482874]],[[24.0462343,43.7234245],[24.0546958,43.7193358],[24.0592737,43.717061],[24.0652943,43.7136658],[24.0694948,43.7115138],[24.079982,43.7050806],[24.0841424,43.703066],[24.0865374,43.7024746],[24.0895654,43.7019283],[24.0992296,43.7009621],[24.1056239,43.7004657],[24.113059,43.7000236],[24.1185415,43.6992479],[24.123816,43.698288],[24.1337335,43.6959745],[24.1438564,43.6935562],[24.1518545,43.6915062],[24.1576375,43.6890468],[24.166286,43.6855988],[24.16857,43.6850747],[24.173912,43.6845058],[24.1823963,43.6836224],[24.1935253,43.6834842],[24.1963577,43.6836549],[24.2024482,43.6844922],[24.2108789,43.6855785],[24.220579,43.6869755],[24.2348707,43.6892863],[24.2448494,43.6907438],[24.2677067,43.6937427],[24.2958699,43.6979326],[24.3027979,43.6987139],[24.3061674,43.6987747],[24.3101337,43.6987274],[24.3282199,43.6973879],[24.3376672,43.6967502],[24.3402005,43.6966695],[24.3439865,43.6969907],[24.3468808,43.6976101],[24.3555429,43.7008378],[24.3682551,43.7062906],[24.376538,43.709513],[24.3829328,43.7117007],[24.3986789,43.7161802],[24.4082308,43.7189467],[24.4106071,43.7199207],[24.4232652,43.7276724],[24.4377425,43.7366144],[24.4470242,43.7424629],[24.4521309,43.7457717],[24.4532275,43.7463978],[24.4541609,43.7468861],[24.4629237,43.7501889],[24.4771757,43.7570145],[24.4847059,43.7595491],[24.4892979,43.7604557],[24.4927457,43.7608139],[24.4983423,43.7613778],[24.5024915,43.7614946],[24.509944,43.7607153],[24.5143172,43.7602844],[24.5258617,43.7590377],[24.5353246,43.7575189],[24.5401913,43.7570038],[24.551053,43.7570229],[24.5627393,43.7576444],[24.565022,43.7574414],[24.5707188,43.7563405],[24.5773601,43.7548841],[24.5888278,43.7528077],[24.5976456,43.7500342],[24.6041178,43.7449794],[24.6114403,43.7427662],[24.6256447,43.7382584],[24.6399349,43.731487],[24.6509076,43.7244931],[24.6565819,43.7203734],[24.6652722,43.7143095],[24.6789593,43.7048529],[24.6824813,43.7027693],[24.6878028,43.7006441],[24.6911716,43.6989359],[24.7056464,43.6911678],[24.7103548,43.6888685],[24.7153759,43.6872704],[24.7197457,43.686101],[24.7235727,43.6854239],[24.7296472,43.6848226],[24.7373277,43.6845343],[24.7411251,43.6845472],[24.7438609,43.6849972],[24.7468092,43.6862693],[24.7525942,43.690009],[24.7541177,43.6909011],[24.7603411,43.6928035],[24.7730575,43.6962111],[24.7817015,43.6983171],[24.7956348,43.7055693],[24.7987389,43.7068412],[24.8017197,43.7077506],[24.8081159,43.7096254],[24.8148857,43.7109591],[24.8195314,43.7118279],[24.8236879,43.7123644],[24.8278677,43.7127818],[24.8320609,43.712909],[24.8356354,43.7128749],[24.8381889,43.71265],[24.8409987,43.7121179],[24.8428452,43.7115643],[24.8508499,43.7096348],[24.8568957,43.7087711],[24.8648416,43.7081024],[24.8698819,43.707927],[24.8733817,43.7079938],[24.8798168,43.7085319],[24.8859761,43.7092183],[24.8953087,43.710466],[24.90692,43.7120194],[24.9152448,43.7138636],[24.9198246,43.7148756],[24.9240632,43.7155916],[24.9319482,43.7166436],[24.9367363,43.7174786],[24.941395,43.718404],[24.9473655,43.7198539],[24.9520901,43.7212031],[24.9569249,43.7226763],[24.9600363,43.7236842],[24.9630189,43.7244131],[24.9650037,43.7247542],[24.9665477,43.724897],[24.9684477,43.7248783],[24.96966,43.7248705],[24.9712302,43.7245427],[24.9750759,43.7232812],[24.9786218,43.7215974],[24.9856187,43.7186227],[24.9930276,43.7160583],[25.0051615,43.7117432],[25.0106717,43.7100888],[25.0171619,43.7089575],[25.0233757,43.7084198]],[[28.2326769,45.4631829],[28.2446932,45.4595709],[28.2650378,45.4543044],[28.2749056,45.4480108],[28.2821154,45.4388573],[28.2855486,45.431148],[28.2862352,45.4231967],[28.284514,45.4171383],[28.2838228,45.4143913],[28.283751,45.4140239],[28.2835998,45.4123411],[28.2834886,45.4019877],[28.2858919,45.3940323],[28.2931017,45.3860757],[28.305118,45.3735359],[28.3087623,45.3681678],[28.315761,45.3578571],[28.3193531,45.3514345],[28.3350884,45.330605],[28.3391069,45.3260038],[28.3488535,45.3199739],[28.3552431,45.3175549],[28.3904048,45.3063332],[28.3963557,45.3046259],[28.4307102,45.2938287],[28.4462989,45.2887815],[28.4616732,45.2849543],[28.4922289,45.2757744],[28.5169481,45.26466],[28.5371096,45.2596021],[28.5467439,45.2549504],[28.5602068,45.2494345],[28.5729097,45.2465339],[28.6292147,45.2431498],[28.6306586,45.2429058],[28.6549639,45.2387984],[28.689434,45.229137],[28.6932732,45.2280609],[28.6973479,45.2271167],[28.7105177,45.2240647],[28.7191298,45.2240745],[28.729603,45.2267419],[28.7347259,45.2285556]],[[27.2796292,44.1333261],[27.2883256,44.1367454],[27.2997616,44.1409625],[27.3034072,44.1418278],[27.3068619,44.1422127],[27.3126329,44.1425805],[27.3321413,44.1375439],[27.3458742,44.1323694],[27.3596071,44.1267016],[27.3736833,44.1257158],[27.3837363,44.128985],[27.3944114,44.1327698],[27.4063634,44.1321229],[27.4385714,44.1237443],[27.4516176,44.1244836],[27.4636339,44.1301516],[27.4751726,44.1371591],[27.4948763,44.1491232],[27.5049292,44.1551352],[27.5179753,44.1638764],[27.5212545,44.1663823],[27.5239319,44.1684198],[27.5431346,44.1751683],[27.5533421,44.181169],[27.5558161,44.1828319],[27.5632004,44.1852013],[27.5724672,44.1877865],[27.5961565,44.1968946],[27.6037096,44.1986176],[27.610576,44.1981253],[27.6160692,44.1986176],[27.6284288,44.2042785],[27.6373552,44.2057551],[27.6469683,44.2052629],[27.6613878,44.203294],[27.6724908,44.2016358],[27.6760365,44.2011062],[27.6861071,44.1996021],[27.7032625,44.1959485],[27.7108455,44.1960399],[27.7323483,44.1987637],[27.7396868,44.2038324],[27.763698,44.2205197],[27.7764009,44.2323288],[27.7830784,44.2351317],[27.7925371,44.2382324],[27.8055834,44.2397082],[27.8155397,44.2419218],[27.8268694,44.245857],[27.8344225,44.2505297],[27.8409456,44.2554479],[27.8443066,44.256969],[27.8484987,44.2583986],[27.8541316,44.2583503],[27.8598284,44.257661],[27.8870022,44.2506749],[27.896462,44.2498186],[27.9025087,44.2484847],[27.9145269,44.2473249],[27.9230226,44.2470507],[27.9296351,44.2488374],[27.9347153,44.25021],[27.9399853,44.2527543],[27.9445088,44.2543916],[27.951978,44.2579957],[27.9551089,44.2617054],[27.9591796,44.2669687],[27.9687639,44.2771795],[27.9758715,44.2888808],[27.9948877,44.3034606],[27.9985233,44.3081284],[28.0036806,44.3141886],[28.0090585,44.3200989],[28.0106848,44.3219972],[28.0122163,44.3253332],[28.0132479,44.3317248],[28.0138945,44.3343795],[28.0200047,44.3512329]],[[20.6442673,44.8302922],[20.6455421,44.8279499],[20.6467008,44.8258649],[20.647304,44.8237313],[20.6472373,44.8211317],[20.6462073,44.8191226],[20.6435876,44.8155279],[20.6407489,44.8123342],[20.6360066,44.8069983],[20.6324878,44.7993426],[20.6308245,44.7956445],[20.6243013,44.7807812],[20.624988,44.7720076],[20.6268512,44.7683412],[20.6312737,44.7596377],[20.6328844,44.7566506],[20.6442141,44.7466541],[20.6613802,44.7405579],[20.6764864,44.7317781],[20.6772011,44.7308051],[20.6784196,44.7291462],[20.6895962,44.7143511],[20.6922792,44.710799],[20.6987112,44.7047233],[20.7194017,44.6851745],[20.7298581,44.6789199],[20.7410311,44.672236],[20.7691835,44.6602714],[20.7932161,44.6570967],[20.8070755,44.657092],[20.8182647,44.6570937],[20.8372762,44.6570966],[20.8381914,44.6570967],[20.8813619,44.661999],[20.9141086,44.667597],[20.9221982,44.6708776],[20.9315752,44.6767374],[20.9452697,44.6886744],[20.9521148,44.6939419],[20.958762,44.6989491],[20.9664901,44.7033522],[20.9878801,44.7149466],[20.9954761,44.7178894],[21.004939,44.7203137],[21.0151036,44.7204624],[21.0386919,44.7183621],[21.0602354,44.7176302],[21.0754972,44.7189424],[21.090802,44.7227704],[21.0967563,44.7248875],[21.1074742,44.7289141],[21.1176292,44.732526],[21.1272262,44.7354365],[21.1338781,44.7370065],[21.1427187,44.7372885],[21.149156,44.7392013],[21.1563086,44.7444809],[21.1624526,44.7521808],[21.1701845,44.7593322],[21.172797,44.7617394],[21.1762677,44.7639638],[21.1790009,44.7652969],[21.1819057,44.7662034],[21.18793,44.7674375],[21.1948716,44.7682297],[21.2004398,44.7700273],[21.2173699,44.7823652],[21.22487,44.7849155],[21.2544488,44.7912286],[21.2645612,44.7950972],[21.2848543,44.8061197],[21.3146805,44.8171257],[21.3299595,44.8203606],[21.3410599,44.8215968],[21.3480202,44.8218234],[21.3543273,44.8219983],[21.3593018,44.8217246]],[[20.5700598,44.8482874],[20.5766951,44.847989],[20.5837761,44.8454332],[20.5886447,44.8435445],[20.5933501,44.8422535],[20.5996052,44.8411911],[20.6028098,44.8407888],[20.6057333,44.8404218],[20.6127421,44.840483],[20.616507,44.8402937],[20.6188082,44.8399682],[20.6227756,44.8391541],[20.6256877,44.8381838],[20.6320905,44.8356165],[20.6393194,44.8328196],[20.6409287,44.8321348],[20.6442673,44.8302922]],[[28.0263399,45.3564096],[28.0270266,45.3761888],[28.0301165,45.4022288],[28.0315142,45.4038732],[28.0428194,45.4171722],[28.0520985,45.4228517],[28.0615989,45.4282891],[28.0792116,45.4359665],[28.0919146,45.4390982],[28.1001543,45.4405436],[28.1121706,45.4400618],[28.1268561,45.4377912],[28.1351924,45.4354047],[28.1421983,45.4325288],[28.1533693,45.4268111],[28.1674456,45.4198231],[28.1763719,45.4152443],[28.1863283,45.4133162],[28.1897615,45.4141146],[28.1928514,45.4154853],[28.1947826,45.4180608],[28.1952547,45.420787],[28.1914781,45.4301843],[28.1921648,45.4429525],[28.1997179,45.4516235],[28.2093309,45.458126],[28.2203173,45.4622197],[28.2326769,45.4631829]],[[22.5819944,44.3157306],[22.5848865,44.3140227],[22.5895214,44.3101535],[22.5929975,44.3046564],[22.5967311,44.3001109],[22.6009583,44.2979609],[22.6050882,44.2946617]],[[22.5564939,44.3112773],[22.5584266,44.3099333],[22.565308,44.3052164]],[[22.5910511,44.2982565],[22.6050882,44.2946617],[22.6614471,44.2884417],[22.6731306,44.2836818],[22.6805722,44.2775101],[22.6843643,44.2679444],[22.684701,44.2584469],[22.6831698,44.2486427],[22.675951,44.2388093],[22.6722624,44.2302172],[22.6715767,44.222372],[22.6719074,44.2203565],[22.6734424,44.2178161],[22.6759871,44.2162232]],[[22.5514731,44.6617169],[22.5559699,44.6578198],[22.566624,44.6469457],[22.5692184,44.641872],[22.5721725,44.6394157],[22.5805674,44.6337102]],[[28.0200047,44.3512329],[28.02222,44.3591261],[28.0277132,44.3701711],[28.0339347,44.3757533],[28.0422265,44.3831923],[28.0532661,44.3912965],[28.0638077,44.399034],[28.0687751,44.4024579],[28.0702852,44.4104766],[28.0761217,44.4162918],[28.0883204,44.4211085],[28.0977591,44.4243506],[28.1021566,44.4265563],[28.1104424,44.4350598]],[[29.1329674,45.0718091],[29.1363188,45.0720243],[29.13877,45.07243],[29.1399565,45.0727857],[29.1409562,45.0731809],[29.1427259,45.0742107],[29.1466329,45.0770663],[29.1499142,45.0801858],[29.1514971,45.0814193],[29.1532482,45.0826133],[29.1569931,45.0849484],[29.161168,45.0891275],[29.1617467,45.0905237],[29.1617015,45.0913066],[29.1613237,45.0919346],[29.1606627,45.0927059],[29.1596849,45.093269],[29.1573416,45.0936784],[29.1462777,45.0926167],[29.1363214,45.0914048],[29.1311715,45.0910086],[29.1294171,45.0912977],[29.1285922,45.0919096],[29.1280816,45.0926167],[29.127395,45.0966158],[29.1277383,45.100251],[29.1294549,45.1034014],[29.1330598,45.1064304],[29.138553,45.1084901],[29.1469644,45.1099439],[29.1584657,45.1104285],[29.1703533,45.1092473],[29.1835282,45.106067],[29.1915963,45.1031591],[29.1986344,45.0992816],[29.2056726,45.0940709],[29.2128823,45.0870418],[29.2175172,45.0814663],[29.2212937,45.0752842],[29.2212828,45.0737565],[29.2212937,45.0732406],[29.2212937,45.0711624],[29.2208324,45.0695758],[29.2197393,45.0687398],[29.2183169,45.0680834],[29.2123674,45.0667979],[29.2027543,45.0623117],[29.1909097,45.0553999],[29.1865847,45.0519509],[29.1857167,45.0507564],[29.1855882,45.0494575],[29.1857449,45.0481576]],[[28.8872407,45.1885168],[28.8944505,45.1829513],[28.8983987,45.1790793],[28.9006303,45.1736338],[28.9032052,45.1670986],[28.9071534,45.1597153],[28.9099,45.1554786],[28.9129899,45.1536627],[28.9150498,45.1529364],[28.9189981,45.1539048],[28.9265512,45.1536627],[28.932731,45.1523311],[28.9373658,45.1499098],[28.9466355,45.1456723],[28.9600251,45.143614],[28.9727281,45.1393761],[28.9813111,45.1352589],[28.9868043,45.1313836],[28.9910958,45.1289615],[28.9938424,45.1279926],[28.997619,45.1279926],[29.0037988,45.127387],[29.0223382,45.1235112],[29.030063,45.1223],[29.0424226,45.1195141],[29.0516923,45.1183027],[29.0540225,45.1175089],[29.0566705,45.1166069],[29.0626786,45.1126092],[29.0627698,45.1124997],[29.0695276,45.1051076],[29.0708391,45.1034531],[29.0760682,45.0989181],[29.0865396,45.0928591],[29.092891,45.0904353],[29.1019891,45.085951],[29.1079972,45.08183],[29.1126321,45.0785572],[29.1212152,45.0744356],[29.1282533,45.072496],[29.1329674,45.0718091]],[[27.9597353,45.149764],[27.9612371,45.1524432],[27.962564,45.1534107],[27.9766202,45.1569396],[27.9891944,45.1589823],[27.9920268,45.1601474],[27.9964256,45.1656546],[27.9980564,45.1689526],[27.9982281,45.1744438],[27.9970264,45.1803277],[27.9953313,45.1862716],[27.9925418,45.1912923],[27.9902151,45.1943805],[27.9877567,45.1976433],[27.9834008,45.2034946],[27.9795813,45.2091941],[27.974453,45.2136687],[27.9701614,45.2188835],[27.9674148,45.2234631],[27.9673716,45.2235693],[27.9661488,45.2265764],[27.9658484,45.2318657],[27.96506,45.2356197],[27.9648614,45.2365651],[27.9636982,45.2402642]],[[28.208689,45.4673793],[28.211098,45.4673548],[28.2139355,45.4671885]],[[22.5658054,44.3049785],[22.5761088,44.3022069],[22.5910511,44.2982565]],[[23.0058127,43.8056438],[23.0150832,43.8056321],[23.0244924,43.8051132],[23.0334188,43.804215],[23.0403149,43.8038563],[23.0464411,43.8042048],[23.0480851,43.8041841],[23.0529024,43.803735],[23.0637278,43.8027749],[23.0722893,43.8018844],[23.0789924,43.801332],[23.0840671,43.8012313],[23.0935932,43.801355]],[[22.8413111,43.8774637],[22.8416169,43.8757778],[22.84181,43.8733029],[22.8424108,43.8691979],[22.8431833,43.8656089],[22.8443876,43.8617199],[22.8459755,43.858407],[22.8479362,43.855444],[22.8503454,43.8526002],[22.8517328,43.8509625],[22.8551111,43.8473623],[22.8572001,43.845642],[22.8583498,43.8446952],[22.8632006,43.8413407],[22.8689808,43.8379126],[22.876896,43.8344784],[22.8787547,43.8337529],[22.8805468,43.8331255],[22.8843961,43.8323249],[22.8944564,43.8301308],[22.9033244,43.8283426],[22.9244283,43.8244207],[22.9280697,43.8236405],[22.934079,43.8221905],[22.9403879,43.8208834],[22.9431996,43.819937],[22.95394,43.8156638],[22.9581696,43.8143899],[22.9624693,43.813341],[22.9757764,43.8106494],[22.9819808,43.809397],[22.990016,43.8074731],[22.9921208,43.8070255],[23.0058127,43.8056438]],[[23.0935932,43.801355],[23.0999403,43.8014156],[23.1065866,43.8015395],[23.1207403,43.8019345],[23.1258003,43.8022263],[23.1276369,43.8023154],[23.1286393,43.8023751],[23.1304329,43.8025326],[23.1333286,43.8028884],[23.1351525,43.8032872],[23.1364804,43.8036674],[23.1411879,43.8054379]],[[23.4841988,43.8381283],[23.4903574,43.8359508],[23.4957014,43.8335654],[23.5107422,43.8262608],[23.5250759,43.8181949],[23.5310422,43.8148366],[23.5409025,43.8094144],[23.5469444,43.8060411],[23.5523506,43.8031592],[23.5587284,43.8012677],[23.5682916,43.7994735],[23.5768533,43.7985753],[23.584413,43.7972299],[23.5957789,43.7947652],[23.6072209,43.7928773],[23.6141662,43.7919145],[23.625371,43.7912233],[23.6282,43.7914431],[23.6391467,43.7933392],[23.6670067,43.8000401],[23.67455,43.801665],[23.6761269,43.8019979],[23.6827257,43.8038551],[23.6896991,43.8058231],[23.6922526,43.8063108],[23.6952223,43.8065246],[23.70415,43.8068643],[23.7150299,43.8067599],[23.719233,43.8065821],[23.7266064,43.8053352],[23.7373567,43.8042977],[23.7494704,43.8031601],[23.7626054,43.8014294],[23.7721415,43.8002165],[23.7770794,43.7991418],[23.7814435,43.7977695],[23.7868406,43.7952223],[23.7947727,43.7901899],[23.8005939,43.785257],[23.8076785,43.7787825],[23.8090253,43.7769196],[23.8109135,43.7740997],[23.812939,43.7723239],[23.81852,43.7691665],[23.8225865,43.767251],[23.8266892,43.7657866],[23.8430786,43.7600976],[23.8499261,43.7578251],[23.8562562,43.7559335],[23.8651318,43.7535581],[23.8705307,43.7521381],[23.8750183,43.7508775],[23.8807615,43.7495224],[23.8877233,43.7482413],[23.9007674,43.7476088],[23.909498,43.7472149],[23.9201724,43.7464754],[23.9263814,43.7455674],[23.9324832,43.7450316],[23.9494304,43.7452106],[23.9627575,43.7453513]],[[23.9627575,43.7453513],[23.9770572,43.743498],[23.9847421,43.7419566],[23.9928531,43.7400962],[24.0072298,43.734763],[24.027436,43.7287187],[24.0462343,43.7234245]],[[24.9240632,43.7155916],[24.9362214,43.7126648],[24.9400882,43.7109963],[24.9430967,43.7106307],[24.9482163,43.7106067],[24.9520995,43.7112406],[24.9588412,43.7127399],[24.9612338,43.7132742],[24.9640354,43.7143293],[24.9691269,43.7163597],[24.971576,43.71689],[24.9748023,43.717147],[24.9792011,43.7168368],[24.9930276,43.7160583]],[[22.4906778,44.420781],[22.5076163,44.4170299],[22.5224494,44.4066055],[22.5248683,44.4049054],[22.5310695,44.4015481],[22.5337517,44.3993252],[22.5380647,44.3930851],[22.5468409,44.3843294],[22.5532568,44.3796827],[22.5553596,44.3771369],[22.5582564,44.3726123],[22.5594795,44.369698],[22.5591362,44.3663234],[22.5581491,44.3624116],[22.5565827,44.3595121],[22.5506819,44.3505059],[22.5492937,44.3475422],[22.5491798,44.347299],[22.5486219,44.3432632],[22.54933,44.3397949],[22.5523341,44.3356665],[22.5562958,44.3322268],[22.5587714,44.3304941],[22.5630844,44.3283298],[22.5704444,44.3240011],[22.5760877,44.3198408],[22.5819944,44.3157306]],[[27.9470323,45.1935728],[27.9472185,45.1951828],[27.9467625,45.1969198],[27.9457765,45.1982485],[27.9440635,45.2006192],[27.9430036,45.2047961],[27.9430159,45.2080088],[27.9432501,45.2122545],[27.9429913,45.2146421],[27.9438786,45.2180192],[27.9452096,45.2208666],[27.9483153,45.2255801],[27.9509034,45.2293559],[27.9530848,45.231708],[27.9586911,45.2346072]],[[27.2712287,44.1293498],[27.2730444,44.1288837],[27.2752528,44.1272223],[27.2779072,44.1247834],[27.2811771,44.1215208],[27.2836018,44.1185016],[27.2855545,44.1140957],[27.2890521,44.1118773],[27.2932363,44.1109991],[27.2959829,44.1110453],[27.2996093,44.111754],[27.3048449,44.113387],[27.311647,44.1148352],[27.3178483,44.1160214],[27.326603,44.1179932],[27.3335068,44.1178999],[27.3357225,44.11787],[27.3481251,44.1168687],[27.3504838,44.1166156],[27.3541547,44.1162216],[27.363639,44.1126938],[27.3827792,44.108118],[27.3926068,44.1074709],[27.4045802,44.1079177],[27.4205018,44.1095817],[27.4353505,44.1121392],[27.4507786,44.1145117],[27.4601985,44.1155438],[27.4672581,44.1166684],[27.4707771,44.1182397],[27.4761201,44.1228917],[27.477429,44.1261417],[27.4770857,44.1285598],[27.4747253,44.1309779],[27.4740816,44.132287],[27.4739958,44.1347203],[27.4749828,44.1369071],[27.4751726,44.1371591]],[[27.2883256,44.1367454],[27.291679,44.1353275],[27.2937604,44.1340801],[27.2941037,44.1326863],[27.2942968,44.1321704],[27.2941506,44.1318583],[27.2936576,44.1312878],[27.2936144,44.1311108],[27.2938363,44.130642],[27.2965538,44.1296115],[27.2981436,44.1290365],[27.2996348,44.1288684],[27.3013664,44.1291028],[27.3025125,44.1291117],[27.3039544,44.1287711],[27.3043427,44.1285721],[27.3047925,44.1281209],[27.3051499,44.1275725],[27.3056121,44.1270284],[27.3060311,44.1266834],[27.3066843,44.1264667],[27.307436,44.1261526],[27.3082371,44.1260022],[27.3094017,44.1258474],[27.3104616,44.1259094],[27.3112257,44.1259846],[27.3123719,44.1258696],[27.3135612,44.1256926],[27.3149908,44.1253388],[27.3168702,44.1244585],[27.3181088,44.1238481],[27.3197787,44.1228351],[27.3217444,44.1218133],[27.3243756,44.1206057],[27.3271732,44.119513],[27.3278367,44.1193379],[27.3307452,44.1184885],[27.3335068,44.1178999]],[[27.3504838,44.1166156],[27.3517074,44.1169028],[27.3537238,44.1181053],[27.3553825,44.1191793],[27.3577568,44.1212573],[27.3592854,44.1230784],[27.3602123,44.1234636],[27.3610905,44.1237672],[27.3626516,44.1240473],[27.3637899,44.1236504],[27.3658064,44.1225064],[27.3676115,44.120732],[27.3715956,44.1181403],[27.3749131,44.1162257],[27.3779215,44.115315],[27.3802957,44.1144511],[27.3820683,44.1135754],[27.3851743,44.1118591],[27.3880039,44.1097691],[27.390866,44.1080293],[27.3926068,44.1074709]],[[27.3736833,44.1257158],[27.37388,44.1253538],[27.3745836,44.123756],[27.3758755,44.1220345],[27.3779703,44.1207551],[27.3799015,44.1195998],[27.3821116,44.1177051],[27.383442,44.116103],[27.3838711,44.1142235],[27.3846651,44.1124519],[27.3851743,44.1118591]],[[22.5296633,44.6711579],[22.5390499,44.6670948],[22.5514731,44.6617169]],[[22.5390499,44.6670948],[22.5421498,44.6587036]],[[22.5189752,44.6778966],[22.5291686,44.6714422]],[[23.0058127,43.8056438],[23.0244211,43.803368],[23.0320926,43.801766],[23.0504687,43.7965951],[23.0629071,43.7962788],[23.0648557,43.7962292],[23.0850587,43.7996018],[23.0935932,43.801355]],[[22.6759871,44.2162232],[22.6766208,44.2158323],[22.6773718,44.2151825],[22.6817787,44.2112414],[22.6870358,44.2070117],[22.6897931,44.2049813],[22.691617,44.2043276],[22.6935375,44.2039123],[22.7014553,44.2038354],[22.7084183,44.2032508],[22.7201074,44.2021894],[22.7273118,44.2016972],[22.7314854,44.2000051],[22.741431,44.1952899],[22.7452826,44.1939284],[22.7512801,44.1923206],[22.7589619,44.1893589],[22.7642727,44.1861893],[22.7703559,44.1798727],[22.7744222,44.1758561],[22.7762246,44.1743018],[22.7816319,44.1701309],[22.7881229,44.1660599],[22.7947426,44.1613805],[22.7987659,44.1590868],[22.8055036,44.1561696],[22.8129816,44.1540374],[22.8214574,44.1517281],[22.8286672,44.1492493],[22.8434086,44.1437602],[22.8563046,44.1389636],[22.8672159,44.1349058],[22.8751874,44.1306243],[22.8874075,44.1239552],[22.891978,44.1211749],[22.8953683,44.1178861],[22.8999174,44.1130719],[22.9048419,44.1090123],[22.9099917,44.1060772],[22.9139507,44.1041435],[22.9194009,44.1016627],[22.9225659,44.1005456],[22.9266643,44.0996441],[22.9327583,44.0987427],[22.9361701,44.0984114],[22.9390454,44.0982187],[22.9443903,44.0973126],[22.9448175,44.0972402],[22.9500425,44.0964158],[22.9535723,44.0960922],[22.960428,44.095861],[22.9650736,44.0962386],[22.9697192,44.0971323],[22.9751909,44.0979414],[22.9792464,44.0980184],[22.9864347,44.0975715],[22.9932154,44.0968652],[22.9934621,44.0968396],[23.0076885,44.0930794],[23.0192542,44.0894962],[23.0238569,44.0876852],[23.0328262,44.0828224],[23.0390704,44.0788378],[23.0442631,44.0745369],[23.046999,44.0705903],[23.047986,44.0672909],[23.0482221,44.0640223],[23.0475354,44.0612931],[23.0435121,44.0531819],[23.0363345,44.0433807],[23.0301762,44.0354985],[23.0235886,44.0264504],[23.0198979,44.0210502],[23.0164432,44.0165831],[23.0129564,44.0136125],[23.0116785,44.0127595],[23.0110788,44.0123703],[23.0073237,44.0105184],[22.9984724,44.0094458],[22.9833555,44.0074163],[22.9719186,44.0057186],[22.9590654,44.0037971],[22.9472315,44.002215],[22.9358375,44.0016131],[22.9337239,44.0014433],[22.9215145,43.9983639],[22.8993916,43.9937407],[22.8951967,43.9928994],[22.8920638,43.9918497],[22.8891992,43.990522],[22.8842533,43.9860989],[22.8806698,43.9822005],[22.8780627,43.9788422],[22.8764427,43.9730438],[22.8751981,43.9679631],[22.8739536,43.9625807],[22.8717863,43.9538073],[22.8686548,43.9395682],[22.8685892,43.9392695],[22.8677308,43.9348503],[22.8655636,43.9303922],[22.8617549,43.9258796],[22.856369,43.9192955],[22.8512192,43.9131668],[22.8481078,43.9084365],[22.8464556,43.9037754],[22.8436036,43.8949595],[22.8434944,43.8946221],[22.8430472,43.8912132],[22.8430116,43.8909419],[22.8413379,43.880851],[22.8413111,43.8774637]],[[23.1411879,43.8054379],[23.1436477,43.8065574],[23.1483556,43.8087227],[23.1568939,43.8126327],[23.1619665,43.8153635],[23.1663838,43.8178121],[23.1772813,43.8220282],[23.2036414,43.8302384],[23.2174205,43.8335431],[23.2282452,43.8358676],[23.2353437,43.8361752],[23.2396245,43.8362758],[23.241545,43.8365699],[23.2429344,43.8373978],[23.2501669,43.8418068],[23.2558774,43.843909],[23.2601058,43.8452291],[23.2641454,43.8459514],[23.2704805,43.8464],[23.287016,43.8465576],[23.2942235,43.8472022],[23.2978928,43.8475504],[23.3060512,43.8484771],[23.3159219,43.849977],[23.3252598,43.8516061],[23.3359051,43.8527343],[23.3407223,43.8531908],[23.346076,43.8530979],[23.3533823,43.8528968],[23.3550346,43.8527188],[23.3565581,43.8524171],[23.3654688,43.8501159],[23.3702052,43.8494538],[23.3747588,43.8491453],[23.3780479,43.8491366],[23.3824467,43.8494151],[23.3906842,43.8503898],[23.4060733,43.8519747],[23.4166382,43.8528946],[23.4223613,43.8539135],[23.427422,43.8541656],[23.434512,43.8528048],[23.4452442,43.8500612],[23.4524408,43.8479024],[23.4669534,43.8431876],[23.4835231,43.838433],[23.4841988,43.8381283]],[[27.9673716,45.2235693],[27.9657416,45.2248195],[27.9647074,45.2257772],[27.9635966,45.2268024],[27.9628688,45.2276926],[27.9613513,45.2302367],[27.9612516,45.2305124],[27.9611988,45.2310736],[27.9612035,45.2313327],[27.9612826,45.2316541],[27.9614037,45.2319788],[27.9616133,45.2322182],[27.9622466,45.2327266],[27.962866,45.2332382],[27.9635366,45.2339171],[27.9639744,45.2343303],[27.9643097,45.2346779],[27.9646543,45.2350551],[27.9648919,45.2354027],[27.96506,45.2356197]],[[20.4540539,44.834113],[20.4570218,44.8334731]],[[20.26,45.146233654875005],[20.2700972,45.1379316],[20.2737284,45.1347914]],[[20.5700598,44.8482874],[20.5811606,44.8517758]]]},"properties":{"name":"Dunărea","name_ro":"Dunărea","type":"river","source":"manual_premap","source_detail":"Overpass API way[waterway=river] name:en=Danube OR name~^Dun (OSM primary tag is Dunărea, not Danube), no country filter, clipped to RO bbox (20.26,43.62)-(29.69,48.27)","osm_type":"way","osm_id":"way/13698602","geocode_tier":"tier1","confidence":"high"}}]}