{"type":"FeatureCollection","metadata":{"pipeline":"tier1_premap","pipeline_version":"1.0","generated_at":"2026-08-11T10:41:03.197650+00:00"},"features":[{"type":"Feature","id":"jiu","geometry":{"type":"MultiLineString","coordinates":[[[23.6937609,44.4036506],[23.701336,44.3980915],[23.7032467,44.3946095],[23.7033131,44.3927256],[23.7046753,44.3906105],[23.7051181,44.3892838],[23.70546,44.3882595],[23.7053535,44.3842748],[23.7041554,44.3829633],[23.7025377,44.3803043],[23.7019523,44.3790028],[23.7032243,44.377237],[23.704245,44.376512],[23.7071725,44.3747831],[23.7099191,44.3718382],[23.7097741,44.367094],[23.7086643,44.3653725],[23.7099269,44.3625224],[23.7111529,44.3615679],[23.7150295,44.3585496],[23.7165676,44.3572035],[23.7170198,44.3551411],[23.7166686,44.3537853],[23.7147427,44.3516265],[23.7138997,44.3500658],[23.7138673,44.3481511],[23.7151871,44.3434185],[23.7144785,44.3389306],[23.7135745,44.3359895],[23.713026,44.3350064],[23.7119072,44.3310711],[23.7091526,44.3291951],[23.7076875,44.3277435]],[[23.6930635,44.4041311],[23.6937609,44.4036506]],[[23.2293603,44.9839914],[23.2299619,44.9824967],[23.2294769,44.9816388],[23.228409,44.9803197],[23.2272614,44.979147],[23.2271104,44.9786315],[23.2259602,44.9778067],[23.2251812,44.9774727],[23.2239743,44.976289],[23.2230993,44.9752135],[23.2230138,44.9745006],[23.2230712,44.9739796],[23.2222688,44.9731039],[23.2207561,44.9717509],[23.2195355,44.9702251],[23.2189326,44.9698606],[23.2167686,44.9689564],[23.2150077,44.9678448],[23.2143332,44.9667758],[23.2133056,44.9666184],[23.2126474,44.9660286],[23.2104322,44.9651991],[23.2094646,44.9648921],[23.2074858,44.9646852],[23.2050314,44.9648846],[23.2011341,44.9646512],[23.2000073,44.9645888],[23.1986498,44.9650808],[23.19755,44.9657504],[23.1970593,44.9663536],[23.19641,44.9672173],[23.1958003,44.9677682],[23.1951657,44.968105],[23.1939067,44.9684138],[23.1920224,44.9685662],[23.1903858,44.9686845],[23.1896778,44.9683836],[23.1894309,44.9677006],[23.18966,44.9672663],[23.1899969,44.9669596],[23.1914732,44.9665335],[23.1920915,44.9661602],[23.1924177,44.9655981],[23.1924949,44.9649292],[23.1921109,44.9642541],[23.1904463,44.9636365],[23.1892443,44.9637006],[23.188408,44.9640026],[23.1876905,44.9644751],[23.1868868,44.9650534],[23.1863851,44.9656524],[23.1857924,44.9659714],[23.184988,44.9661906],[23.1841523,44.966264],[23.1831017,44.9660954],[23.1819782,44.9658279],[23.1815483,44.9652193],[23.1813753,44.9645205],[23.1817256,44.9639752],[23.1822088,44.9637905],[23.1834576,44.9636636],[23.1841087,44.9633276],[23.1854928,44.9630408],[23.1861659,44.9627645],[23.1865314,44.9622442],[23.1856667,44.9603914],[23.1835953,44.9587361],[23.182576,44.958585],[23.1815406,44.9585484],[23.1804566,44.9584093],[23.1800206,44.9589491],[23.1781242,44.9597664],[23.1771366,44.9599993],[23.1763631,44.9599066],[23.1755657,44.9596604],[23.1749822,44.9593324],[23.1747904,44.958905],[23.1748187,44.9583575],[23.1756158,44.9577396],[23.1757455,44.9570538],[23.1753555,44.9565892],[23.1735788,44.9559184],[23.1729115,44.9559908],[23.17248,44.9562851],[23.1723894,44.9567577],[23.1724882,44.957213],[23.1729555,44.9582765],[23.1728774,44.9590516],[23.1724528,44.9594834],[23.1717284,44.9597853],[23.1709711,44.9599186],[23.1702149,44.9598336],[23.1696022,44.9595173],[23.1689349,44.9589175],[23.1685525,44.9576711],[23.1684361,44.9568477],[23.1668341,44.9569817],[23.1658596,44.9569921],[23.1642036,44.9563728],[23.1619341,44.9562876],[23.1596369,44.9562506],[23.1555894,44.9559102],[23.1537876,44.9557074],[23.1530249,44.9554641],[23.1522463,44.9551535],[23.1509646,44.9555198],[23.1481387,44.9553079],[23.1409846,44.9546715],[23.1347435,44.9540935],[23.1331717,44.9537848],[23.1324811,44.9534497],[23.1318305,44.9527992],[23.132139,44.9522013],[23.1322175,44.9500441],[23.1320756,44.9476623],[23.1320526,44.9465054],[23.1326219,44.9451108],[23.1331763,44.9442678],[23.134931,44.9424809],[23.1367432,44.9404435],[23.1371955,44.9389435],[23.1370792,44.9375879],[23.1363277,44.9332968],[23.1362268,44.930286],[23.1374006,44.9263965],[23.1381411,44.9217722],[23.1370429,44.9176807],[23.1375236,44.9138268],[23.1390555,44.9110368],[23.1402004,44.9098714],[23.1415378,44.9087504],[23.144014,44.9073194],[23.1459701,44.9065357],[23.1500448,44.9055139],[23.1558152,44.9040356],[23.1586027,44.9032775],[23.1613283,44.9024918],[23.1672021,44.9008114],[23.1710339,44.8996882],[23.1724921,44.8994972],[23.1768934,44.8994032],[23.1820234,44.8992937],[23.1862591,44.8985588],[23.1905448,44.8977932],[23.191997,44.8975799],[23.1935624,44.8974796],[23.1983395,44.8971731],[23.1996806,44.8970517],[23.2020456,44.8965502],[23.2030934,44.8961301],[23.2046425,44.8952405],[23.2067796,44.8938153],[23.2090977,44.8925114],[23.2116068,44.8912991],[23.2205548,44.8872943],[23.2230916,44.8860076],[23.2248148,44.8849836],[23.2257253,44.8845611],[23.2276206,44.8836815],[23.228857,44.8834298],[23.2306102,44.882423],[23.2310254,44.8817594],[23.2325074,44.880985],[23.2355043,44.8800084],[23.2369051,44.8789712],[23.2387408,44.8772766],[23.2417166,44.8734859],[23.2417985,44.8733816],[23.2445451,44.8704619],[23.245784,44.8693075],[23.2477826,44.8679161],[23.2491333,44.8671397],[23.2509094,44.8663567],[23.2551262,44.8650112],[23.2595579,44.8636842],[23.264932,44.861934],[23.2691112,44.8600223],[23.2711915,44.8591264],[23.2740965,44.8580576],[23.2790906,44.8564095],[23.2812549,44.8555662],[23.2825803,44.8548956],[23.2849662,44.8533814],[23.286615,44.8520482],[23.2903815,44.8475334],[23.2948359,44.8418899],[23.296712,44.8395128],[23.29978,44.8355087],[23.3065093,44.8272155],[23.3107879,44.8216047],[23.3120981,44.819444],[23.3147497,44.8151207],[23.3179681,44.8099632],[23.3193599,44.808124],[23.3202478,44.8072872],[23.3228626,44.8058986],[23.3294667,44.8025544],[23.3334657,44.8002229],[23.335013,44.7982697],[23.336579,44.7961587],[23.3384305,44.7938331],[23.3408471,44.7908432],[23.3420047,44.7896476],[23.3432504,44.7879193],[23.3437096,44.7865797],[23.3438065,44.7848082],[23.3432125,44.7825766],[23.3422465,44.7813312],[23.3408153,44.7800895],[23.337944,44.7781474],[23.3355722,44.7762342],[23.3333208,44.7743975],[23.3333256,44.7721908],[23.333809,44.7713478],[23.3355315,44.7698197],[23.3379026,44.7684172],[23.3400321,44.7673554],[23.3406193,44.7665131],[23.3414483,44.7649558],[23.3425493,44.7623991],[23.3433779,44.7601281],[23.3452761,44.7584269],[23.3464205,44.7569041],[23.3475549,44.7558752],[23.3493476,44.755362],[23.354611,44.7547974],[23.3572776,44.7533071],[23.3582869,44.7501635],[23.3593866,44.7478228],[23.3606367,44.7460183],[23.3633348,44.7444091],[23.3675783,44.7431982],[23.3732911,44.7391662],[23.3755497,44.7367927],[23.3761903,44.7356907],[23.3778474,44.7324026],[23.3797138,44.7270584],[23.3838465,44.7201144],[23.3838615,44.7173349],[23.3827325,44.7111145],[23.3810159,44.7048925],[23.3841054,44.7014718],[23.3849404,44.699809],[23.3850434,44.6996037],[23.3858351,44.698027],[23.3872244,44.6949432],[23.3882221,44.6935268],[23.3911752,44.6926027],[23.3966371,44.6887854],[23.398847,44.6874608],[23.4006973,44.6859669],[23.4031436,44.6837499],[23.4056111,44.6816165],[23.4064813,44.6808734],[23.4089967,44.6767021],[23.4161541,44.6698031],[23.4197857,44.6668915],[23.4204854,44.6657715],[23.426036,44.6615083],[23.4313127,44.6569241],[23.432949,44.6551364],[23.4364625,44.6538713],[23.4375481,44.6530755],[23.4382294,44.651976],[23.4380272,44.6510727],[23.4371562,44.6499071],[23.435815,44.6488665],[23.4353395,44.6480493],[23.4353437,44.6468869],[23.4354055,44.6459281],[23.4362238,44.6449368],[23.4370866,44.6443594],[23.4384157,44.6440138],[23.4394674,44.6432597],[23.4407572,44.6413541],[23.4410753,44.6398927],[23.4407821,44.6373692],[23.4414342,44.6363691],[23.4430438,44.6354351],[23.4442849,44.6345934],[23.444953,44.6334248],[23.4445332,44.6327911],[23.4436329,44.6324066],[23.4424235,44.632321],[23.4398531,44.6332485],[23.4384186,44.6334807],[23.4371061,44.6331312],[23.4356649,44.6324662],[23.4346873,44.6316191],[23.4343643,44.6309377],[23.4351681,44.6299795],[23.4366791,44.6292956],[23.438855,44.6289325],[23.4399681,44.6283856],[23.4415433,44.6264517],[23.4426712,44.6248433],[23.4425502,44.6228174],[23.443348,44.6218959],[23.4449456,44.6216247],[23.4476092,44.6218168],[23.4490272,44.6214772],[23.4498249,44.6208062],[23.4501506,44.6196268],[23.4491655,44.618814],[23.4478993,44.6180367],[23.4467964,44.6165696],[23.4465978,44.6156855],[23.4469831,44.6143362],[23.4466711,44.6136726],[23.4455661,44.6129033],[23.44427,44.6124146],[23.443464,44.6115409],[23.4430724,44.6099494],[23.4430509,44.6080885],[23.4436155,44.6065603],[23.4443338,44.6056269],[23.4462585,44.6047412],[23.4480753,44.6042014],[23.449738,44.604585],[23.4515385,44.6051141],[23.4526072,44.6049791],[23.4536937,44.6044568],[23.4543073,44.6035268],[23.4544104,44.6025913],[23.4539276,44.6010177],[23.4529881,44.6002514],[23.4517147,44.5993747],[23.4503754,44.5977867],[23.4497444,44.5965459],[23.4499987,44.5953616],[23.4507104,44.5938823],[23.4512254,44.5921709],[23.451912,44.5898483],[23.4559921,44.5850051],[23.4564011,44.5835095],[23.4561699,44.5818383],[23.4551736,44.5795785],[23.4556533,44.5754346],[23.45554,44.5713288],[23.4548446,44.5688035],[23.4534914,44.5626293],[23.4522606,44.5593394],[23.4517798,44.5556627],[23.4522976,44.5533763],[23.4542407,44.5494156],[23.4561837,44.5467779],[23.4584352,44.544721],[23.460851,44.5439665],[23.4652446,44.5432402],[23.4697503,44.5418266],[23.4729057,44.5413057],[23.4762495,44.5402156],[23.4769923,44.5398761],[23.4808567,44.5381099],[23.4830411,44.5378534]],[[23.4830411,44.5378534],[23.4896776,44.5333419],[23.4922525,44.5296708],[23.4915658,44.5262442],[23.4903122,44.5234191],[23.4905875,44.5204692],[23.4931121,44.5186155],[23.4966619,44.5184981],[23.5016938,44.5190232],[23.5054704,44.5160855],[23.5068514,44.5137549],[23.5094761,44.5128014],[23.5124787,44.5134536],[23.5144234,44.5150429],[23.5154372,44.5191879],[23.5148228,44.5209532],[23.5156051,44.5230501],[23.5163528,44.5245605],[23.5189585,44.5252172],[23.5209058,44.5253861],[23.5279153,44.5234042],[23.5304269,44.5211993],[23.5299692,44.5173845],[23.531438,44.5154404],[23.5329194,44.5145442],[23.538903,44.5126832],[23.5422731,44.5109071],[23.54487,44.5060226],[23.5466691,44.5048233],[23.5520361,44.501341],[23.5570346,44.4999523],[23.5615959,44.4999561],[23.5721696,44.5029427],[23.5782548,44.497967],[23.582984,44.4972212],[23.5865617,44.4983019],[23.5886157,44.4982281],[23.5917877,44.4966542],[23.593361,44.4951507],[23.5952862,44.4914597],[23.600456,44.4879273],[23.6033123,44.4842962],[23.6032876,44.480916],[23.6019602,44.4798809],[23.5985109,44.4780055],[23.5982375,44.4765132],[23.5983521,44.4760806],[23.5987402,44.474616],[23.6018459,44.4725713],[23.6120287,44.4694196],[23.6130216,44.4682474],[23.6159391,44.4665153],[23.619026,44.4667827],[23.6223225,44.4650689],[23.6246034,44.4617129],[23.6287233,44.4582823],[23.6277913,44.4560677],[23.6242601,44.4543614],[23.6212635,44.4541765],[23.6177128,44.4551139],[23.614264,44.4554194],[23.6114182,44.4534424],[23.6109028,44.4518674],[23.6119005,44.4481118],[23.6134454,44.4445579],[23.6224404,44.4414],[23.6306318,44.4412462],[23.6327685,44.4391216],[23.6356409,44.4371518],[23.6378573,44.4336306],[23.6398817,44.4327476],[23.6440344,44.4324989],[23.6456626,44.4315745],[23.6467264,44.4306918],[23.6460611,44.4275204],[23.6454727,44.4251911],[23.6464941,44.4229759],[23.6485041,44.4211637],[23.6500852,44.4209658],[23.6514906,44.4211009],[23.6547006,44.4220348],[23.6565945,44.4245124],[23.6589602,44.4264477],[23.6607684,44.4271299],[23.6634633,44.4272024],[23.6639383,44.4269517],[23.6651126,44.4264618],[23.6663627,44.4256153],[23.6666188,44.423787],[23.6660014,44.4199329],[23.6666644,44.4186627],[23.6669501,44.4181185],[23.6682982,44.4165137],[23.6716422,44.4150932],[23.6742135,44.4147697],[23.6795458,44.4151069],[23.6810102,44.4150609],[23.6816486,44.4144785],[23.68211,44.4120721],[23.6812516,44.4091291],[23.6802416,44.406801],[23.6807766,44.405851],[23.6865732,44.4045917],[23.6930635,44.4041311]],[[23.3479102,45.1307412],[23.3477708,45.1307412],[23.3475455,45.130779],[23.3473631,45.130779],[23.3471914,45.1306579],[23.3469017,45.1304081],[23.3465691,45.1302113],[23.3461078,45.1299464],[23.3458074,45.1297345],[23.3454963,45.1294847],[23.3449255,45.1290214]],[[23.3775143,45.1832639],[23.3767557,45.1831001],[23.3761321,45.1828744],[23.375517,45.1827544],[23.3750914,45.1826994],[23.3748881,45.1826294],[23.3746239,45.1824536],[23.3741368,45.1819571],[23.3734869,45.1812894],[23.3731355,45.1808695],[23.3727206,45.1804057],[23.3724223,45.1799372],[23.3723553,45.1797791],[23.3722588,45.1793254],[23.3722051,45.1787203],[23.3720549,45.1780019],[23.3719798,45.1773969],[23.3719476,45.1766179],[23.3719964,45.1759712],[23.3719535,45.1755174],[23.3717926,45.1751393],[23.3715507,45.1746741],[23.3712824,45.1740993],[23.3711644,45.1737968],[23.3710416,45.1734451],[23.3709558,45.1725602],[23.3709236,45.172008],[23.3709236,45.1714181],[23.3710201,45.1705785],[23.3709987,45.1700343],[23.3708806,45.1696561],[23.3707412,45.1693686],[23.3704563,45.1689485],[23.3700379,45.1684038],[23.3695825,45.1678558],[23.3689114,45.1671406],[23.36845,45.1666565],[23.367978,45.1661421],[23.3675381,45.1657564],[23.3671411,45.1652041],[23.3667393,45.1646031],[23.3663424,45.1641417],[23.3659824,45.163661],[23.3656927,45.1632449],[23.3655318,45.1628667],[23.365446,45.1624733],[23.3654197,45.1620614],[23.3654996,45.1615806],[23.3657249,45.1609225],[23.3659824,45.1603475],[23.3662506,45.1598406],[23.3665618,45.1593565],[23.3670183,45.1590051],[23.3674201,45.1587512],[23.3674952,45.1585999],[23.3674844,45.1582973],[23.3673879,45.1579947],[23.367184,45.1575181],[23.366948,45.1571247],[23.3666798,45.1568069],[23.3662351,45.1564857],[23.3657952,45.1562512],[23.365285,45.1560201],[23.3650168,45.1558688],[23.3648451,45.1556191],[23.3646842,45.155203],[23.3646413,45.1548625],[23.3647057,45.1544539],[23.3648881,45.1541286],[23.3654245,45.15372],[23.365881,45.1534291],[23.3661862,45.1530618],[23.3663901,45.152691],[23.3664652,45.1524792],[23.366396,45.1522185],[23.3662613,45.1519193],[23.3661219,45.151662],[23.3658322,45.1513972],[23.3654352,45.1510794],[23.3650549,45.1507885],[23.3647008,45.1504934],[23.3644863,45.1502815],[23.3642872,45.1500352],[23.3642073,45.1496762],[23.3641156,45.1492181],[23.3640083,45.1487943],[23.3638688,45.1484463],[23.3636709,45.1481099],[23.3633967,45.1476517],[23.3630701,45.1473003],[23.3625873,45.1469522],[23.3619805,45.1466378],[23.3617123,45.1465243],[23.3613325,45.1463317],[23.3609398,45.1460021],[23.3605708,45.1456279],[23.3602532,45.1452152],[23.3600172,45.1448595],[23.3598734,45.144334],[23.359809,45.1437967],[23.3597382,45.143346],[23.3596202,45.1428693],[23.3594485,45.1424531],[23.3592189,45.1419653],[23.3589507,45.1414886],[23.3586439,45.1411212],[23.3583928,45.1408756],[23.3580388,45.1406561],[23.3575989,45.1404745],[23.3571697,45.1402702],[23.35682,45.1399936],[23.3565153,45.1396269],[23.3563436,45.1393166],[23.3560861,45.139082],[23.3556183,45.1388508],[23.3549317,45.1385102],[23.3544704,45.1384346],[23.3539618,45.1384766],[23.353494,45.1385481],[23.3531893,45.1384614],[23.3529962,45.1383176],[23.3528503,45.1380183],[23.3525134,45.13775],[23.3521744,45.1374356],[23.3518203,45.1371934],[23.3516122,45.1370159],[23.3513805,45.1368301],[23.3512732,45.1366485],[23.3513225,45.1364407],[23.3514298,45.1362439],[23.3515156,45.1359336],[23.3514985,45.1356267],[23.3513375,45.1354451],[23.3510007,45.1352146],[23.3506938,45.1349985],[23.3503398,45.1347791],[23.350218,45.1346629],[23.3498951,45.1344196],[23.3495732,45.1341699],[23.3492514,45.133905],[23.3490475,45.133693],[23.3488007,45.1333827],[23.3486505,45.1331254],[23.3484252,45.1327469],[23.3483179,45.1324139],[23.3482536,45.1320506],[23.3481999,45.1316494],[23.3480712,45.1310666],[23.3479102,45.1307412],[23.3476528,45.1304308],[23.3473094,45.1300978],[23.346891,45.1298329],[23.3465477,45.1295831],[23.3462151,45.1293636],[23.3458932,45.129197],[23.3456572,45.1290911],[23.3453461,45.1290759],[23.3449255,45.1290214],[23.3446573,45.1288549],[23.3443783,45.1286203],[23.3441959,45.1284007],[23.3441745,45.1281207],[23.3442174,45.1278936],[23.3444877,45.1275393],[23.3444663,45.1272138],[23.344359,45.1267597],[23.3441766,45.1263433],[23.3440157,45.1258816],[23.3439406,45.1255864],[23.3439406,45.1253139],[23.3438333,45.1250413],[23.3435543,45.1246931],[23.343329,45.1242541],[23.3431574,45.1239058],[23.3429428,45.1235122],[23.3427711,45.1230807],[23.3427389,45.1227855],[23.342578,45.1225962],[23.3423098,45.1223918],[23.3418914,45.1221723],[23.3416339,45.1220209],[23.3413975,45.1218236],[23.3410438,45.1215666],[23.3407541,45.121173],[23.3404537,45.1206506],[23.3402391,45.1202418],[23.340046,45.1199314],[23.3396383,45.1195983],[23.3391877,45.1193636],[23.3388015,45.1191441],[23.3383938,45.1188942],[23.3381256,45.1186368],[23.3379539,45.1185006],[23.3377179,45.1183492],[23.3374496,45.1183189],[23.3370098,45.1183189],[23.3367737,45.1183189],[23.3365806,45.1182734],[23.3363017,45.1181372],[23.3358189,45.1178722],[23.3352395,45.1175921],[23.3346709,45.1173195],[23.3343597,45.1170621],[23.3338984,45.116729],[23.333716,45.1165019],[23.3334156,45.1161536],[23.3331474,45.1157902],[23.3329757,45.1154949],[23.3327611,45.1151996],[23.3326002,45.1149195],[23.3325251,45.1145712],[23.3325358,45.1142684],[23.3324929,45.1140034],[23.3324393,45.1137687],[23.3323427,45.1135188],[23.3321818,45.1132917],[23.332043,45.1131059],[23.3318705,45.1129445],[23.3317115,45.1128138],[23.3314764,45.1126708],[23.3312396,45.1125058],[23.3309424,45.1123879],[23.3304976,45.1122077],[23.3300627,45.111982],[23.3295531,45.1116679],[23.3292046,45.1113679],[23.3288827,45.1109605],[23.3287563,45.1104814],[23.3288696,45.1099602],[23.3288483,45.1095032],[23.3287953,45.109086],[23.328826,45.1089114],[23.3288503,45.1087459],[23.3287853,45.1086287],[23.3286567,45.1085025],[23.3283194,45.1082829],[23.3279743,45.1081202],[23.3274611,45.1079006],[23.32715,45.1076507],[23.3268174,45.1074008],[23.3263989,45.1071661],[23.3260127,45.1069692],[23.3257119,45.1067889],[23.3254135,45.1065791],[23.3251862,45.1063861],[23.3248754,45.1060454],[23.3244892,45.1056137],[23.3240493,45.1051442],[23.3236953,45.1047126],[23.3233412,45.1043264],[23.3232352,45.104231],[23.3227823,45.1038236],[23.322396,45.103445],[23.3220312,45.1031269],[23.3217416,45.1027786],[23.3215281,45.1023726],[23.3211418,45.1019713],[23.3207234,45.1016987],[23.3202299,45.1014185],[23.3198222,45.1011004],[23.3195218,45.1008353],[23.3191999,45.10054],[23.3185724,45.1002819],[23.3180017,45.0999303],[23.3176457,45.0996376],[23.3175116,45.0993335],[23.3174449,45.0987904],[23.3174216,45.0983169],[23.3174934,45.0977671],[23.3176442,45.097346],[23.3177537,45.0969892],[23.3178506,45.0966843],[23.3178926,45.0964678],[23.3178795,45.0960162],[23.3177926,45.095457],[23.3177256,45.0950226],[23.3177807,45.0945617],[23.3179371,45.0938843],[23.3183256,45.0924666]],[[23.3664695,45.1524944],[23.3667715,45.1521728],[23.366911,45.1518475],[23.3669861,45.1514011],[23.3670076,45.1509471],[23.3669539,45.1505461],[23.3669003,45.1502283],[23.3669647,45.1498726],[23.367029,45.1495473],[23.3670398,45.1492295],[23.366911,45.1489949],[23.3667286,45.1486771],[23.3664389,45.1485409],[23.3661707,45.1483442],[23.3662136,45.1479734],[23.3662136,45.1476329],[23.3662995,45.1473302],[23.3664926,45.146967],[23.3665677,45.1467324],[23.3665033,45.1465357],[23.3663424,45.1463843],[23.3660742,45.1463919],[23.3656772,45.1464449],[23.3651193,45.1464903],[23.3645078,45.1465054],[23.364025,45.1465433],[23.3635529,45.1465433],[23.3631452,45.1464827],[23.3626302,45.1464297],[23.3622654,45.1463995],[23.3619758,45.146233],[23.3614071,45.1460363],[23.3609398,45.1460021]],[[23.3890724,45.2278515],[23.3889719,45.2276183],[23.3884249,45.2269518],[23.3880458,45.2267174],[23.3875308,45.2265672],[23.3871387,45.2265371],[23.3867935,45.2265438],[23.3860376,45.2265858],[23.3830921,45.2269936],[23.3826187,45.2270086],[23.3820961,45.2269108],[23.3817475,45.2266913],[23.3814741,45.226343],[23.3814394,45.226023],[23.3814741,45.2258597],[23.3815662,45.2257037],[23.3819998,45.2252797],[23.383062,45.2238296],[23.3831521,45.2235634],[23.3831744,45.2233155],[23.3829975,45.2228031],[23.3826769,45.2224908],[23.3822145,45.2222046],[23.3809672,45.2216015],[23.3805097,45.2212775],[23.3802667,45.2210149],[23.3788199,45.2186651],[23.3786852,45.2185248],[23.3784972,45.2183324],[23.3781534,45.2181353],[23.3774175,45.2178969],[23.3770352,45.2177202],[23.3768123,45.2175328],[23.3766713,45.2173569],[23.376597,45.2170798],[23.376621,45.21682],[23.3766763,45.2165717],[23.3767807,45.2163697],[23.3773313,45.2157968],[23.3780188,45.2149764],[23.3786212,45.2145109],[23.3804968,45.2135022],[23.3808168,45.2132494],[23.3809363,45.2130321],[23.3810128,45.2127771],[23.381013,45.2125658],[23.3809756,45.2123432],[23.3804891,45.2114972],[23.3800937,45.2109082],[23.3797494,45.2105621],[23.3792111,45.210125],[23.3787592,45.2098254],[23.3782483,45.2096469],[23.3776436,45.2095667],[23.3766872,45.2095302],[23.3755188,45.2095277],[23.3751173,45.2094705],[23.3747694,45.209349],[23.3745162,45.2091682],[23.3743864,45.2089761],[23.3743402,45.2086837],[23.3743431,45.2077328],[23.3743707,45.2068523],[23.3743152,45.2063253],[23.374098,45.2059862],[23.3736656,45.2055645],[23.3736884,45.2051511],[23.3740862,45.2048803],[23.3768411,45.2037008],[23.3775201,45.2034858],[23.3780006,45.203286],[23.3781543,45.2031489],[23.3782543,45.2029777],[23.3782692,45.2027779],[23.3782358,45.2025667],[23.3781552,45.2023922],[23.3780424,45.2022441],[23.3776095,45.2019661],[23.3766177,45.2014587],[23.3764169,45.2011616],[23.3763462,45.2007848],[23.3764926,45.2003948],[23.3769821,45.2001034],[23.3787624,45.1996655],[23.3792706,45.1994948],[23.3797319,45.1992846],[23.3801268,45.1990025],[23.3804368,45.1986518],[23.3813314,45.1969395],[23.383834,45.1941366],[23.3839889,45.1940558],[23.3842491,45.1939084],[23.3844878,45.1937515],[23.3847051,45.1936286],[23.3848955,45.1935285],[23.3850591,45.1934321],[23.3852871,45.1932865],[23.3855258,45.1931693],[23.3857847,45.1930564],[23.3860569,45.1929557],[23.3864016,45.1928428],[23.3866939,45.1927653],[23.3868951,45.192735],[23.3871915,45.1927289],[23.3874517,45.1927327],[23.3877306,45.1927781],[23.3879995,45.1927642]],[[23.3678763,45.3685444],[23.3680472,45.3684742],[23.368247,45.368389],[23.3684898,45.3682839],[23.368766,45.3681614],[23.3689873,45.3680423],[23.3691187,45.367933],[23.3692475,45.3678218],[23.3693628,45.3677049],[23.369454,45.3675542],[23.3695412,45.3673813],[23.3696203,45.3672282],[23.3696901,45.3671246],[23.369792,45.3670529],[23.3699502,45.366938],[23.3700656,45.3668645],[23.3701782,45.3667609],[23.3702345,45.3666742],[23.3702587,45.3665291],[23.3702775,45.3663727],[23.3702828,45.3662257],[23.3703016,45.3660298],[23.370307,45.3658357],[23.3703257,45.3657339],[23.3703445,45.3655945],[23.3703552,45.3654927],[23.370425,45.3653966],[23.3705108,45.3653099],[23.370661,45.3651554],[23.3707884,45.3649975],[23.3708971,45.3648746],[23.371007,45.3647634],[23.3711492,45.364607],[23.3712149,45.3644943],[23.3712404,45.3643846],[23.3712578,45.364287],[23.3712699,45.3641227],[23.3712645,45.3639738],[23.3712538,45.3638494],[23.3712793,45.3637254],[23.3713208,45.3636403],[23.3713436,45.3635426],[23.3713584,45.3634367],[23.3714429,45.363373],[23.3715491,45.3632999],[23.3715958,45.3632373],[23.3716508,45.3631729],[23.37175,45.3630975],[23.3719297,45.3629901],[23.3720866,45.362917],[23.3722489,45.3628186],[23.3723991,45.3627338],[23.3725238,45.3626343],[23.3726217,45.3625472],[23.3726915,45.3624681],[23.3727397,45.3623851],[23.3727666,45.3623098],[23.3727773,45.3622363],[23.3727719,45.3621515],[23.3727773,45.3619762],[23.3727961,45.3618782],[23.3728202,45.3618066],[23.372906,45.3617105],[23.3730536,45.3616219],[23.3731917,45.361562],[23.3733848,45.3614922],[23.373645,45.36143],[23.3739186,45.3613509],[23.3741854,45.3612751],[23.3744899,45.3612001],[23.3747568,45.3611225],[23.3750035,45.3610452],[23.37521,45.3609698],[23.3754421,45.360908],[23.375611,45.3608835],[23.3758296,45.360853],[23.3760348,45.3608326],[23.3761958,45.3608062],[23.3763929,45.3607719],[23.3765753,45.3607286],[23.3767416,45.3606626],[23.3769079,45.3606004],[23.3770903,45.3605081],[23.3771842,45.3604233],[23.3773209,45.3602989],[23.3774256,45.3601933],[23.3775192,45.360074],[23.3775516,45.3600011],[23.3775838,45.3598805],[23.3775918,45.3597486],[23.3775972,45.3596072],[23.3776214,45.359496],[23.3776509,45.3593999],[23.3777125,45.3593094],[23.3778252,45.3591869],[23.3779714,45.359061],[23.3780733,45.3589329],[23.3781484,45.3588292],[23.3782047,45.3587218],[23.3782544,45.3585989],[23.3783335,45.358505],[23.3783992,45.3584123],[23.3784689,45.3583369],[23.3785682,45.3582521],[23.3786728,45.3581786],[23.3788042,45.3580938],[23.3789651,45.3580165],[23.3791435,45.3579302],[23.3792937,45.3578303],[23.3794104,45.3577282],[23.3795083,45.3576079],[23.3796799,45.3575043],[23.3798597,45.3574176],[23.3800903,45.3573196],[23.3803197,45.3572212],[23.3805101,45.357142],[23.3806362,45.3570421],[23.3807542,45.3569102],[23.3808548,45.3567899],[23.3809406,45.3566505],[23.3810532,45.3565035],[23.3811605,45.3563546],[23.3812222,45.3562547],[23.381249,45.3561567],[23.3812678,45.3560436],[23.3812692,45.355932],[23.3812316,45.3558377],[23.3811887,45.3557077],[23.3811471,45.3555988],[23.3811293,45.3555691],[23.3810962,45.3555139],[23.3809915,45.3553613],[23.3808534,45.3552403],[23.3807408,45.3551423],[23.3806308,45.3550631],[23.3805624,45.3549862],[23.3805128,45.3548953],[23.3804873,45.35476],[23.3804591,45.3546409],[23.3804417,45.3544754],[23.380439,45.3543548],[23.3804149,45.3542323],[23.3803518,45.3540491],[23.3802902,45.3538455],[23.380215,45.3536495],[23.3801359,45.3534463],[23.3800608,45.3532389],[23.379971,45.3530237],[23.3798838,45.3528695],[23.3798087,45.3527187],[23.3797443,45.3525868],[23.3796813,45.3524356],[23.3796303,45.3523055],[23.3796035,45.3522188],[23.3795888,45.3520816],[23.3795981,45.3519399],[23.3796393,45.3518198],[23.3796817,45.3517584],[23.3797899,45.3515782],[23.3798529,45.3514837],[23.37992,45.3513895],[23.3800219,45.3512858],[23.3801775,45.3511576],[23.3803062,45.3510445],[23.3804605,45.3508771],[23.3805798,45.350726],[23.3806965,45.3505529],[23.3807555,45.3504304],[23.3808172,45.3502664],[23.3808682,45.3500873],[23.3808682,45.3499667],[23.3808601,45.3497707],[23.3808557,45.3495761],[23.3808279,45.3494483],[23.3807931,45.3493277],[23.3807394,45.3491976],[23.3806952,45.3490747],[23.3806134,45.3489111],[23.3805248,45.3487659],[23.380435,45.3486468],[23.3803451,45.3484851],[23.3802995,45.3483757],[23.3802727,45.3482947],[23.3802674,45.3482268],[23.3802902,45.3481567],[23.3803679,45.3480115],[23.3804108,45.3479286],[23.3805208,45.3477665],[23.3806335,45.3476213],[23.3807381,45.3475082],[23.3808749,45.3473763],[23.381017,45.3472519],[23.3811646,45.347135],[23.3812745,45.3470407],[23.3813604,45.3469503],[23.3815052,45.3468013],[23.3816393,45.3466637],[23.3817265,45.3465566],[23.3818204,45.3464021],[23.381882,45.3462946],[23.3819799,45.3461114],[23.3820497,45.34597],[23.3821141,45.3458437],[23.3821436,45.3457532],[23.3821623,45.345659],[23.3821596,45.3455967],[23.3821677,45.3454931],[23.3821436,45.3454214],[23.3821006,45.345346],[23.381996,45.3452442],[23.3817949,45.3451613],[23.3816152,45.3451179],[23.3814945,45.3450896],[23.3811498,45.34509],[23.3808534,45.3451085],[23.3806603,45.3451179],[23.3803223,45.3451424],[23.3801829,45.3451594],[23.3800327,45.3451669],[23.3799093,45.34515],[23.3798154,45.345101],[23.3796893,45.3450406],[23.3794828,45.3449294],[23.3793675,45.3448634],[23.3792523,45.3448099],[23.3790966,45.3447484],[23.3788793,45.3446824],[23.3787184,45.344624],[23.3785253,45.3445373],[23.3783643,45.3444506],[23.3782088,45.3443902],[23.3780398,45.3442979],[23.3779083,45.3441866],[23.3778078,45.3440607],[23.3777461,45.3439551],[23.3777649,45.3438401],[23.3778131,45.3437157],[23.3778386,45.3435626],[23.3778601,45.3434062],[23.3778668,45.3432218],[23.3778882,45.3430389],[23.3779191,45.3428745],[23.3779365,45.3427316],[23.3779083,45.3425371],[23.3779097,45.3423753],[23.3779083,45.3422053],[23.3778762,45.3419828],[23.3778587,45.341855],[23.3778118,45.3416454],[23.3777783,45.3414704],[23.3777394,45.3413456],[23.3776991,45.341191],[23.3776723,45.3410722],[23.3776696,45.3409233],[23.3776616,45.3407894],[23.3776254,45.340639],[23.3775838,45.3405255],[23.3775543,45.3404143],[23.3774953,45.340303],[23.3774457,45.340162],[23.3773907,45.3400485],[23.3773706,45.3399716],[23.3773518,45.3398754],[23.3773437,45.3397435],[23.3773384,45.3396002],[23.3773062,45.3394739],[23.3772418,45.3393532],[23.3772002,45.3392454],[23.3771684,45.3391105],[23.3771506,45.3389629],[23.3771627,45.3387891],[23.3771721,45.3386669],[23.377164,45.3385369],[23.3771506,45.3384464],[23.3771198,45.3383159],[23.3771054,45.3382867],[23.3770407,45.338156],[23.3769723,45.3380161],[23.376877,45.3378694],[23.3768127,45.337745],[23.376763,45.3376466],[23.3767631,45.3375491],[23.3767764,45.3374185],[23.3768086,45.3370753],[23.3768515,45.3367925],[23.3768944,45.3365587],[23.3769641,45.3362646],[23.3770073,45.3360547],[23.3770234,45.3359001],[23.3770127,45.3357153],[23.3769912,45.3355494],[23.3769105,45.3353369],[23.3767817,45.3351182],[23.3766157,45.334882],[23.3764709,45.3346972],[23.376315,45.334413],[23.3762292,45.3341642],[23.3761061,45.3339567],[23.3759559,45.3337757],[23.3758432,45.3336023],[23.3757789,45.333459],[23.3757574,45.3333396],[23.3757199,45.3331247],[23.3756609,45.3328782],[23.3755911,45.3327161],[23.3755053,45.3325137],[23.3754248,45.3323704],[23.375339,45.332222],[23.3752049,45.3320122],[23.3751351,45.3318538],[23.3750547,45.3317143],[23.375001,45.3315395],[23.3749872,45.3313409],[23.3749957,45.3311448],[23.3750386,45.3309549],[23.3750976,45.3308116],[23.3752692,45.3305791],[23.3753604,45.3305075],[23.375575,45.3303755],[23.3756479,45.3302927],[23.3757091,45.3302044],[23.3757252,45.3301026],[23.3758164,45.3297934],[23.3758915,45.3296023],[23.3759774,45.3294251],[23.3760256,45.3292629],[23.3760525,45.329073],[23.3760364,45.3288505],[23.375972,45.3287349],[23.375931,45.328641],[23.375913,45.3285714],[23.3758754,45.3284219],[23.3757735,45.328256],[23.3755858,45.3280548],[23.3753283,45.327909],[23.375162,45.3277832],[23.3750064,45.3276776],[23.3748508,45.3275696],[23.3746631,45.3274664],[23.3744002,45.3273382],[23.3741803,45.327225],[23.3738799,45.3271157],[23.3735741,45.3269987],[23.373263,45.3268832],[23.3728767,45.3267272],[23.3725656,45.3266027],[23.3723671,45.3265499],[23.3721042,45.3264594],[23.3719058,45.3264142],[23.3716375,45.32635],[23.371364,45.3262369],[23.3712245,45.326159],[23.3711226,45.3260559],[23.3710796,45.3259516],[23.3710528,45.3258158],[23.3710904,45.3256951],[23.3711333,45.3256348],[23.3713103,45.3255141],[23.3715732,45.3254236],[23.3719862,45.3252953],[23.372292,45.3251959],[23.3725495,45.3251105],[23.3726568,45.3250539],[23.3728928,45.3249244],[23.3730484,45.3248126],[23.3733166,45.3246226],[23.3735097,45.3244957],[23.3737511,45.3243335],[23.373955,45.3241625],[23.3741628,45.3239935],[23.374301,45.3238627],[23.3744431,45.323725],[23.3746497,45.3235345],[23.3748025,45.3233893],[23.3749045,45.3232435],[23.3750547,45.3230725],[23.3751727,45.3229706],[23.3753014,45.3228631],[23.3753524,45.322767],[23.3753685,45.3226444],[23.3753309,45.3225482],[23.3752532,45.3224256],[23.3750922,45.3222578],[23.3749179,45.3221088],[23.3747945,45.3219919],[23.3747114,45.3218994],[23.3746604,45.321807],[23.3745611,45.3216826],[23.374427,45.3216109],[23.3742929,45.3215053],[23.3741427,45.3213884],[23.3740113,45.3212733],[23.3738825,45.3210979],[23.3737565,45.3209678],[23.3736304,45.3208131],[23.3734883,45.3206962],[23.3733488,45.3205736],[23.3731905,45.320419],[23.3730752,45.3203209],[23.3729089,45.3201996],[23.3727963,45.3201229],[23.3727265,45.3200644],[23.3726005,45.3199946],[23.3724476,45.3199507],[23.372241,45.3198947],[23.3720667,45.3198626],[23.3719192,45.3198023],[23.3718317,45.3197273],[23.3717716,45.31966],[23.371667,45.3195175],[23.3715839,45.3194043],[23.3715383,45.3193044],[23.3714841,45.3192026],[23.3714435,45.3190972],[23.3714276,45.3190048],[23.3714554,45.318847],[23.3715594,45.3187063],[23.3717169,45.3185703],[23.371891,45.3184493],[23.3719997,45.3183655],[23.3721737,45.318262],[23.3723288,45.3181815],[23.3725548,45.3181023],[23.3727119,45.3180608],[23.3729411,45.3179937],[23.3731898,45.3179336],[23.3734151,45.3178872],[23.3736228,45.3178537],[23.3738228,45.3178485],[23.3739641,45.3178542],[23.3741299,45.3178689],[23.3743007,45.317888],[23.3745219,45.3179366],[23.3748007,45.3179988],[23.3750177,45.3180553],[23.3752832,45.3181386],[23.3754879,45.3181892],[23.3756809,45.3182346],[23.3758257,45.3182438],[23.3759516,45.3182532],[23.3760695,45.3182609],[23.3762063,45.3182685],[23.3763326,45.3182835],[23.3765278,45.3182818],[23.376722,45.3182815],[23.3768987,45.3182721],[23.3770457,45.3182611],[23.3772233,45.3182553],[23.3773707,45.3182494],[23.3775124,45.3182214],[23.3777075,45.3181691],[23.3778632,45.3181179],[23.3780683,45.3180325],[23.3782366,45.3179667],[23.378358,45.3179137],[23.3785104,45.3178017],[23.378642,45.3176486],[23.378703,45.317483],[23.3787842,45.317337],[23.3788881,45.3172161],[23.3790116,45.3170747],[23.3791691,45.3169181],[23.3793601,45.3167599],[23.3794794,45.3166348],[23.3796088,45.3165168],[23.379808,45.3163864],[23.3800419,45.3162862],[23.3802917,45.3161898],[23.3804767,45.3161483],[23.3806442,45.3160943],[23.3808031,45.3160335],[23.3810333,45.3159546],[23.3812389,45.3158635],[23.3814153,45.3158074],[23.3815761,45.315732],[23.3817237,45.3156621],[23.3818809,45.3155847],[23.382026,45.3155094],[23.3821367,45.3154298],[23.3822171,45.3153584],[23.3822689,45.3152865],[23.3823323,45.3151886],[23.3823724,45.3151242],[23.3824162,45.3150178],[23.3824372,45.314883],[23.3825078,45.3147533],[23.3825618,45.3146339],[23.3825672,45.3145151],[23.382546,45.3143684],[23.3825299,45.3142609],[23.3825388,45.3141113]],[[23.3799162,45.2989152],[23.3801025,45.2992543],[23.3802531,45.299436],[23.3803948,45.299543],[23.3805692,45.299726],[23.3807489,45.299909],[23.3809232,45.3000731],[23.3811164,45.3002335],[23.3812286,45.3002861]],[[23.3919888,45.2496242],[23.3921364,45.2495389],[23.3922801,45.2494148],[23.3923389,45.249332],[23.392372,45.2492263],[23.3923848,45.249132],[23.3923499,45.2488964],[23.3923092,45.2487445],[23.3922524,45.2486183],[23.3916658,45.2477381],[23.3907164,45.2464814],[23.3900324,45.2456991],[23.3898481,45.2454346],[23.3897264,45.2452069],[23.3895918,45.2449175],[23.3895198,45.2446464],[23.3894935,45.2443443],[23.389556,45.2440349],[23.3896882,45.2437288],[23.3900238,45.2431986],[23.3912394,45.2417441],[23.3919744,45.2411253],[23.3944636,45.2389156],[23.3945498,45.2387686],[23.3946203,45.2385077],[23.3946386,45.2382878],[23.3945916,45.2380944],[23.3943945,45.2379265],[23.3940143,45.2377897],[23.3930244,45.2375641],[23.3926577,45.2374424],[23.3923953,45.23725],[23.392182,45.2369709],[23.3919644,45.23684],[23.3917676,45.2367643],[23.3915779,45.2366981],[23.3912526,45.2366577],[23.3908676,45.2366526],[23.3904879,45.2366806],[23.3896494,45.2367786],[23.3893344,45.2367565],[23.3890064,45.2366273],[23.3888433,45.236425],[23.3887944,45.2362313],[23.3888521,45.2359164],[23.3890708,45.2355299],[23.3904604,45.2336512],[23.3906003,45.233432],[23.3906933,45.2332054],[23.3907226,45.2329134],[23.390473,45.2317445],[23.3899621,45.2306898],[23.3888213,45.2292536],[23.3887003,45.2289905],[23.388754,45.2287789],[23.3890332,45.228195],[23.3890856,45.2280088],[23.3890724,45.2278515]],[[23.3825388,45.3141113],[23.382891,45.3128332],[23.3832108,45.3121361],[23.3834806,45.3119309],[23.384546,45.3113678],[23.3846338,45.3112552],[23.3846696,45.3111321],[23.3846044,45.3108257],[23.3845777,45.3105184],[23.3845041,45.3103543],[23.3843951,45.310185],[23.3837591,45.3096818],[23.3836516,45.3095724],[23.3831107,45.3080807],[23.3830185,45.3077976],[23.3828835,45.307466],[23.3828542,45.3073445],[23.3828379,45.3071479],[23.3828552,45.3070146],[23.3829187,45.3067738],[23.3831026,45.3063621],[23.3834277,45.3055388],[23.3834527,45.3053939],[23.3834355,45.3052952],[23.3833921,45.3051855],[23.3832219,45.3049937],[23.3829366,45.3047766],[23.3827096,45.3046607],[23.3823504,45.3045574],[23.3819093,45.304514],[23.3815651,45.3045425],[23.3813331,45.3046118],[23.3812093,45.3047097],[23.381049,45.3048773],[23.3808941,45.3050134],[23.3807692,45.305122],[23.3806553,45.3052073],[23.3804887,45.3052903],[23.3803026,45.3053509],[23.3800472,45.3054002],[23.3796896,45.3054453],[23.3795154,45.3054425],[23.3794035,45.3054059],[23.3793215,45.3053503],[23.3792795,45.3052596],[23.3793011,45.3051684],[23.37936,45.3050774],[23.3794369,45.3049567],[23.3794641,45.3048983],[23.3794613,45.3048124],[23.3793863,45.3046018],[23.3793775,45.3044419],[23.3794293,45.3042822],[23.3795036,45.3041337],[23.3795873,45.3040362],[23.379692,45.3039113],[23.3798207,45.3036757],[23.3799313,45.3033725],[23.3800849,45.3031924],[23.380288,45.3029993],[23.380515,45.3028521],[23.380735,45.3027085],[23.3810541,45.3025586],[23.381294,45.3023885],[23.3815492,45.3021006],[23.3816558,45.3019016],[23.3816932,45.3017112],[23.3816232,45.3014404],[23.3812286,45.3002861],[23.3811196,45.2999682],[23.381064,45.2998075],[23.3809977,45.2996869],[23.380854,45.299547],[23.3806345,45.2993812],[23.3799162,45.2989152],[23.3792705,45.2983519],[23.3791152,45.2981771],[23.3790384,45.2980328],[23.3790043,45.2978635],[23.3790059,45.2977241],[23.3790857,45.2975122],[23.3792072,45.2972714],[23.3794269,45.2970052],[23.3797925,45.2966364],[23.380169,45.2963177],[23.381178,45.2955865],[23.3814652,45.295397],[23.3819035,45.2951611],[23.3823267,45.2949018],[23.382531,45.2947352],[23.3828453,45.2943265],[23.3829749,45.2940963],[23.383077,45.2938661],[23.3831251,45.2936805],[23.3831518,45.2935049],[23.3831529,45.293355],[23.3831256,45.2932051],[23.3830691,45.2930357],[23.382977,45.2928613],[23.3827453,45.2925165],[23.3825504,45.2922391],[23.3823463,45.2920005],[23.3819887,45.291714],[23.3811787,45.2910766],[23.3808705,45.2908322],[23.3807307,45.2906919],[23.3806015,45.290529],[23.3804428,45.2903084],[23.3795061,45.2888356],[23.379021,45.287594],[23.3789577,45.2874081],[23.3789584,45.2872572],[23.3789885,45.2871118],[23.3790541,45.2869865],[23.379129,45.28687],[23.3792508,45.2867351],[23.3794089,45.2866513],[23.3796772,45.2866031],[23.3800002,45.2866267],[23.3804328,45.2866796],[23.3810463,45.2867506],[23.3814358,45.2869018],[23.3824959,45.2874408],[23.3832634,45.288064],[23.3836883,45.2883789],[23.3838744,45.2885516],[23.384109,45.2887505],[23.3843269,45.2892814],[23.3843695,45.289437],[23.3843777,45.2896627],[23.3843354,45.2899013],[23.3842953,45.2900204],[23.3842325,45.2901395],[23.3841529,45.2902514],[23.3841277,45.290325],[23.3841258,45.290398],[23.384151,45.2904647],[23.3842248,45.2905333],[23.3843589,45.2905987],[23.384524,45.2906265],[23.3847166,45.290635],[23.3848431,45.2906158],[23.384988,45.2905773],[23.3851621,45.2905226],[23.3852995,45.2904678],[23.3854708,45.2903312],[23.3856054,45.2901882],[23.3858537,45.2896631],[23.3862673,45.288692],[23.3877351,45.2861863],[23.3878196,45.2859355],[23.3878389,45.2857049],[23.3877678,45.2853722],[23.3875436,45.2840083],[23.3875121,45.283625],[23.3875446,45.2833068],[23.3876281,45.2831239],[23.3877439,45.2829995],[23.3879547,45.2828767],[23.388382,45.2828248],[23.3891428,45.2827101],[23.3895308,45.2827086],[23.3900088,45.2827616],[23.3903605,45.2827975],[23.3905003,45.2827919],[23.3907487,45.2827485],[23.3909722,45.2826551],[23.3912368,45.2824895],[23.3914076,45.282356],[23.3916007,45.282145],[23.391751,45.2819376],[23.3918797,45.2817056],[23.3919656,45.2814773],[23.3920337,45.2812039],[23.3920262,45.2809956],[23.3919389,45.2807491],[23.3918062,45.2805427],[23.3915595,45.2803117],[23.3911489,45.2800879],[23.390679,45.2799482],[23.3902075,45.2798594],[23.3897674,45.279851],[23.3892718,45.279912],[23.3886935,45.2800253],[23.3884058,45.2801479],[23.3882557,45.2802673],[23.3881833,45.2803803],[23.3882111,45.2805109],[23.3882515,45.2807215],[23.3883073,45.2809799],[23.3883019,45.2811496],[23.3882033,45.2812808],[23.3879437,45.2814843],[23.3877087,45.2815968],[23.3874299,45.2816916],[23.3870561,45.2817951],[23.3867933,45.2819073],[23.3864957,45.2819971],[23.3861531,45.2820165],[23.385702,45.2820378],[23.3852969,45.282033],[23.3848764,45.2819653],[23.3844729,45.2818733],[23.38419,45.2817594],[23.3839423,45.2815907],[23.3836468,45.2813163],[23.3834623,45.2810161],[23.3833631,45.2807906],[23.3832937,45.2804849],[23.3833125,45.2802603],[23.3834688,45.2801097],[23.3836514,45.2797858],[23.3838157,45.2795672],[23.3839024,45.2795176],[23.3840934,45.2794666],[23.3843019,45.279449],[23.3851778,45.2794865],[23.3862938,45.2795874],[23.3865673,45.2796413],[23.3868998,45.2796969],[23.3871155,45.2796816],[23.3872231,45.2796395],[23.3873465,45.2795691],[23.3877257,45.2793071],[23.3878978,45.2791464],[23.388072,45.2788715],[23.3882533,45.2787151],[23.3887958,45.2784221],[23.3890953,45.278194],[23.3893703,45.2779806],[23.3897335,45.2776761],[23.3898517,45.2775428],[23.3898996,45.2774241],[23.3899116,45.2772925],[23.3898611,45.2771741],[23.3897672,45.2770568],[23.3895793,45.276892],[23.3892741,45.2766802],[23.3887883,45.2764036],[23.3883598,45.2761377],[23.3881046,45.2760336],[23.3878775,45.2759849],[23.3876639,45.2759872],[23.3874355,45.2760351],[23.3871541,45.2761578],[23.3869932,45.2762069],[23.386827,45.276235],[23.3865911,45.2762363],[23.3863938,45.2762014],[23.3862001,45.2761541],[23.3857831,45.2759973],[23.3856313,45.2758791],[23.3855741,45.2757516],[23.3855483,45.2755286],[23.3854806,45.2751882],[23.3853556,45.2748294],[23.3852358,45.2745976],[23.3851213,45.2744465],[23.3849553,45.2742714],[23.3847997,45.2741293],[23.3845783,45.2740232],[23.3843568,45.2739776],[23.3840687,45.2739594],[23.3837566,45.2740123],[23.3835928,45.2741014],[23.3835179,45.2742205],[23.3834952,45.2743469],[23.383505,45.2745102],[23.3836131,45.274715],[23.3838681,45.2749501],[23.3841257,45.275187],[23.3842652,45.2754235],[23.3843218,45.2756721],[23.384342,45.2759207],[23.3843045,45.2762135],[23.3842396,45.2763999],[23.3841382,45.2765862],[23.3840487,45.2767217],[23.3839071,45.2768426],[23.3836692,45.2769342],[23.3834018,45.2769732],[23.3831228,45.2769747],[23.382868,45.2769475],[23.3825342,45.2768832],[23.3816518,45.2766644],[23.3813664,45.2765398],[23.3811337,45.2763806],[23.3802245,45.2756155],[23.3798419,45.2754371],[23.3794326,45.2752818],[23.3768135,45.2745139],[23.3747593,45.2740412],[23.374166,45.2737905],[23.3733388,45.2732054],[23.3731652,45.2728838],[23.3731699,45.2725955],[23.3731716,45.272424],[23.3732333,45.272247],[23.3733644,45.2721236],[23.3736469,45.2719897],[23.3737848,45.2719133],[23.3738837,45.2718076],[23.3739773,45.2715724],[23.3740443,45.2714434],[23.3741271,45.2713254],[23.3743265,45.271201],[23.3750373,45.2709151],[23.3759686,45.2703437],[23.3764357,45.2701008],[23.3767551,45.2699748],[23.3771806,45.2699065],[23.3776077,45.2698796],[23.378252,45.2698661],[23.3792804,45.269883],[23.3801028,45.2699444],[23.3806654,45.2700357],[23.3815211,45.270234],[23.382136,45.2704223],[23.3828321,45.2706483],[23.3839617,45.2710411],[23.3843663,45.2711249],[23.3847806,45.2711645],[23.3852864,45.2711061],[23.3858728,45.2710644],[23.3863728,45.2708386],[23.3867952,45.269864],[23.3875709,45.2694751],[23.3886366,45.2687383],[23.3888316,45.2686035],[23.3892339,45.2684928],[23.3908683,45.2680432],[23.3929669,45.2665469],[23.3932683,45.2662097],[23.3935761,45.2656112],[23.3937272,45.2651876],[23.3939487,45.2640071],[23.3939792,45.2637715],[23.393977,45.263536],[23.3939141,45.2632102],[23.3937935,45.262934],[23.3935474,45.2626779],[23.3932116,45.2625208],[23.3926914,45.2623837],[23.3921839,45.2623233],[23.3918336,45.2623368],[23.3913822,45.2624163],[23.3908132,45.2625816],[23.3898982,45.2629762],[23.388542,45.2635672],[23.388257,45.2636375],[23.3880271,45.2636323],[23.3877924,45.2635792],[23.3875342,45.2634631],[23.3873729,45.2633529],[23.387239,45.2632234],[23.3869556,45.2628823],[23.3867666,45.2625626],[23.3866791,45.2623522],[23.3866343,45.2621504],[23.3866037,45.261952],[23.3866005,45.2617461],[23.3867094,45.2613348],[23.3869183,45.2609292],[23.3872254,45.2606255],[23.3894723,45.2588521],[23.3910148,45.2575591],[23.3911448,45.2574246],[23.3912211,45.2573031],[23.3912755,45.2571593],[23.391282,45.2570311],[23.3912583,45.2569291],[23.3912116,45.2568273],[23.3911034,45.2567286],[23.390986,45.2566758],[23.3907991,45.2566313],[23.3905612,45.2565994],[23.3903755,45.2565556],[23.3902108,45.2564908],[23.3899651,45.2563521],[23.3894528,45.2559867],[23.3891463,45.2558143],[23.3887434,45.2556787],[23.3884424,45.2556317],[23.3866994,45.2553793],[23.3864553,45.2552958],[23.386334,45.2552198],[23.3862359,45.2551033],[23.38618,45.2549942],[23.3860429,45.2541873],[23.3858574,45.2539107],[23.3854303,45.2535163],[23.3852669,45.2533553],[23.3851522,45.2531985],[23.3850991,45.2530562],[23.3850185,45.2528646],[23.3849334,45.2526905],[23.384824,45.2525193],[23.3847882,45.2523564],[23.3848047,45.2522487],[23.3848837,45.2521604],[23.3850392,45.2520897],[23.3851521,45.2519825],[23.3852246,45.2518397],[23.3852519,45.2516832],[23.3852488,45.2515553],[23.3852053,45.2509534],[23.3852245,45.2507167],[23.3853102,45.2504985],[23.385389,45.2503537],[23.385492,45.2502074],[23.3856057,45.2500963],[23.3857558,45.2499853],[23.3860178,45.24986],[23.3863088,45.2497831],[23.3866079,45.2497218],[23.3882451,45.2494992],[23.3886915,45.2494572],[23.3891065,45.2494619],[23.3895395,45.2495163],[23.3908902,45.2497251],[23.3912953,45.2497596],[23.3916194,45.2497329],[23.3918193,45.2496921],[23.3919888,45.2496242]],[[23.3836516,45.3095724],[23.3836536,45.3097112],[23.383718,45.3099112],[23.3837662,45.3100394],[23.3838682,45.310262],[23.3839701,45.3104242],[23.384072,45.3105525],[23.3842008,45.3106317],[23.3843617,45.3107336],[23.3846044,45.3108257]],[[23.3879995,45.1927642],[23.3883615,45.1928416],[23.3886515,45.1930055],[23.3890226,45.1931441],[23.3893043,45.1932329],[23.3896322,45.1932865],[23.389808,45.1933059],[23.3900427,45.1933016],[23.3902626,45.1932997],[23.3904665,45.1932733],[23.3907776,45.193175],[23.3909425,45.1931017],[23.3911303,45.1930375]],[[23.3883615,45.1928416],[23.3887981,45.1928537],[23.3890181,45.1928896],[23.3892152,45.1929203],[23.3894888,45.1929638],[23.3897128,45.1929954],[23.3900051,45.1930257],[23.390217,45.1930294],[23.3904799,45.1930294],[23.3906837,45.1930313],[23.3908902,45.1930332],[23.3911303,45.1930375],[23.3913516,45.1930673],[23.3916064,45.1930729],[23.3918102,45.1930824],[23.3919993,45.193081],[23.3921884,45.1930484],[23.392358,45.1930042],[23.3925161,45.1929529],[23.3926471,45.1928858],[23.3927333,45.1928298],[23.3928218,45.192758],[23.3928724,45.1926363],[23.3928536,45.1925021],[23.3928295,45.1923811],[23.3927866,45.192228],[23.3927382,45.1921478],[23.3925639,45.1919538],[23.3924507,45.1918231],[23.3923427,45.1916482],[23.3922743,45.191538],[23.3922086,45.1914024],[23.3921442,45.1912663],[23.3920329,45.1911259],[23.3918397,45.190986],[23.3915715,45.1908008],[23.3913342,45.1906463],[23.3910673,45.1904567],[23.390842,45.1902904],[23.3905563,45.1901208],[23.3903806,45.1900106],[23.3901325,45.1898562],[23.3899193,45.1897157],[23.3897154,45.1895834],[23.3895447,45.1895222],[23.3894097,45.1894738],[23.3891361,45.1893339],[23.3889094,45.1891908],[23.3887163,45.1890396],[23.3884642,45.1888808],[23.3882442,45.1887447],[23.3880672,45.1886539],[23.387681,45.1885292],[23.3872894,45.1883741],[23.3869192,45.1882154],[23.3867865,45.1881052],[23.3865933,45.1879237],[23.3862862,45.1877768],[23.3859925,45.1876363],[23.3857029,45.1874624],[23.3854722,45.187349],[23.3852147,45.1871259],[23.3849894,45.1868575],[23.3847855,45.1866495],[23.3845656,45.1864076],[23.3843403,45.1861883],[23.3841633,45.185969],[23.3839862,45.1856665],[23.3838468,45.1854472],[23.3837127,45.1852431],[23.3836161,45.1850238],[23.3834324,45.1847332],[23.3832607,45.1844837],[23.3830582,45.1842789],[23.3828812,45.1840407],[23.3826559,45.1838138],[23.3824788,45.1836324],[23.3823018,45.1834811],[23.3821302,45.1833526],[23.3819585,45.1832694],[23.3817976,45.1831975],[23.3816205,45.1831559],[23.3815025,45.1831559],[23.3813791,45.1831824],[23.3812933,45.1832467],[23.3812021,45.1833374],[23.3810613,45.1834136],[23.3808896,45.183493],[23.3806603,45.1835681],[23.380397,45.1835984],[23.3801131,45.1835719],[23.3797162,45.1835038],[23.3794158,45.1834433],[23.3791583,45.1833941],[23.3788954,45.1833526],[23.3786272,45.1833147],[23.3784287,45.1832845],[23.378026,45.1832918],[23.3777687,45.1832843],[23.3775143,45.1832639]],[[23.3183256,45.0924666],[23.3182937,45.0921352],[23.3182461,45.091956],[23.3181602,45.0917679],[23.3179759,45.0915352],[23.3175121,45.091168],[23.3169693,45.0908431],[23.3162741,45.0904914],[23.3155281,45.0902272],[23.3140134,45.0898284],[23.3137346,45.089677],[23.3134812,45.0894943],[23.3132405,45.0891882],[23.3129359,45.0886629],[23.3126724,45.0879114],[23.3121294,45.0868997],[23.3118461,45.0865241],[23.311334,45.0859781],[23.3110467,45.0855678],[23.3109183,45.0853235],[23.310612,45.0844781],[23.310329,45.0840811],[23.3098173,45.0838007],[23.3092387,45.083656],[23.3086092,45.0833901],[23.3081,45.0831365],[23.3074246,45.0826652],[23.307195,45.0822944],[23.307048,45.0818832],[23.307031,45.081425],[23.3073063,45.0803567],[23.3072883,45.080095],[23.3071559,45.0798691],[23.3068277,45.079543],[23.3063287,45.07914],[23.3058805,45.0788715],[23.3035526,45.0777202],[23.3012535,45.077018],[23.3004482,45.0767954],[23.2984806,45.0767056],[23.2961509,45.0768089],[23.2935335,45.0767868],[23.2921699,45.0763708],[23.2916714,45.076019],[23.2912654,45.0755215],[23.2906753,45.074082],[23.2893857,45.0729803],[23.2868044,45.072134],[23.2824324,45.0714854],[23.2803145,45.0709361],[23.2778801,45.0694101],[23.2757977,45.0677446],[23.2698572,45.0587805],[23.2694379,45.0577848],[23.2693526,45.0575922],[23.2687141,45.0561985],[23.2654565,45.0491955],[23.26489,45.0456398],[23.2647802,45.0437269],[23.265372,45.040836],[23.264486,45.0337851],[23.2643486,45.0327352],[23.2643285,45.0324806],[23.2641731,45.0313776],[23.2641043,45.0295943],[23.2638006,45.0283881],[23.263545,45.0274158],[23.2632747,45.0259928],[23.2632051,45.0246031],[23.2630684,45.0233392],[23.2629747,45.0229039],[23.2625874,45.022269],[23.2596817,45.0197391],[23.2573567,45.017541],[23.2559257,45.0162143],[23.2547514,45.0145368],[23.2526978,45.0106634],[23.2523605,45.0094239],[23.2524225,45.0080742],[23.252922,45.0066125],[23.2528887,45.0062921],[23.2523719,45.0053769],[23.2503216,45.0038135],[23.2484771,45.0024934],[23.2479018,45.0004353],[23.2475863,44.9995344],[23.2464464,44.9989914],[23.2455402,44.9981779],[23.2439656,44.9966375],[23.2437946,44.9954658],[23.242872,44.9943338],[23.242321,44.993905],[23.2406305,44.9936881],[23.2399445,44.9932291],[23.239894,44.9925637],[23.2388615,44.9909309],[23.2376666,44.9903094],[23.2373823,44.9899511],[23.2354934,44.9883963],[23.2336633,44.9876583],[23.2324523,44.9869442],[23.23119,44.985952],[23.2300165,44.9852974],[23.2294359,44.9846963],[23.2293603,44.9839914]],[[23.7076875,44.3277435],[23.7088255,44.3246029],[23.7101325,44.3225516],[23.7118074,44.321507],[23.7159203,44.3199639],[23.7221313,44.3180163],[23.7260214,44.3177919],[23.7309308,44.3162836],[23.7346464,44.3126375],[23.7377781,44.3097352],[23.7395872,44.3076598],[23.7415048,44.3054164],[23.744463,44.3038092],[23.7471696,44.3014853],[23.7477721,44.298754],[23.7477477,44.2983979],[23.7476781,44.2973841],[23.7484974,44.2946121],[23.7493208,44.2925429],[23.752524,44.2900203],[23.7535235,44.2888087],[23.7574691,44.28511],[23.7599202,44.2832444],[23.7609656,44.2802724],[23.7623516,44.2782736],[23.7653081,44.2767234],[23.7698416,44.2705002],[23.7716783,44.268554],[23.7732593,44.2679203],[23.7756844,44.2674966],[23.7773422,44.2650088],[23.7795808,44.2644871],[23.7832338,44.2624813],[23.7861572,44.2592908],[23.7876867,44.2565674],[23.7903285,44.2546995],[23.7914707,44.2536575],[23.7932704,44.2530457],[23.795705,44.2535592],[23.8000696,44.2547303],[23.8047708,44.2538877],[23.8093863,44.2540663],[23.8143345,44.253058],[23.8162592,44.2508872],[23.8170552,44.2485481],[23.8170139,44.2461368],[23.8153597,44.2429537],[23.8152971,44.2403244],[23.8170137,44.2383567],[23.8216963,44.2380098],[23.8254387,44.2396138],[23.8289551,44.2407294],[23.8307849,44.2409972],[23.8337489,44.2407628],[23.8393278,44.2390178],[23.842507,44.2378942],[23.8460472,44.2378786],[23.8486419,44.2371751],[23.8506157,44.235432],[23.8519447,44.2320121],[23.8513421,44.2304681],[23.8487646,44.2282769],[23.8426805,44.2258863],[23.8417329,44.2233505],[23.8417329,44.2192908],[23.8434495,44.2153539],[23.848256,44.2121549],[23.8502114,44.2096532],[23.8507807,44.2085272],[23.850824,44.2076705],[23.8505667,44.2073693],[23.8499337,44.2067719],[23.848658,44.2059759],[23.8461265,44.2053665],[23.8435748,44.2053924],[23.8380867,44.205499],[23.8348823,44.2035291],[23.8346374,44.2021003],[23.8350675,44.2003894],[23.8360681,44.1984958],[23.8408746,44.1946806],[23.8480089,44.1938401],[23.8501443,44.1925882],[23.8515176,44.1906189],[23.8516064,44.189219],[23.8512228,44.1876833],[23.8505234,44.1870043],[23.84608,44.1846532],[23.8411969,44.1837978],[23.8364915,44.1832373],[23.833703,44.1820966],[23.8321297,44.1822316],[23.830462,44.1816576],[23.8276567,44.1797864],[23.8259302,44.1780023],[23.8256834,44.1763599],[23.8252606,44.174391],[23.8253634,44.1725094],[23.8259834,44.170645],[23.8278757,44.1689097],[23.8324632,44.1662429],[23.8353814,44.1639033],[23.8358233,44.1620264],[23.8357909,44.1602162],[23.8335267,44.1556964],[23.833576,44.153109],[23.8367489,44.150662],[23.8398013,44.1489971],[23.8434495,44.1474],[23.8473215,44.1468938],[23.8504679,44.1476463],[23.8526639,44.1491544],[23.8558091,44.1501099],[23.8588161,44.1493407],[23.8597788,44.1472168],[23.8578418,44.1446861],[23.8546794,44.1425911],[23.8533312,44.1411306],[23.8533115,44.1395588],[23.8535714,44.1388596],[23.8534974,44.1375972],[23.8542642,44.134342],[23.8585904,44.1317443],[23.8602671,44.1312758],[23.8621606,44.1302761],[23.8634045,44.1295935],[23.8643861,44.1288224],[23.8646436,44.12806],[23.8646006,44.127259],[23.863013,44.124267],[23.8634897,44.1233642],[23.8644882,44.1228004],[23.8666151,44.1221377],[23.8692531,44.1219121],[23.8707335,44.1227314],[23.8721859,44.124348],[23.8730074,44.1255092],[23.8732695,44.1263426],[23.8736451,44.1268817],[23.874272,44.1277007],[23.8752794,44.1280409],[23.8757929,44.1278889],[23.8767564,44.1275979],[23.8776469,44.1268586],[23.8787366,44.1254442],[23.8797927,44.124217],[23.8799429,44.1236086],[23.8797623,44.1226292],[23.8794461,44.1208797],[23.8793769,44.1187305],[23.8793325,44.1159746],[23.8788056,44.1152518],[23.877958,44.1147843],[23.8771534,44.1142582],[23.8760652,44.1131605],[23.8752168,44.110523],[23.8763419,44.1075173],[23.8780637,44.104898],[23.8782171,44.1046647],[23.8776506,44.1029456],[23.8762151,44.1006167],[23.8780467,44.0957751],[23.877461,44.0942327],[23.8743126,44.0921925],[23.8753909,44.090921],[23.8768398,44.0896067],[23.8773099,44.0886173],[23.8780117,44.0857076],[23.8773834,44.082176],[23.875671,44.0775279],[23.8758298,44.0750584],[23.8767557,44.0728506],[23.8785378,44.0712917],[23.8807029,44.07068],[23.8848293,44.0709047],[23.8920479,44.0717836],[23.8939864,44.0708355],[23.8941479,44.0704207],[23.8941479,44.0697886],[23.8929016,44.0680677],[23.8905013,44.06571],[23.8883547,44.0641667],[23.8860815,44.0627549],[23.8843512,44.0624106],[23.881368,44.0609336],[23.8804686,44.059782],[23.8811445,44.0580858],[23.8821449,44.0566124],[23.8852218,44.0538524],[23.8860047,44.0521795],[23.887458,44.0497933],[23.889159,44.0486864],[23.8920856,44.0482184],[23.896116,44.0492311],[23.8996148,44.0497342],[23.900563,44.0480887],[23.9007322,44.0461831],[23.899866,44.0448822],[23.898144,44.0437648],[23.8956711,44.0429834],[23.8932393,44.0431003],[23.8844906,44.0462295],[23.8808717,44.0460628],[23.8779944,44.0450732],[23.8767046,44.042423],[23.8757478,44.0385321],[23.877578,44.0335884],[23.8791929,44.0326887],[23.8794886,44.0302879],[23.8775129,44.0256884],[23.8791551,44.021874],[23.8823293,44.019591],[23.8844267,44.0167845],[23.8846314,44.0159581],[23.8842513,44.0146216],[23.8836143,44.0137942],[23.8814599,44.0112367],[23.8787637,44.0092946],[23.8787867,44.0055054],[23.8794446,44.004039],[23.8794068,44.0008163],[23.8808007,43.9978854],[23.8906257,43.9919159],[23.8927633,43.9898328],[23.8935249,43.9881418],[23.8923289,43.9855406],[23.8890345,43.9839311],[23.8830861,43.9823289],[23.8806504,43.9811323],[23.8793559,43.9791791],[23.8793911,43.9755745],[23.8812554,43.970538],[23.8837944,43.9634372],[23.8817256,43.9598316],[23.878766,43.9565217],[23.8783872,43.9561127],[23.8780653,43.9558077],[23.877368,43.9550894],[23.8761081,43.9537206],[23.8763916,43.9509881],[23.8770952,43.9481361],[23.8811507,43.9419177],[23.8806081,43.9384776],[23.8791286,43.9346412],[23.8780667,43.93209],[23.8783933,43.927941],[23.8787045,43.925847],[23.8792562,43.9240327],[23.8812947,43.9227036],[23.8841333,43.9218055],[23.8896264,43.92094],[23.8922376,43.9191753],[23.8928414,43.9166646],[23.8917955,43.9143466],[23.8885005,43.9127767],[23.8842182,43.9121824],[23.8816976,43.9122041],[23.8794647,43.9125392],[23.8753026,43.9129274],[23.8722004,43.9138194],[23.8693597,43.9141622],[23.8660914,43.912892],[23.863491,43.9108696],[23.8625487,43.9086672],[23.8628277,43.9063019],[23.866161,43.9032182],[23.8688554,43.9012768],[23.8701018,43.8983952],[23.8707054,43.8937794],[23.8717951,43.8915433],[23.8721216,43.8852664],[23.8716341,43.8844838],[23.8714027,43.8830162],[23.8731837,43.8790955],[23.8746919,43.876534],[23.8756406,43.8744011],[23.8751686,43.8730554],[23.8744819,43.8728079],[23.8740037,43.8724675],[23.8718855,43.8711528],[23.8699436,43.8695285],[23.8679695,43.8688711],[23.8638099,43.8676512],[23.8627507,43.866781],[23.8622081,43.8658583],[23.8619718,43.8647693],[23.8623047,43.8635494],[23.8628151,43.8626117],[23.8631451,43.8593979],[23.861561,43.8572427],[23.8604072,43.8558839],[23.8598263,43.8554498],[23.8585496,43.8539335],[23.8563992,43.8527326],[23.8526058,43.8516434],[23.8500631,43.8515119],[23.8482775,43.8505895],[23.8465869,43.848889],[23.8453378,43.8460863],[23.8455589,43.839511],[23.8424016,43.8354489],[23.8393306,43.8318962],[23.8341789,43.8250538],[23.8274894,43.8187327],[23.8219556,43.8165787],[23.8186848,43.8152672],[23.8150227,43.8128672],[23.8134777,43.8098083],[23.8128938,43.8026157],[23.8104186,43.800439],[23.8076532,43.7983783],[23.8063198,43.7971964],[23.8058639,43.7950891],[23.8060437,43.7930083],[23.8074745,43.7911694],[23.8112983,43.7888358],[23.8191432,43.7868978],[23.8197469,43.7863181],[23.8197073,43.7856453],[23.8175028,43.7843001],[23.8164225,43.7829245],[23.8131796,43.7787571],[23.812939,43.7723239]],[[23.8920479,44.0717836],[23.8964607,44.0721131],[23.8969374,44.071997],[23.8981523,44.0713068],[23.8989115,44.0704052],[23.8995032,44.0686358],[23.8991135,44.0669006],[23.8983884,44.0654697],[23.8975484,44.0647911],[23.8944883,44.0638664],[23.8926029,44.0634132],[23.8898885,44.0631588],[23.8860815,44.0627549]]]},"properties":{"name":"Jiu","name_ro":"Jiu","type":"river","source":"manual_premap","source_detail":"HOTOSM Waterways HDX snapshot 2026-08-07, waterway=river name match (18 segments, 2470 points), ANCPI validation: see README","osm_type":"way","osm_id":"way/112559984","geocode_tier":"tier1","confidence":"high"}}]}