{"type":"FeatureCollection","metadata":{"pipeline":"tier1_premap","pipeline_version":"1.0","generated_at":"2026-08-11T10:41:31.281986+00:00"},"features":[{"type":"Feature","id":"lacul-techirghiol","geometry":{"type":"Polygon","coordinates":[[[28.619256,44.0580934],[28.6197312,44.058099],[28.6200018,44.0580839],[28.6202565,44.058062],[28.6206073,44.0580208],[28.6211896,44.0579359],[28.6215149,44.0578705],[28.6218086,44.0577984],[28.6220557,44.0577223],[28.6221933,44.0576624],[28.6224166,44.0575165],[28.6225873,44.0573442],[28.6227848,44.05705],[28.6228296,44.0569076],[28.6229348,44.05683],[28.6230152,44.0567416],[28.6230951,44.0565247],[28.6231964,44.0561023],[28.6232483,44.0558079],[28.6232689,44.0555202],[28.6232955,44.0552322],[28.6230953,44.0547738],[28.6229996,44.0543306],[28.622988,44.0540913],[28.6230152,44.0538757],[28.6230854,44.0536917],[28.6231999,44.0535047],[28.6233411,44.0533801],[28.6235006,44.0533212],[28.6236889,44.0533168],[28.6238489,44.0533771],[28.6239849,44.0534384],[28.6241403,44.05354],[28.6243503,44.0537143],[28.6246227,44.0540362],[28.6248365,44.0541977],[28.6250997,44.0543259],[28.6253268,44.054394],[28.62549,44.0544433],[28.6256608,44.054506],[28.6258343,44.0546181],[28.627179,44.0560256],[28.6280022,44.0565783],[28.6282479,44.0567292],[28.6285716,44.0568695],[28.628971,44.056962],[28.6293409,44.0570085],[28.6297435,44.0570507],[28.6307984,44.0570931],[28.6314925,44.0571156],[28.6322562,44.0571301],[28.6335307,44.0571037],[28.6345317,44.0569412],[28.6347345,44.056952],[28.6351766,44.0570403],[28.6359713,44.056927],[28.6363082,44.0568152],[28.6367125,44.0566607],[28.6372127,44.0564734],[28.6375735,44.0563968],[28.6376428,44.0564033],[28.6377103,44.056451],[28.6380513,44.0563697],[28.6384181,44.0561786],[28.6391701,44.0556962],[28.6397708,44.0551959],[28.6401652,44.0548002],[28.6405719,44.0542329],[28.641051,44.0534959],[28.6412506,44.0531421],[28.6414473,44.052703],[28.6415806,44.052347],[28.6416329,44.0521215],[28.6416566,44.0518747],[28.6416378,44.0516967],[28.6415155,44.0512371],[28.6414041,44.0509499],[28.6411941,44.0503008],[28.641216,44.0499472],[28.6416584,44.0491891],[28.641808,44.0491259],[28.6419221,44.0489156],[28.6421782,44.0486421],[28.6424831,44.0480247],[28.6427561,44.0472496],[28.6432632,44.0463043],[28.6436068,44.0454206],[28.6436723,44.0451859],[28.6437927,44.0450298],[28.6439786,44.0448104],[28.6441689,44.0443904],[28.6442668,44.0440247],[28.6443339,44.0437153],[28.6444367,44.0431095],[28.6444257,44.0424865],[28.6443989,44.0424033],[28.6443075,44.0422983],[28.644274,44.0421779],[28.6442923,44.042064],[28.6441792,44.0418486],[28.6440262,44.0417103],[28.643581,44.0413119],[28.6434006,44.0411815],[28.6432126,44.0410597],[28.6431502,44.0409431],[28.6431291,44.040826],[28.6432126,44.0399065],[28.6431806,44.0395047],[28.6430936,44.0389168],[28.6430016,44.0383407],[28.6429551,44.0381139],[28.6428273,44.0378914],[28.6425505,44.0374107],[28.6424401,44.0371397],[28.6424115,44.0368733],[28.642418,44.0366165],[28.6424678,44.036424],[28.6426422,44.0360211],[28.6428036,44.0355691],[28.6428246,44.0353462],[28.642689,44.034676],[28.6426703,44.0342691],[28.6426526,44.0341376],[28.6426137,44.0340272],[28.6424604,44.0337297],[28.6424167,44.0336487],[28.6424192,44.033624],[28.6424215,44.0336011],[28.6424329,44.0334883],[28.6424195,44.0333705],[28.6423924,44.033259],[28.642388,44.0331803],[28.6424566,44.0331281],[28.6425933,44.0331105],[28.6430121,44.032998],[28.6430704,44.0329823],[28.6437677,44.0328235],[28.64435,44.0326846],[28.6448814,44.032538],[28.6454659,44.0323566],[28.6459091,44.0321684],[28.6460739,44.032075],[28.6462178,44.0319407],[28.6463197,44.0317643],[28.6463564,44.0315024],[28.6463235,44.0311281],[28.6462783,44.0309544],[28.6462445,44.0307793],[28.6462639,44.0306516],[28.646304,44.0305248],[28.6463071,44.0304418],[28.6461521,44.0301074],[28.6460975,44.0299669],[28.6460464,44.0298794],[28.6454953,44.0292347],[28.6454415,44.0291392],[28.6453632,44.0289579],[28.6453298,44.0288399],[28.6452998,44.028684],[28.6452996,44.0285388],[28.6452871,44.0283469],[28.6452559,44.0281591],[28.6452749,44.0280425],[28.6453114,44.0279528],[28.6453167,44.0278471],[28.6453012,44.027609],[28.6452697,44.0273804],[28.6452164,44.027096],[28.6451421,44.0268166],[28.6450595,44.0265836],[28.6448844,44.0262201],[28.6447251,44.0259878],[28.6445531,44.0258023],[28.6444737,44.0257311],[28.6443522,44.0256473],[28.6441705,44.0255429],[28.6439379,44.0254272],[28.6435979,44.0253099],[28.6434324,44.0252491],[28.6431985,44.0251883],[28.6429272,44.0251399],[28.6427374,44.0250541],[28.6425548,44.0249343],[28.6424327,44.0248407],[28.6422828,44.0246626],[28.6421946,44.0244893],[28.6420681,44.0242092],[28.6419931,44.0240744],[28.6419962,44.0239296],[28.6420283,44.0237491],[28.6420267,44.0236738],[28.6420128,44.0236249],[28.6419627,44.0235354],[28.641853,44.023408],[28.6416747,44.0232547],[28.6416052,44.023198],[28.6415093,44.0231526],[28.6412353,44.0230718],[28.6412456,44.0230389],[28.6411251,44.0230169],[28.6409478,44.0229845],[28.6407357,44.0229457],[28.6405463,44.0229111],[28.6403755,44.0228799],[28.6401438,44.0228376],[28.6396837,44.0227571],[28.6392163,44.0227108],[28.6386733,44.0226648],[28.6380637,44.0226105],[28.6374228,44.0225804],[28.6366761,44.0225832],[28.636111,44.0226028],[28.6356082,44.0226551],[28.6352205,44.0227282],[28.634855,44.0228649],[28.6347136,44.0229577],[28.6344155,44.0231557],[28.6340595,44.0234473],[28.6338993,44.0235677],[28.633718,44.023679],[28.6336256,44.0237232],[28.6333422,44.023873],[28.6330774,44.0239625],[28.6327877,44.0240376],[28.6321546,44.024144],[28.6319287,44.0242241],[28.6317437,44.0243248],[28.6315907,44.0244509],[28.6314912,44.0245403],[28.6314037,44.024626],[28.6312563,44.0248703],[28.6310975,44.0251375],[28.6310095,44.0252855],[28.6309347,44.0254025],[28.6307761,44.0255305],[28.6305884,44.0256211],[28.6305052,44.0257175],[28.6304643,44.0258596],[28.6304871,44.0261626],[28.6304832,44.0263487],[28.6303933,44.0267536],[28.6303864,44.0271476],[28.6302261,44.0279722],[28.6302639,44.0281379],[28.6305347,44.0287357],[28.6306027,44.0289299],[28.6306713,44.0292938],[28.6306606,44.0295234],[28.630591,44.0296826],[28.6304449,44.029817],[28.6300769,44.0300673],[28.6299115,44.0301863],[28.6297975,44.0303535],[28.6297473,44.0304384],[28.6297041,44.0305552],[28.6297401,44.030704],[28.6298153,44.0308043],[28.6299211,44.0309028],[28.6302255,44.0311528],[28.6304041,44.0312688],[28.6306344,44.031343],[28.6308355,44.0314291],[28.6310041,44.0315493],[28.6311478,44.0317333],[28.6312385,44.03188],[28.6313046,44.032074],[28.6313131,44.032265],[28.6312641,44.0324265],[28.6311672,44.032603],[28.6310122,44.032785],[28.6309594,44.0328757],[28.6309392,44.0330032],[28.6309464,44.0333501],[28.6308995,44.0335953],[28.6308244,44.0337862],[28.6306811,44.0340641],[28.6305076,44.0342919],[28.6303781,44.0347645],[28.6303418,44.0351463],[28.6303241,44.0353188],[28.6303566,44.0356407],[28.6303081,44.0358243],[28.6302456,44.0359882],[28.6300813,44.036285],[28.6300541,44.0364706],[28.6300721,44.036825],[28.6300175,44.0370046],[28.6299326,44.0371964],[28.6298482,44.0373872],[28.6296566,44.0377724],[28.6295762,44.0378965],[28.6294567,44.0379811],[28.6293088,44.038014],[28.6291366,44.0379886],[28.6290004,44.0379237],[28.6287761,44.0377535],[28.6285656,44.0374897],[28.6283792,44.0373646],[28.6279196,44.0371009],[28.6276567,44.0369871],[28.6273491,44.0369171],[28.6270814,44.0368839],[28.6266938,44.0368406],[28.6263934,44.0368406],[28.6261442,44.0368483],[28.6258514,44.0368818],[28.6255983,44.0369342],[28.6251201,44.0370566],[28.6245802,44.0372474],[28.6245579,44.0372577],[28.6239817,44.0375246],[28.6229514,44.038068],[28.6226732,44.0381942],[28.6224709,44.0382685],[28.6222547,44.0383156],[28.6220629,44.0383527],[28.6218604,44.0383677],[28.6216848,44.038365],[28.6215144,44.0383368],[28.6214284,44.0382966],[28.6210864,44.0380646],[28.6207778,44.0377787],[28.620625,44.037689],[28.6204068,44.0376176],[28.6202009,44.0375666],[28.6200017,44.0375],[28.6198255,44.037416],[28.6196568,44.0372801],[28.6195311,44.0371443],[28.6193204,44.0369042],[28.6190791,44.0364745],[28.6189932,44.0362737],[28.618874,44.0359458],[28.6188215,44.0356875],[28.6188269,44.0351977],[28.6187915,44.0348801],[28.6186971,44.0345737],[28.6186498,44.0343435],[28.6186391,44.0341198],[28.6186525,44.0337264],[28.6187209,44.0333791],[28.6189348,44.0325885],[28.619058,44.0321333],[28.6191223,44.0318852],[28.6191651,44.0317374],[28.6192493,44.0315189],[28.6196355,44.030791],[28.6197006,44.030646],[28.619771,44.0304626],[28.6198868,44.0300668],[28.6199632,44.0298235],[28.6201439,44.0294069],[28.6202136,44.0291793],[28.6202096,44.0289353],[28.6201582,44.0287485],[28.6200911,44.0285673],[28.6199775,44.0284619],[28.6199413,44.0284182],[28.6197359,44.0282792],[28.6193728,44.0280501],[28.6191619,44.0279236],[28.6190924,44.0278389],[28.6191246,44.0277541],[28.6191675,44.0276885],[28.6192652,44.0275943],[28.6193714,44.0274918],[28.619499,44.0273668],[28.6195282,44.0271725],[28.6194953,44.0258658],[28.6194272,44.0254222],[28.6193236,44.0252508],[28.6191684,44.0252155],[28.6189778,44.0252529],[28.6188505,44.0253817],[28.6185544,44.0256811],[28.6182636,44.0260421],[28.6179184,44.0264071],[28.6174146,44.0267995],[28.6171872,44.0269318],[28.6170757,44.0270532],[28.6171146,44.0271222],[28.6172871,44.0271667],[28.6173389,44.0272658],[28.6173206,44.02739],[28.6171931,44.0274731],[28.6169106,44.0275485],[28.6162904,44.0276893],[28.6158109,44.0278281],[28.6154855,44.0279496],[28.6152024,44.0281342],[28.6148279,44.0284155],[28.6146595,44.0284882],[28.6143127,44.0285294],[28.6139147,44.0285342],[28.6137199,44.0284869],[28.6135164,44.0283945],[28.6128813,44.0278611],[28.612529,44.0275786],[28.6122497,44.027377],[28.6119014,44.0272565],[28.6115634,44.027162],[28.6113234,44.0271182],[28.611145,44.027056],[28.6110143,44.0269493],[28.6108848,44.0267802],[28.6108093,44.026547],[28.6108258,44.0262961],[28.6108862,44.0260415],[28.6108419,44.0258294],[28.6107873,44.0256657],[28.6106031,44.0254367],[28.6101416,44.0251893],[28.6097806,44.0250687],[28.6094794,44.0250695],[28.6092496,44.0251116],[28.608935,44.02518],[28.6087364,44.0252219],[28.6085124,44.0252603],[28.6082643,44.0253029],[28.6080605,44.0253226],[28.6077735,44.0253087],[28.6075242,44.0252402],[28.6073229,44.0251274],[28.606515,44.024544],[28.6062661,44.0242634],[28.6061266,44.0240859],[28.6060359,44.0238488],[28.6059507,44.0230488],[28.6058886,44.022246],[28.6057484,44.021868],[28.6056037,44.0215081],[28.6054721,44.0212797],[28.6053246,44.0211158],[28.6051869,44.0210383],[28.6049437,44.0209923],[28.6045955,44.0209938],[28.6042383,44.0210367],[28.6037065,44.0212086],[28.6033666,44.021353],[28.6031995,44.0214449],[28.6026525,44.021889],[28.6024734,44.0219625],[28.6023005,44.0219704],[28.601455,44.0217568],[28.6012048,44.0216674],[28.601068,44.0215844],[28.6008208,44.0213673],[28.6007368,44.0211863],[28.6006443,44.0210813],[28.60057,44.0209561],[28.6004822,44.0208175],[28.6003035,44.0206644],[28.6000476,44.0205102],[28.5996212,44.0202522],[28.5990617,44.0197406],[28.5983654,44.0189656],[28.5982549,44.0187527],[28.5981631,44.0182477],[28.5980147,44.017938],[28.5973334,44.0168851],[28.5971519,44.0167355],[28.5968869,44.0166421],[28.5966173,44.0166473],[28.5963473,44.0167355],[28.5958693,44.0168047],[28.5955372,44.0168261],[28.5952049,44.0168016],[28.594754,44.0166679],[28.5945307,44.0166622],[28.5944143,44.0166997],[28.5943471,44.016743],[28.5936027,44.0184833],[28.592883,44.0202649],[28.5918206,44.0227669],[28.5917557,44.0230501],[28.5917772,44.0232475],[28.591868,44.0234495],[28.592155,44.0237118],[28.5924205,44.0240049],[28.592665,44.0244357],[28.5928281,44.0246612],[28.5928941,44.0247973],[28.592993,44.0249587],[28.5932029,44.0251583],[28.5934847,44.0253179],[28.5941948,44.0256011],[28.5948891,44.025909],[28.5954287,44.0261393],[28.596169,44.0264992],[28.5968498,44.0268803],[28.5974538,44.0272467],[28.5978637,44.0275205],[28.5983525,44.0278394],[28.5989788,44.0282489],[28.5996434,44.0287053],[28.6003636,44.0291999],[28.6007649,44.0294839],[28.6010755,44.0297177],[28.6016741,44.0301319],[28.6021032,44.0304294],[28.602342,44.0306198],[28.6025083,44.0308049],[28.6026353,44.0310134],[28.6026997,44.0311936],[28.6027329,44.0313794],[28.6027558,44.0315893],[28.6027292,44.0317963],[28.6026676,44.0320108],[28.6025814,44.0322311],[28.6023563,44.0326814],[28.6022743,44.0329211],[28.6022696,44.0331918],[28.6023595,44.0334759],[28.6025146,44.0337104],[28.6027848,44.0339396],[28.6031412,44.0341562],[28.603646,44.0343439],[28.6041329,44.0344526],[28.6046085,44.0345344],[28.6046315,44.0345361],[28.6050081,44.0345633],[28.6053126,44.0345379],[28.6056887,44.0345226],[28.6059523,44.0345594],[28.6061205,44.0346315],[28.6063189,44.034762],[28.6065195,44.0349221],[28.606761,44.0351471],[28.6069775,44.0353828],[28.6072064,44.0357841],[28.6073908,44.0360564],[28.6074463,44.0362621],[28.6075731,44.0364431],[28.6077013,44.0366675],[28.6078127,44.0369198],[28.6080819,44.0372127],[28.6082458,44.0374931],[28.608482,44.037884],[28.6087408,44.038276],[28.6089126,44.0386412],[28.6089598,44.038863],[28.6089671,44.0391139],[28.6089373,44.039292],[28.6088577,44.0394672],[28.6087659,44.0396364],[28.6083573,44.0401537],[28.6081758,44.0405369],[28.6080579,44.0408867],[28.6080435,44.0416028],[28.6080176,44.0419251],[28.6078888,44.0423145],[28.6078831,44.0425946],[28.6079262,44.0428655],[28.6079898,44.0430805],[28.608219,44.0433785],[28.6087062,44.0437576],[28.6089503,44.043967],[28.6090344,44.0440919],[28.6090931,44.0442676],[28.6091376,44.0447023],[28.6092296,44.0448969],[28.6092889,44.0450561],[28.6092704,44.0454431],[28.6093347,44.0457851],[28.6094125,44.0460846],[28.6095847,44.0464648],[28.6097302,44.0466964],[28.6101014,44.0470921],[28.6104365,44.0475355],[28.6105953,44.0478031],[28.6107015,44.047982],[28.6108459,44.0483206],[28.6109086,44.0485347],[28.6109584,44.0487521],[28.6109995,44.0488076],[28.6111525,44.0488987],[28.6112063,44.0489679],[28.6112135,44.0490376],[28.6111647,44.0490766],[28.610916,44.0490895],[28.6108831,44.0491423],[28.6109012,44.0492162],[28.6111707,44.049247],[28.6112801,44.0492406],[28.6114023,44.0491991],[28.6115468,44.0491587],[28.6116526,44.0491924],[28.6119703,44.0493881],[28.6119528,44.0494452],[28.6119004,44.0494868],[28.6117372,44.0494575],[28.611539,44.0494283],[28.6114223,44.0494298],[28.6113065,44.0494397],[28.6112536,44.0494603],[28.6112233,44.0494811],[28.6111976,44.0495042],[28.6109746,44.0497702],[28.6107505,44.0499283],[28.6100006,44.0503215],[28.6096411,44.0503703],[28.6094115,44.0504062],[28.6092257,44.0504623],[28.6089868,44.0506],[28.6087659,44.0507061],[28.6085445,44.0508878],[28.6082013,44.0510817],[28.6080437,44.0511692],[28.6079284,44.0512124],[28.6077134,44.0512785],[28.6074798,44.0513022],[28.6071299,44.0512895],[28.6068365,44.0513042],[28.6064797,44.0513962],[28.6062217,44.0514993],[28.606039,44.0515783],[28.6058811,44.0516605],[28.605742,44.0516811],[28.6054619,44.0516369],[28.6052169,44.0516012],[28.6045105,44.0515447],[28.6040546,44.0515319],[28.6037511,44.0515377],[28.6035346,44.05161],[28.6033678,44.0517435],[28.6031195,44.052373],[28.6040144,44.0525077],[28.6039891,44.0526036],[28.6030725,44.0524664],[28.6028971,44.0529611],[28.6028728,44.0531052],[28.604117,44.0532342],[28.6041033,44.0532955],[28.6028665,44.0531618],[28.6028662,44.0533195],[28.6028948,44.0534709],[28.6029429,44.0535892],[28.6030673,44.0537239],[28.6031535,44.0539498],[28.6032701,44.0542554],[28.6034173,44.0543895],[28.6036254,44.0545137],[28.6048042,44.0547948],[28.605214,44.0548825],[28.6055595,44.0550752],[28.6061051,44.0553373],[28.6063447,44.0554117],[28.6067491,44.0555216],[28.6069946,44.055554],[28.6075074,44.0556933],[28.6076792,44.0557538],[28.6078701,44.0558546],[28.6080801,44.0560524],[28.6081761,44.0561244],[28.6085591,44.0563194],[28.609193,44.0566704],[28.609497,44.0568034],[28.6096865,44.0568872],[28.6098622,44.0569441],[28.6100614,44.0569601],[28.6104128,44.0569928],[28.6107341,44.0571278],[28.6109439,44.0571162],[28.6111144,44.0570536],[28.6112959,44.0569767],[28.6119795,44.0566452],[28.6122635,44.0565415],[28.6125854,44.0564878],[28.6128662,44.0564806],[28.6133399,44.0565135],[28.6138358,44.0566176],[28.6149793,44.0570254],[28.615544,44.0572127],[28.6164869,44.0575152],[28.6171156,44.0576964],[28.6178176,44.0578913],[28.6182835,44.0579769],[28.6186222,44.0580345],[28.618928,44.0580698],[28.619256,44.0580934]]]},"properties":{"name":"Lacul Techirghiol","name_ro":"Lacul Techirghiol","type":"lake","source":"manual_premap","source_detail":"HOTOSM Waterways HDX snapshot 2026-08-07, water=lake/reservoir name match (1 candidate features, largest polygon selected)","osm_type":"way","osm_id":"relation/16867740","geocode_tier":"tier1","confidence":"high"}}]}