{"type":"FeatureCollection","metadata":{"pipeline":"tier1_premap","pipeline_version":"1.0","generated_at":"2026-08-11T10:41:31.416911+00:00"},"features":[{"type":"Feature","id":"lacul-balea","geometry":{"type":"Polygon","coordinates":[[[24.617176,45.6041509],[24.6172231,45.6042283],[24.617258,45.6042602],[24.6173259,45.6042894],[24.6174332,45.6043251],[24.6174967,45.6043559],[24.6175128,45.6043728],[24.617502,45.6043953],[24.6174538,45.6044216],[24.6174082,45.604446],[24.6173813,45.6044666],[24.617384,45.6044929],[24.617376,45.6045492],[24.6173572,45.6045849],[24.617325,45.6046036],[24.6173143,45.6046205],[24.6172714,45.6046393],[24.6172311,45.6046637],[24.6172338,45.6047012],[24.6172526,45.6047256],[24.6173196,45.6047387],[24.6173626,45.6047481],[24.6173894,45.604765],[24.617435,45.6047781],[24.6175262,45.6047988],[24.617604,45.6048044],[24.6176817,45.6048194],[24.6177676,45.6048269],[24.6178454,45.6048213],[24.6179285,45.6048138],[24.6180036,45.6048007],[24.6180573,45.6047931],[24.618127,45.6047931],[24.6181887,45.6047988],[24.6182392,45.6048104],[24.6182795,45.6048071],[24.6183389,45.6047894],[24.6183738,45.6047706],[24.6183899,45.6047444],[24.6183845,45.604705],[24.6183657,45.6046693],[24.6183711,45.6046243],[24.6184033,45.6045755],[24.6184086,45.6045398],[24.6184489,45.6045267],[24.6184864,45.6045079],[24.6185052,45.6044892],[24.6185052,45.6044498],[24.6185266,45.6043766],[24.6185106,45.6043484],[24.6184703,45.6043334],[24.6184354,45.6043409],[24.6184006,45.6043709],[24.6183738,45.6043672],[24.6183335,45.604339],[24.6183121,45.6043128],[24.6182638,45.6043034],[24.618194,45.6043053],[24.6181377,45.6043165],[24.6180921,45.6042921],[24.6180707,45.6042527],[24.6180358,45.6041983],[24.6180331,45.6041439],[24.6180626,45.604127],[24.6180626,45.6040988],[24.6180868,45.6040838],[24.6180975,45.6040632],[24.6181109,45.6040369],[24.6181216,45.6040125],[24.6181672,45.6040013],[24.618194,45.6040069],[24.6183923,45.6039714],[24.6184287,45.6039755],[24.6184674,45.6039864],[24.6185138,45.6040061],[24.6185851,45.6040165],[24.6186125,45.6040388],[24.618642,45.6040726],[24.618642,45.6041064],[24.6186608,45.6041326],[24.6186929,45.604172],[24.6187654,45.6042077],[24.6188378,45.6042302],[24.6188914,45.6042302],[24.6189182,45.6042077],[24.6189558,45.6041664],[24.6189719,45.6041232],[24.6189585,45.6040557],[24.6189485,45.6039648],[24.6189044,45.6039171],[24.6188065,45.6038653],[24.6187117,45.603853],[24.6186768,45.6038418],[24.6186634,45.6038211],[24.6186581,45.6037986],[24.618642,45.6037648],[24.6186259,45.6037461],[24.6186098,45.6036954],[24.6186205,45.6036372],[24.61865,45.6035528],[24.6186473,45.6034608],[24.6186384,45.6034031],[24.6186235,45.6033513],[24.618557,45.6031784],[24.6185214,45.603105],[24.6184865,45.6030586],[24.6184381,45.6030105],[24.6183818,45.6029898],[24.6183362,45.602956],[24.6183201,45.6029091],[24.6183255,45.6028547],[24.6183496,45.6028322],[24.6183469,45.6028003],[24.6183147,45.6027759],[24.6182772,45.6027477],[24.6180846,45.6026327],[24.6179899,45.6025857],[24.6179199,45.6025485],[24.6178432,45.6025217],[24.6177193,45.602485],[24.6176496,45.6024362],[24.617617,45.60238],[24.6175733,45.6023431],[24.6174856,45.6023238],[24.6174484,45.6022561],[24.6174072,45.6021851],[24.6173089,45.6021867],[24.6172684,45.6021662],[24.6172387,45.6021492],[24.6171871,45.6021587],[24.617134,45.6021944],[24.617083,45.6021999],[24.6170078,45.6021924],[24.6169334,45.6021566],[24.6168687,45.6021061],[24.6168637,45.6020422],[24.6168851,45.6019784],[24.6169066,45.6019352],[24.6168959,45.6018714],[24.6168664,45.6018095],[24.6168073,45.6017738],[24.6167188,45.6017625],[24.6166625,45.6017644],[24.6166196,45.6017869],[24.6165928,45.6018095],[24.6165257,45.6018188],[24.6164667,45.6018282],[24.6163997,45.6018507],[24.6163326,45.6019202],[24.6162709,45.6019446],[24.6161314,45.601984],[24.6159839,45.6020103],[24.6159115,45.6020384],[24.6158739,45.6020834],[24.6158552,45.6021003],[24.6157881,45.6021078],[24.6157371,45.6021078],[24.6157157,45.6021247],[24.6157023,45.6021735],[24.6156781,45.602211],[24.6156701,45.6022598],[24.6156755,45.6023124],[24.6156942,45.6023499],[24.6157264,45.6024006],[24.6157827,45.6024606],[24.6157747,45.6025094],[24.6157988,45.6025563],[24.6158391,45.6025695],[24.6158981,45.6025789],[24.6159222,45.6026295],[24.6159356,45.6026783],[24.6159008,45.6026933],[24.615823,45.6027083],[24.6157827,45.6027365],[24.6157291,45.6027477],[24.6156781,45.6027665],[24.615544,45.602851],[24.6154931,45.6029091],[24.6154877,45.6029654],[24.6155092,45.6029917],[24.6155843,45.6029804],[24.6156567,45.6029692],[24.6156835,45.6029992],[24.6156781,45.6030349],[24.6156701,45.6030593],[24.6157237,45.6030705],[24.6157479,45.6031005],[24.6157425,45.6031193],[24.6157184,45.6031568],[24.6156299,45.6031944],[24.6155682,45.6032188],[24.6155118,45.6032413],[24.6154877,45.6032788],[24.6154904,45.6033501],[24.6155145,45.6034195],[24.6155521,45.6034852],[24.6156567,45.6035809],[24.6157452,45.6036597],[24.6159034,45.6037667],[24.6160161,45.6038155],[24.6161314,45.6038399],[24.6162146,45.6038399],[24.6163326,45.6037949],[24.6163943,45.6037404],[24.616397,45.6036823],[24.6164318,45.6036579],[24.6163997,45.6036203],[24.6164184,45.6035922],[24.6164882,45.6035997],[24.6165177,45.6036185],[24.6165391,45.603656],[24.6165311,45.6036916],[24.6165579,45.6036973],[24.6165981,45.603731],[24.6165981,45.603763],[24.6166142,45.6037761],[24.6166652,45.6037723],[24.6167725,45.6037986],[24.6168261,45.6038155],[24.6168905,45.603883],[24.6169361,45.6039544],[24.6169522,45.6039994],[24.6169951,45.6040275],[24.6170487,45.6040594],[24.6171319,45.6040932],[24.617176,45.6041509]]]},"properties":{"name":"Lacul Bâlea","name_ro":"Lacul Bâlea","type":"lake","source":"manual_premap","source_detail":"HOTOSM Waterways HDX snapshot 2026-08-07, water=lake/reservoir name match (1 candidate features, largest polygon selected)","osm_type":"way","osm_id":"way/336075756","geocode_tier":"tier1","confidence":"high"}}]}