{"type":"FeatureCollection","metadata":{"pipeline":"tier1_premap","pipeline_version":"1.0","generated_at":"2026-08-11T10:41:31.609833+00:00"},"features":[{"type":"Feature","id":"lacul-iezerul-mic","geometry":{"type":"Polygon","coordinates":[[[23.7786144,45.587544],[23.7787116,45.5874754],[23.7789873,45.5873837],[23.7792382,45.5872512],[23.779395,45.5872687],[23.7794137,45.5872464],[23.7793529,45.58721],[23.7792793,45.5871357],[23.7792556,45.5870429],[23.7791716,45.5870037],[23.7790911,45.5869051],[23.7790346,45.5869825],[23.7789889,45.5869965],[23.7789162,45.5869994],[23.7789592,45.5870747],[23.7789208,45.5872002],[23.7787569,45.5871581],[23.7786765,45.587233],[23.77844,45.5873155],[23.7785445,45.587373],[23.7786144,45.587544]]]},"properties":{"name":"Lacul Iezerul Mic","name_ro":"Lacul Iezerul Mic","type":"lake","source":"manual_premap","source_detail":"HOTOSM Waterways HDX snapshot 2026-08-07, water=lake/reservoir name match (1 candidate features, largest polygon selected)","osm_type":"way","osm_id":"way/1314416794","geocode_tier":"tier1","confidence":"high"}}]}