{"type":"FeatureCollection","metadata":{"pipeline":"tier1_premap","pipeline_version":"1.0","generated_at":"2026-08-11T10:41:31.053985+00:00"},"features":[{"type":"Feature","id":"lacul-bicaz","geometry":{"type":"Polygon","coordinates":[[[25.9356813,47.1149929],[25.936156,47.1145604],[25.9366261,47.113785],[25.9367435,47.1133257],[25.9367084,47.1128272],[25.9363834,47.1123425],[25.9361019,47.1119792],[25.935836,47.1115498],[25.9356708,47.1112062],[25.9356582,47.1107788],[25.935768,47.1104292],[25.9359237,47.1102709],[25.9361979,47.1100225],[25.9364803,47.1096499],[25.93672,47.1090548],[25.9366863,47.1082761],[25.9367806,47.1079282],[25.9370337,47.1071411],[25.9376938,47.1065668],[25.9384827,47.1060678],[25.939133,47.1057614],[25.941,47.104986],[25.941685,47.104637],[25.942896,47.104019],[25.9447887,47.1026524],[25.9448596,47.1022999],[25.9446575,47.1018913],[25.944674,47.101359],[25.9448248,47.1007062],[25.9448525,47.100184],[25.9449339,47.0995117],[25.945224,47.0989245],[25.9453758,47.0985953],[25.9457337,47.0977193],[25.9463748,47.0966498],[25.9473418,47.095477],[25.9480398,47.0947508],[25.9493103,47.0940888],[25.9505107,47.0937705],[25.9515977,47.0935912],[25.9523823,47.0935133],[25.9529917,47.0934426],[25.9535923,47.0934162],[25.9541158,47.093395],[25.9550261,47.0933137],[25.9558828,47.0932567],[25.9564609,47.0932429],[25.9568838,47.0932469],[25.9574288,47.0932409],[25.9588587,47.0932003],[25.9600658,47.093165],[25.9606969,47.0931465],[25.9621049,47.0931596],[25.9638494,47.0931511],[25.9640892,47.0931631],[25.9647635,47.0931168],[25.9651543,47.0930293],[25.9654964,47.0928615],[25.9660737,47.0925223],[25.966739,47.092],[25.967241,47.091491],[25.967469,47.091531],[25.968027,47.091695],[25.968531,47.09228],[25.969192,47.092387],[25.969389,47.092435],[25.969295,47.092376],[25.969742,47.092275],[25.969975,47.092111],[25.970284,47.091758],[25.970436,47.091461],[25.970622,47.091405],[25.971228,47.091562],[25.972024,47.091932],[25.9723,47.091957],[25.972415,47.091767],[25.972214,47.091553],[25.971897,47.091448],[25.971496,47.091101],[25.971362,47.091083],[25.97141,47.091051],[25.971361,47.090982],[25.971257,47.090969],[25.970109,47.090736],[25.968482,47.090238],[25.968563,47.090046],[25.968594,47.089859],[25.968653,47.088754],[25.96865,47.086383],[25.968345,47.084796],[25.9680542,47.0840405],[25.967793,47.083688],[25.9675623,47.0834998],[25.9663531,47.082579],[25.96608,47.08235],[25.965586,47.0819788],[25.964876,47.080977],[25.9646585,47.0803689],[25.964476,47.079831],[25.9643216,47.079231],[25.9642412,47.0788303],[25.9640824,47.078683],[25.9640894,47.0783301],[25.9640701,47.0780602],[25.9634043,47.0774132],[25.9629612,47.0768137],[25.9627697,47.0763801],[25.9623647,47.0760363],[25.9621271,47.0755277],[25.9618009,47.075283],[25.9614812,47.0750879],[25.96125,47.0749344],[25.9609968,47.0747371],[25.9609034,47.0746717],[25.9608208,47.0746096],[25.9607532,47.0745355],[25.9605843,47.0743784],[25.9605043,47.0742724],[25.960293,47.074081],[25.9600376,47.0738625],[25.9594937,47.0735395],[25.9589272,47.0734219],[25.9583425,47.0731815],[25.9580442,47.0726967],[25.9578618,47.0722137],[25.957615,47.0718143],[25.956482,47.070812],[25.9562933,47.0700993],[25.9560336,47.069313],[25.955797,47.068445],[25.955613,47.067081],[25.955732,47.066367],[25.955636,47.065938],[25.955691,47.065453],[25.955889,47.063719],[25.955798,47.063003],[25.9561452,47.0624318],[25.9566462,47.0618917],[25.957217,47.0616169],[25.9577363,47.0613596],[25.9584058,47.0611886],[25.958987,47.060455],[25.960577,47.05961],[25.9612006,47.0589368],[25.9618551,47.0586963],[25.9623561,47.0588176],[25.9628947,47.0588578],[25.962693,47.0584434],[25.962943,47.0580414],[25.963664,47.0577695],[25.964598,47.057573],[25.9651156,47.0576789],[25.9656681,47.0573872],[25.9664309,47.0571373],[25.9677817,47.0568332],[25.968593,47.056534],[25.969124,47.056323],[25.969652,47.055901],[25.9699596,47.0555877],[25.970295,47.055263],[25.970718,47.055195],[25.971129,47.05492],[25.971354,47.05463],[25.9715293,47.054386],[25.971776,47.0540417],[25.972001,47.053848],[25.972189,47.053657],[25.972209,47.053635],[25.9732073,47.0531726],[25.973271,47.052857],[25.973486,47.052571],[25.9742061,47.0525045],[25.975376,47.052516],[25.9759871,47.0524796],[25.976533,47.052243],[25.9777713,47.052242],[25.978412,47.052399],[25.978936,47.052476],[25.980307,47.052061],[25.981981,47.051932],[25.984395,47.051665],[25.9860293,47.0516558],[25.9865496,47.0517464],[25.9871912,47.0517947],[25.988792,47.052235],[25.990126,47.052419],[25.991179,47.052735],[25.991611,47.052926],[25.992558,47.052723],[25.993505,47.052487],[25.993843,47.052744],[25.994655,47.052997],[25.995083,47.052961],[25.995222,47.052764],[25.995258,47.05264],[25.9954825,47.0523882],[25.9959578,47.0521982],[25.996447,47.052136],[25.996827,47.052133],[25.99787,47.051962],[25.9981582,47.052041],[25.9984747,47.0520374],[25.998745,47.052075],[25.999305,47.052075],[26.000387,47.051887],[26.0021107,47.0513108],[26.0044495,47.0501544],[26.004699,47.050031],[26.00778,47.048551],[26.008563,47.048216],[26.0106327,47.0476673],[26.0123493,47.0473742],[26.014906,47.0466285],[26.01738,47.0464347],[26.0188588,47.045978],[26.0190667,47.0459175],[26.0193034,47.0459032],[26.0194404,47.0459023],[26.019745,47.0458222],[26.0200587,47.0457107],[26.0203134,47.0455725],[26.0204943,47.0455049],[26.02065,47.0454823],[26.0208139,47.0454789],[26.0209518,47.0454883],[26.0211349,47.0456897],[26.0212171,47.0458492],[26.0212279,47.0459955],[26.0212449,47.0460608],[26.0212655,47.0461453],[26.0212269,47.0461796],[26.0210985,47.0462231],[26.02099,47.046229],[26.020914,47.0462392],[26.0208611,47.0462568],[26.0208921,47.0462806],[26.0209684,47.0462907],[26.0210158,47.0463088],[26.0211001,47.0463242],[26.021226,47.0463176],[26.021352,47.0463111],[26.0214471,47.0462911],[26.0215552,47.0462906],[26.0216444,47.0463068],[26.0216684,47.0462881],[26.0216186,47.0462095],[26.0216121,47.0461569],[26.0216346,47.0460467],[26.0216918,47.0458776],[26.0217017,47.0457075],[26.0217044,47.0455319],[26.0217174,47.0454013],[26.0217402,47.0453265],[26.0218004,47.0452811],[26.0218539,47.0452521],[26.0219761,47.045263],[26.0221,47.0452668],[26.0222388,47.0452497],[26.0224759,47.0451428],[26.0226084,47.0450909],[26.0227515,47.0450126],[26.0228324,47.044975],[26.0232439,47.0448899],[26.0234336,47.0448542],[26.0235238,47.0448712],[26.0236318,47.0449052],[26.0237347,47.0448904],[26.023849,47.0448544],[26.0238875,47.0448396],[26.0240115,47.0448481],[26.0240573,47.0448269],[26.0240382,47.0447418],[26.0241009,47.0446611],[26.0242393,47.0446208],[26.0244832,47.0445705],[26.024817,47.0445787],[26.0249645,47.0445725],[26.027431,47.044762],[26.028469,47.045598],[26.028836,47.046393],[26.028493,47.0479151],[26.0289629,47.0482046],[26.0290045,47.0482769],[26.029771,47.049608],[26.0298512,47.0508824],[26.0302825,47.0524394],[26.0310765,47.0536397],[26.0318178,47.0555906],[26.0319798,47.0563376],[26.0326997,47.0575173],[26.034821,47.058227],[26.035186,47.058401],[26.0366148,47.0587565],[26.0370524,47.0589033],[26.0373749,47.0588738],[26.037344,47.058451],[26.036553,47.056681],[26.035407,47.055309],[26.0355912,47.0548801],[26.036663,47.0544649],[26.0370395,47.0540081],[26.0370063,47.0533261],[26.0370578,47.0528524],[26.0370932,47.052476],[26.0371157,47.0519796],[26.0368421,47.051598],[26.0367617,47.0511265],[26.0365138,47.0507954],[26.0368818,47.0502464],[26.0370471,47.0497793],[26.0368958,47.0493948],[26.036193,47.0484415],[26.0358304,47.0476936],[26.0359946,47.0454303],[26.0362102,47.0441728],[26.0380483,47.0439829],[26.0400005,47.0434953],[26.0411487,47.0432816],[26.0422655,47.042857],[26.0435723,47.0420365],[26.0461301,47.0413499],[26.0501475,47.039495],[26.0504184,47.0384347],[26.051637,47.037346],[26.0536063,47.0357092],[26.0547014,47.0348627],[26.0562703,47.0337896],[26.0575211,47.0331941],[26.0583891,47.032386],[26.0599108,47.0293826],[26.0616665,47.0278847],[26.0616814,47.0265603],[26.0628254,47.0262606],[26.0637171,47.0256793],[26.0643007,47.0242087],[26.0645167,47.0232955],[26.0660013,47.0225179],[26.0666003,47.0214618],[26.0674903,47.0208023],[26.0681118,47.0198136],[26.0696348,47.0203413],[26.0707044,47.020228],[26.0696698,47.0186739],[26.07055,47.017352],[26.0712444,47.01637],[26.072105,47.01566],[26.0737429,47.0158271],[26.0775027,47.0167216],[26.080496,47.017167],[26.083695,47.0168519],[26.0845199,47.0166297],[26.0846724,47.0165886],[26.083022,47.015226],[26.081494,47.014953],[26.0795386,47.0139632],[26.0775366,47.0129706],[26.076181,47.012293],[26.07868,47.011526],[26.081959,47.010113],[26.082444,47.0093391],[26.084091,47.00843],[26.084509,47.006342],[26.085493,47.00491],[26.085138,47.002942],[26.087267,47.00152],[26.0892,47.000362],[26.0895851,46.9998388],[26.0894832,46.9992534],[26.089036,46.998736],[26.089045,46.998251],[26.088921,46.9977841],[26.0898587,46.9962101],[26.0902406,46.9952398],[26.0913339,46.9944056],[26.0920431,46.9931564],[26.0927233,46.9926917],[26.093414,46.991818],[26.0930312,46.990595],[26.0927941,46.9900601],[26.092631,46.9891862],[26.091977,46.988546],[26.0918542,46.9879552],[26.0922147,46.9867162],[26.0920195,46.9857998],[26.0919358,46.985259],[26.091502,46.984782],[26.089826,46.985151],[26.089648,46.984057],[26.0878341,46.9841501],[26.086649,46.983749],[26.085301,46.983811],[26.084266,46.983587],[26.081889,46.9835],[26.080752,46.983136],[26.080147,46.982348],[26.079801,46.982174],[26.079014,46.981772],[26.076496,46.981023],[26.076043,46.979833],[26.074298,46.978896],[26.073607,46.977119],[26.073,46.976052],[26.072707,46.9752],[26.072319,46.973636],[26.073052,46.973075],[26.073626,46.972954],[26.074521,46.972093],[26.075866,46.971079],[26.07479,46.970234],[26.07425,46.968745],[26.075524,46.967276],[26.076554,46.966974],[26.076929,46.965029],[26.076043,46.963461],[26.075168,46.96166],[26.076442,46.960114],[26.078716,46.959691],[26.079657,46.958813],[26.081944,46.957977],[26.084013,46.9569],[26.085501,46.956287],[26.0860619,46.9562072],[26.088671,46.956425],[26.090059,46.956332],[26.090499,46.9563],[26.093129,46.956181],[26.094735,46.957165],[26.095939,46.957868],[26.096815,46.95805],[26.100069,46.958709],[26.10322,46.958064],[26.105867,46.958089],[26.106396,46.958629],[26.106507,46.959048],[26.106852,46.962073],[26.106728,46.9624],[26.106662,46.962814],[26.106051,46.966348],[26.106703,46.968225],[26.106786,46.97033],[26.107449,46.971581],[26.106967,46.972904],[26.1072803,46.9734976],[26.107615,46.973813],[26.1081165,46.9737397],[26.10855,46.97257],[26.108753,46.970984],[26.109513,46.968782],[26.11004,46.967117],[26.110163,46.966435],[26.10954,46.96437],[26.110535,46.9627641],[26.1114705,46.960362],[26.1115939,46.957345],[26.1120053,46.9567885],[26.1127773,46.956861],[26.114701,46.958158],[26.115748,46.958787],[26.116546,46.958613],[26.1166939,46.9585508],[26.117585,46.958176],[26.117017,46.957537],[26.116591,46.957057],[26.116211,46.9562389],[26.1164589,46.9558804],[26.1170704,46.9558731],[26.1185939,46.9555436],[26.118978,46.9549998],[26.118456,46.954719],[26.118467,46.954027],[26.120305,46.95293],[26.122119,46.953223],[26.123153,46.951845],[26.122773,46.950592],[26.1231317,46.9496042],[26.1235506,46.9491061],[26.124624,46.948668],[26.125838,46.948677],[26.1262752,46.9473267],[26.1265633,46.9468195],[26.126346,46.94654],[26.1248177,46.9464182],[26.1243253,46.9460314],[26.1242266,46.945392],[26.123247,46.944124],[26.12254,46.943129],[26.1216348,46.9426452],[26.1212888,46.942235],[26.121242,46.941796],[26.1215731,46.9407184],[26.1214972,46.9405542],[26.121271,46.940065],[26.120792,46.939648],[26.12032,46.939149],[26.119677,46.939144],[26.1194842,46.939214],[26.119148,46.9393362],[26.1186341,46.9397214],[26.1177307,46.9400719],[26.1168698,46.9404097],[26.1155102,46.9405658],[26.1147098,46.9405983],[26.1138467,46.940397],[26.1133102,46.9404155],[26.1130471,46.9406208],[26.1126442,46.940697],[26.112052,46.9406488],[26.1115891,46.9404997],[26.1112825,46.940291],[26.110903,46.9400606],[26.1105269,46.9397342],[26.1099521,46.9394524],[26.1087397,46.9392216],[26.1076462,46.9389321],[26.1065827,46.9384731],[26.1054632,46.9377849],[26.1053453,46.9376345],[26.1052078,46.9375937],[26.1050775,46.9375775],[26.1048972,46.9375931],[26.1044839,46.9377782],[26.104305,46.9379434],[26.1040006,46.9381592],[26.1033699,46.9384774],[26.1022124,46.9391612],[26.101359,46.9396707],[26.1009809,46.9398219],[26.1011974,46.9399783],[26.1012687,46.9400944],[26.1013937,46.9402366],[26.1014725,46.9403788],[26.1015525,46.9405161],[26.1016324,46.9406997],[26.1016634,46.9408198],[26.1016668,46.9409462],[26.1017062,46.9411182],[26.1017549,46.9412334],[26.1016226,46.9416357],[26.1014425,46.9416013],[26.1012255,46.9419161],[26.1013197,46.9420889],[26.1013299,46.9421837],[26.1013041,46.9425003],[26.1013154,46.9426634],[26.1013975,46.9427976],[26.1013122,46.9429404],[26.1012542,46.9430265],[26.1012998,46.9431322],[26.1013885,46.9432336],[26.1015141,46.9433424],[26.1017927,46.9434957],[26.1021205,46.9436784],[26.1025249,46.9439138],[26.102843,46.944065],[26.1028851,46.9441282],[26.1029119,46.9441851],[26.1028139,46.9443143],[26.1027434,46.9444484],[26.1026774,46.9445932],[26.1027059,46.9446488],[26.1029606,46.9447419],[26.103054,46.9447631],[26.1030883,46.9448411],[26.1031209,46.9449137],[26.1032675,46.9450431],[26.104224,46.946293],[26.104189,46.94837],[26.1016324,46.9503852],[26.098883,46.951099],[26.09868,46.951097],[26.097562,46.951152],[26.0942448,46.9516146],[26.093556,46.9515898],[26.092098,46.9512555],[26.0910071,46.951995],[26.0890275,46.9525416],[26.0877197,46.9518731],[26.0872188,46.9526378],[26.0858254,46.9528899],[26.0848032,46.9523927],[26.084156,46.9534266],[26.0835341,46.9536092],[26.082652,46.953467],[26.081219,46.954287],[26.081217,46.954427],[26.078997,46.954409],[26.078166,46.955369],[26.0762811,46.9557339],[26.0754016,46.9549378],[26.0734362,46.955205],[26.074104,46.956308],[26.071048,46.957529],[26.0710087,46.9581727],[26.0704713,46.9585338],[26.070614,46.95905],[26.0706211,46.9594924],[26.0704087,46.9597998],[26.068562,46.960697],[26.068737,46.962363],[26.069315,46.963892],[26.069706,46.964863],[26.0702293,46.9658449],[26.0699912,46.9669071],[26.069362,46.967626],[26.068304,46.968355],[26.067526,46.968533],[26.065074,46.970105],[26.0640507,46.9704603],[26.0623807,46.9710761],[26.061443,46.9722251],[26.060367,46.973269],[26.0590758,46.9731872],[26.0586027,46.9731372],[26.057385,46.972417],[26.056881,46.972318],[26.056727,46.972137],[26.056578,46.971996],[26.056442,46.972269],[26.056402,46.972683],[26.056427,46.973102],[26.05693,46.97329],[26.057232,46.973293],[26.057598,46.973799],[26.058637,46.974532],[26.059078,46.975152],[26.058282,46.977515],[26.05723,46.977507],[26.0561303,46.9780354],[26.0559367,46.9782112],[26.0556821,46.9783352],[26.0553886,46.9783892],[26.0550069,46.9783862],[26.0545,46.978411],[26.0530414,46.9788128],[26.050423,46.979304],[26.047114,46.979177],[26.045387,46.979068],[26.045158,46.979057],[26.043293,46.978925],[26.0432744,46.9790971],[26.043247,46.979351],[26.045859,46.98026],[26.046938,46.980511],[26.047835,46.980726],[26.048884,46.981252],[26.050243,46.980952],[26.051292,46.981065],[26.051443,46.981079],[26.053398,46.981289],[26.054601,46.981299],[26.055183,46.981416],[26.055655,46.981515],[26.056558,46.981315],[26.057611,46.98163],[26.0579,46.982046],[26.058945,46.982774],[26.059985,46.983403],[26.059974,46.984019],[26.059597,46.984929],[26.061022,46.984648],[26.062374,46.984763],[26.062815,46.985073],[26.064512,46.986548],[26.065113,46.987475],[26.066244,46.988195],[26.067801,46.987852],[26.071324,46.987881],[26.072886,46.98761],[26.07484,46.987887],[26.076604,46.988135],[26.075975,46.988769],[26.073258,46.990024],[26.073034,46.990801],[26.073647,46.991516],[26.073327,46.992152],[26.0715215,46.9923139],[26.0704756,46.9922872],[26.070113,46.992126],[26.0679589,46.9918683],[26.065861,46.992091],[26.063886,46.992642],[26.063056,46.992779],[26.062094,46.993234],[26.062359,46.993493],[26.062807,46.993807],[26.063939,46.994131],[26.06496,46.994373],[26.06587,46.994614],[26.066331,46.994151],[26.067592,46.993846],[26.06781,46.994163],[26.0678,46.994324],[26.069554,46.994393],[26.071003,46.994616],[26.071093,46.995539],[26.069404,46.998147],[26.069174,46.9985],[26.068744,46.999419],[26.06874,46.999662],[26.069049,46.999664],[26.068154,47.000844],[26.067198,47.000967],[26.06718,47.002015],[26.066204,47.002925],[26.066074,47.003287],[26.065403,47.00514],[26.063828,47.007614],[26.06189,47.009037],[26.05881,47.010321],[26.055922,47.011475],[26.052821,47.013541],[26.051073,47.014966],[26.048586,47.015076],[26.046656,47.015977],[26.045097,47.017534],[26.042783,47.018562],[26.042742,47.018675],[26.042182,47.020127],[26.04065,47.020114],[26.039279,47.022194],[26.037748,47.022051],[26.0375524,47.0224392],[26.037353,47.022835],[26.037523,47.02401],[26.036162,47.025046],[26.035188,47.026217],[26.0351038,47.0277191],[26.0349329,47.0285214],[26.0346972,47.0286446],[26.0344401,47.0285337],[26.033775,47.0279229],[26.0333386,47.0276572],[26.0327233,47.0275443],[26.0326233,47.0280352],[26.0330382,47.0288497],[26.032838,47.029206],[26.032626,47.030382],[26.029706,47.032845],[26.028172,47.033353],[26.027192,47.034393],[26.024491,47.035679],[26.021993,47.03631],[26.019113,47.036546],[26.017959,47.037062],[26.015836,47.038088],[26.013338,47.038331],[26.012005,47.038185],[26.011231,47.038443],[26.009705,47.03843],[26.00681,47.039449],[26.004874,47.04061],[26.002755,47.041379],[26.000435,47.042668],[25.998892,47.043567],[25.998721,47.04357],[25.998407,47.043476],[25.997837,47.043301],[25.997592,47.043385],[25.99672,47.043544],[25.995979,47.043789],[25.993849,47.045124],[25.991472,47.046961],[25.9906213,47.0473264],[25.98972,47.048042],[25.989101,47.048122],[25.9887698,47.0479677],[25.9887405,47.0473829],[25.9887402,47.0466831],[25.988639,47.046428],[25.9882574,47.0458588],[25.9880283,47.0452615],[25.9877146,47.0454401],[25.9875577,47.0453093],[25.9873315,47.0452234],[25.987219,47.0451239],[25.9871566,47.045031],[25.9871452,47.0448983],[25.9870385,47.044828],[25.9869541,47.04483],[25.986871,47.0449033],[25.9867982,47.0449138],[25.9867157,47.044942],[25.9866899,47.0449798],[25.9867735,47.0451074],[25.986825,47.0451343],[25.9868555,47.0451732],[25.9868681,47.0452231],[25.9868285,47.0452504],[25.9867799,47.0452315],[25.9867438,47.0451845],[25.9866986,47.045136],[25.9866448,47.0451965],[25.9865308,47.0453391],[25.9864727,47.0456483],[25.9864771,47.045877],[25.9865678,47.0460178],[25.9866662,47.0461486],[25.9867133,47.0462212],[25.9867475,47.0462744],[25.9867602,47.0463024],[25.9867445,47.0463308],[25.9866896,47.0463518],[25.986621,47.0463476],[25.9865687,47.0463392],[25.9865066,47.046308],[25.9864249,47.0462359],[25.9863136,47.046176],[25.9861527,47.0460919],[25.9858452,47.0459818],[25.9856386,47.0458506],[25.9854674,47.0457725],[25.9852948,47.0457321],[25.9852046,47.0456995],[25.9851302,47.0456488],[25.9850452,47.0456197],[25.9848893,47.0455807],[25.9847615,47.0454836],[25.9845838,47.0453761],[25.9844281,47.0452967],[25.9840988,47.0452386],[25.9838154,47.0451733],[25.983638,47.0451151],[25.9833682,47.0449841],[25.9831047,47.0449014],[25.9828625,47.0448524],[25.9826682,47.0448125],[25.982478,47.0448097],[25.9821965,47.0448282],[25.9819112,47.0448617],[25.9817037,47.0449024],[25.981494,47.0449404],[25.9813366,47.0449441],[25.98122,47.0448984],[25.9810788,47.0448505],[25.9809355,47.0448213],[25.9808169,47.0448259],[25.9807426,47.0448929],[25.9806365,47.0448629],[25.9805234,47.0448802],[25.9803538,47.0449147],[25.9801491,47.0449259],[25.9799665,47.0449017],[25.9798015,47.044839],[25.9797291,47.0447807],[25.9796285,47.0447513],[25.9794979,47.0447697],[25.9792965,47.0448917],[25.9791199,47.0449413],[25.9788942,47.0449971],[25.9787315,47.0451069],[25.9781867,47.0454555],[25.977994,47.0455025],[25.9778083,47.0455013],[25.9775786,47.0454843],[25.9772325,47.0454215],[25.9769457,47.045315],[25.9766837,47.0451867],[25.9764781,47.0451473],[25.9763239,47.0451062],[25.9762547,47.0450748],[25.9761586,47.044983],[25.9758745,47.0448524],[25.9757027,47.0447987],[25.9754581,47.0447781],[25.9752274,47.0447873],[25.9750357,47.0448374],[25.9749141,47.0449185],[25.9748407,47.0450275],[25.9747364,47.0450478],[25.9746907,47.0450064],[25.9746417,47.0449621],[25.9745791,47.0449169],[25.9744682,47.0449135],[25.974324,47.0449065],[25.9742553,47.0448733],[25.9742309,47.0447779],[25.9742035,47.0447078],[25.9741911,47.0446014],[25.9741403,47.0445107],[25.9740858,47.0444708],[25.9739983,47.0444729],[25.9738939,47.0444866],[25.9738409,47.0445142],[25.9737985,47.0445018],[25.9737421,47.0444433],[25.9736506,47.0444662],[25.9736445,47.0445119],[25.9736464,47.0445889],[25.9735724,47.044603],[25.9735324,47.0445073],[25.9734536,47.0444961],[25.9733505,47.044592],[25.9732758,47.0447168],[25.9732537,47.044923],[25.9732718,47.045027],[25.9733111,47.0451551],[25.9733827,47.045339],[25.9734339,47.0453788],[25.9735433,47.045492],[25.9735781,47.045598],[25.9735242,47.0456539],[25.9734739,47.0457026],[25.9732813,47.0458097],[25.9732093,47.0459],[25.973153,47.0459821],[25.9730754,47.0461752],[25.9728706,47.0464312],[25.9724506,47.0469139],[25.9723279,47.0469721],[25.9723019,47.0470355],[25.9722429,47.0471189],[25.9719467,47.04729],[25.9716611,47.0474779],[25.9715168,47.047511],[25.9713866,47.0475418],[25.9712396,47.0475454],[25.9710658,47.047514],[25.9708032,47.0474994],[25.9704975,47.0474799],[25.9703816,47.0475037],[25.9701941,47.0474907],[25.9699642,47.0474464],[25.9698584,47.0474542],[25.9698367,47.047493],[25.969822,47.04758],[25.9697715,47.0476334],[25.9697483,47.0476632],[25.9696665,47.0476214],[25.9695879,47.0475909],[25.969459,47.0475347],[25.9693852,47.0475043],[25.9693366,47.0474869],[25.9692962,47.0474183],[25.9692012,47.0474018],[25.9691032,47.0473735],[25.9690417,47.0473796],[25.9690971,47.0474677],[25.969192,47.0475624],[25.9692783,47.0476435],[25.9694386,47.0477468],[25.9694219,47.0477971],[25.9693672,47.047806],[25.9693003,47.0477805],[25.9692019,47.0477487],[25.9690918,47.0476645],[25.9689961,47.0476478],[25.968938,47.0475992],[25.9688399,47.0475918],[25.9687772,47.0475989],[25.9687742,47.0476519],[25.9688583,47.0477031],[25.9689302,47.0477566],[25.9689414,47.0478146],[25.9689738,47.0478583],[25.9690609,47.0479314],[25.9691218,47.0480198],[25.9688898,47.0479361],[25.9687726,47.047899],[25.9686012,47.0478664],[25.9684536,47.0478373],[25.9683141,47.0478081],[25.9681402,47.0477833],[25.9679416,47.0477729],[25.9678276,47.0477522],[25.9677552,47.0476964],[25.9676882,47.0476136],[25.9676179,47.0475348],[25.9675907,47.0474063],[25.967562,47.0472728],[25.9675306,47.0472077],[25.9674911,47.0471973],[25.9674486,47.0471941],[25.9673209,47.047149],[25.9671927,47.0471112],[25.9669929,47.0470742],[25.9667845,47.0469905],[25.9664614,47.0468191],[25.9663012,47.0467346],[25.9661132,47.0466118],[25.9660353,47.0466086],[25.9658795,47.0466319],[25.9657661,47.0466785],[25.9656765,47.0466949],[25.9656117,47.0466703],[25.9655387,47.0466646],[25.9654988,47.0467013],[25.9654545,47.0467603],[25.9653942,47.0467915],[25.965309,47.0468152],[25.9652448,47.0467808],[25.9652297,47.0466877],[25.9652207,47.0466463],[25.9651247,47.0466358],[25.9650956,47.0466872],[25.9650444,47.0466646],[25.9649846,47.046547],[25.9648791,47.0464324],[25.9647389,47.0463142],[25.9645647,47.0462127],[25.9643508,47.0461739],[25.9641726,47.0460905],[25.9640573,47.0460671],[25.9640559,47.0461264],[25.9642251,47.046238],[25.9642187,47.0462974],[25.9642651,47.0463633],[25.964221,47.0464203],[25.9641604,47.0464527],[25.964114,47.046485],[25.9640778,47.0465401],[25.9640367,47.0465865],[25.9640254,47.046631],[25.9640168,47.0466622],[25.9639429,47.0466813],[25.9638519,47.0466133],[25.9638185,47.0466798],[25.9637729,47.0467116],[25.9637101,47.0467027],[25.9636765,47.0466707],[25.9636516,47.0466306],[25.9637082,47.0465843],[25.963708,47.0465447],[25.9636581,47.0464944],[25.9635668,47.0464706],[25.9634428,47.04645],[25.9632444,47.0464608],[25.9631556,47.0466224],[25.9630607,47.0468191],[25.962955,47.0468989],[25.962851,47.0470145],[25.9630049,47.0471763],[25.9629692,47.0473431],[25.963064,47.0474594],[25.9630899,47.0475669],[25.9631243,47.0476645],[25.9631872,47.0477682],[25.9632427,47.0477981],[25.9632866,47.0478203],[25.9633326,47.0478753],[25.9633584,47.0479394],[25.9635396,47.0481752],[25.9635821,47.0483147],[25.9636221,47.0484338],[25.9637547,47.0486432],[25.9638391,47.0487723],[25.9638847,47.0488647],[25.963921,47.0489219],[25.9640109,47.0489974],[25.9640596,47.0490064],[25.9640682,47.0490524],[25.9641605,47.0491077],[25.9643505,47.0491745],[25.9644944,47.0492223],[25.9645515,47.0492592],[25.9645747,47.0493039],[25.9646155,47.049386],[25.9646705,47.0494295],[25.9647535,47.0494544],[25.9648981,47.0494676],[25.9650103,47.0494867],[25.965106,47.0495505],[25.9651685,47.0496343],[25.9652095,47.0497099],[25.9650426,47.0496895],[25.9649293,47.0496836],[25.9648691,47.0496939],[25.9647808,47.0496998],[25.9646685,47.0497079],[25.9647277,47.0496626],[25.964744,47.0496282],[25.9647122,47.0496035],[25.9646227,47.0496103],[25.9645401,47.0496385],[25.9644661,47.0496329],[25.9643718,47.0496656],[25.9642154,47.0497053],[25.9641331,47.049814],[25.9640814,47.0499218],[25.9640798,47.0500094],[25.9640552,47.0500968],[25.9640864,47.0501511],[25.964165,47.0502413],[25.9642136,47.0503214],[25.9642326,47.0503686],[25.9642411,47.0503981],[25.9642145,47.0504301],[25.9641031,47.0504617],[25.9640144,47.0504736],[25.9638155,47.0505195],[25.9636217,47.0505711],[25.9634164,47.0506377],[25.9632418,47.0507197],[25.9629963,47.0508033],[25.9626463,47.0509071],[25.9622948,47.0510049],[25.9618763,47.0511202],[25.9618238,47.0511235],[25.9617659,47.0511195],[25.9617145,47.0511225],[25.9616118,47.0511358],[25.961476,47.0511771],[25.9614299,47.051223],[25.9614073,47.0512709],[25.9613513,47.0513119],[25.9612555,47.0513465],[25.9611658,47.0513754],[25.9610626,47.0513716],[25.9609675,47.0514007],[25.9608631,47.0514808],[25.9607025,47.051619],[25.960494,47.0518261],[25.9602809,47.0520538],[25.9601206,47.0521665],[25.9599227,47.0522791],[25.9597255,47.0523546],[25.9595723,47.0524033],[25.9594699,47.0524677],[25.959292,47.052527],[25.9590755,47.0525799],[25.9588411,47.0526236],[25.9586114,47.0526471],[25.9584192,47.0526561],[25.9582763,47.0526264],[25.9581353,47.0525598],[25.9580491,47.0524746],[25.9579279,47.0524022],[25.9577608,47.0523452],[25.9575981,47.0522567],[25.9575438,47.0521959],[25.9575163,47.0522193],[25.9575096,47.0522696],[25.9576475,47.052439],[25.9577211,47.0525352],[25.9577233,47.0525815],[25.9576688,47.052634],[25.9575598,47.0526731],[25.9574078,47.0527229],[25.9572103,47.0527673],[25.9570083,47.0527975],[25.9568725,47.0528286],[25.9566921,47.0529019],[25.956562,47.0529534],[25.9564145,47.0530528],[25.9562536,47.0531675],[25.9561248,47.053258],[25.9560014,47.0533403],[25.9558404,47.0534064],[25.955733,47.0534835],[25.9555986,47.0535466],[25.9554481,47.0535803],[25.9552868,47.0535866],[25.9551681,47.053581],[25.9550862,47.0535478],[25.9550091,47.0535161],[25.9549511,47.0534585],[25.9548904,47.0533626],[25.9548494,47.0532949],[25.9547514,47.05324],[25.9546842,47.0531192],[25.9546302,47.0531115],[25.9545955,47.0531447],[25.9545554,47.0532639],[25.9546835,47.0535895],[25.9547204,47.0536957],[25.9547299,47.0537804],[25.9546902,47.053839],[25.9546397,47.053883],[25.9545709,47.0539161],[25.9544654,47.0539569],[25.9543565,47.0539799],[25.9541923,47.0540295],[25.9540302,47.0540593],[25.953834,47.054114],[25.9537022,47.0541741],[25.9535726,47.0542616],[25.9534905,47.0543305],[25.9534389,47.0544317],[25.9533869,47.0545541],[25.9533404,47.0546966],[25.9532461,47.0547676],[25.9531385,47.0548385],[25.9530519,47.054889],[25.9529538,47.0549169],[25.9528219,47.0549215],[25.9527407,47.0549308],[25.9526811,47.0549435],[25.9526295,47.054991],[25.9526175,47.0550493],[25.9526204,47.0551476],[25.9525941,47.055253],[25.9525077,47.0553487],[25.9524027,47.0554774],[25.9522086,47.0556067],[25.9520243,47.0557412],[25.9519614,47.0558238],[25.9518894,47.0558756],[25.9517775,47.0559501],[25.9517094,47.0560516],[25.9516696,47.0561412],[25.9514719,47.0563058],[25.9514001,47.0564577],[25.95139,47.0565987],[25.9513859,47.0567674],[25.9514312,47.056871],[25.9514729,47.0570011],[25.9515574,47.0570873],[25.9516675,47.0571977],[25.9517474,47.0573784],[25.9518622,47.0575188],[25.9520114,47.0576828],[25.9521165,47.0578024],[25.9521692,47.057891],[25.9521682,47.0579923],[25.952134,47.0580671],[25.9520603,47.0581362],[25.9519343,47.0581613],[25.9517684,47.0581717],[25.9515461,47.058193],[25.9513269,47.0582028],[25.951103,47.0582443],[25.9508859,47.0582761],[25.9506609,47.0582741],[25.9504791,47.058248],[25.9503302,47.0582067],[25.9502009,47.0581304],[25.9501118,47.0580851],[25.9500355,47.0580639],[25.949985,47.0580728],[25.9499429,47.0580905],[25.9499338,47.058115],[25.9499532,47.0581458],[25.9499383,47.0581744],[25.9498925,47.0581877],[25.9498008,47.0581668],[25.9497194,47.0581396],[25.9496532,47.0581181],[25.9495474,47.0581191],[25.9494,47.0581396],[25.949266,47.0581437],[25.9491695,47.05813],[25.9490894,47.0581062],[25.9490202,47.058077],[25.9489248,47.058033],[25.9488036,47.058],[25.9487009,47.0579887],[25.9486134,47.0580026],[25.948551,47.0580306],[25.948512,47.0580608],[25.9484932,47.0580995],[25.9483858,47.0580744],[25.9482889,47.0580388],[25.9482347,47.0580152],[25.9481798,47.0580227],[25.9480702,47.0580123],[25.9479421,47.0580024],[25.9477555,47.0579898],[25.9474898,47.0579757],[25.9472588,47.0579511],[25.9470058,47.057913],[25.9468004,47.0578878],[25.9466257,47.0578849],[25.9464027,47.0578702],[25.9462871,47.0578536],[25.9461899,47.0578096],[25.9460437,47.0577434],[25.9459821,47.0577206],[25.945918,47.057741],[25.9458808,47.0577706],[25.9458601,47.0578227],[25.9457918,47.05785],[25.9457089,47.0578718],[25.9456076,47.0578715],[25.9455336,47.0578966],[25.9453761,47.058017],[25.945283,47.0580607],[25.9451878,47.0580786],[25.9451156,47.0580597],[25.9450355,47.0580145],[25.9448861,47.0579314],[25.9446785,47.057864],[25.9444832,47.0578313],[25.9441999,47.0578282],[25.9438692,47.0578403],[25.943562,47.0578754],[25.9434142,47.0578578],[25.9433172,47.0578117],[25.943225,47.057745],[25.9430486,47.0575546],[25.9427502,47.0574659],[25.942383,47.057402],[25.941208,47.057566],[25.940691,47.057741],[25.940171,47.057736],[25.9386923,47.0572281],[25.9373246,47.0569116],[25.936687,47.056908],[25.93635,47.05695],[25.9353584,47.0569126],[25.93446,47.0567483],[25.9331901,47.0569009],[25.9316873,47.0568758],[25.9315127,47.0575146],[25.9309282,47.0580709],[25.9300387,47.0581936],[25.9294792,47.0580249],[25.9282596,47.0574855],[25.9263519,47.0576534],[25.924804,47.057431],[25.9231469,47.0571218],[25.922354,47.0566515],[25.9217191,47.0563415],[25.920521,47.0560261],[25.918039,47.0555376],[25.9171131,47.0557158],[25.9163601,47.0561598],[25.9154135,47.0568901],[25.9156951,47.0569375],[25.9166381,47.05622],[25.9171378,47.0559326],[25.9172641,47.05586],[25.9178571,47.0558163],[25.9185085,47.0559196],[25.918763,47.0559824],[25.919122,47.056026],[25.9198808,47.0562051],[25.9205489,47.0562426],[25.9213887,47.0564814],[25.921265,47.0569946],[25.92147,47.0571872],[25.9221487,47.0575088],[25.9231097,47.0580646],[25.9240833,47.0582813],[25.9250354,47.0583957],[25.926677,47.0583884],[25.9279749,47.0586039],[25.9292567,47.0591995],[25.9298739,47.059766],[25.931333,47.060307],[25.9324071,47.0603708],[25.9335372,47.0601809],[25.9338971,47.0602832],[25.934739,47.060565],[25.935003,47.060841],[25.9352518,47.0610225],[25.9357834,47.0610422],[25.9362083,47.0610075],[25.9365624,47.0609348],[25.936997,47.060806],[25.9380955,47.0608094],[25.9394248,47.0610433],[25.940236,47.061101],[25.9422883,47.0613656],[25.9443477,47.0617881],[25.945648,47.062388],[25.9468,47.063375],[25.947292,47.064441],[25.947781,47.066042],[25.9483534,47.066803],[25.948519,47.067996],[25.948557,47.068064],[25.948538,47.069044],[25.948667,47.069518],[25.948524,47.069773],[25.948641,47.069805],[25.948877,47.069866],[25.950402,47.071346],[25.950749,47.071759],[25.9507736,47.0725433],[25.950826,47.07421],[25.951165,47.075028],[25.9519107,47.0760648],[25.9525867,47.0766982],[25.9532664,47.077254],[25.9538076,47.0777326],[25.954104,47.0780545],[25.9544804,47.0784739],[25.9548692,47.0787158],[25.955503,47.0790045],[25.9563555,47.0792615],[25.9578693,47.0798248],[25.958594,47.080322],[25.9591144,47.0807892],[25.9601873,47.081534],[25.9613229,47.0820761],[25.9614544,47.0826257],[25.962124,47.082967],[25.962087,47.084842],[25.9616078,47.085951],[25.9613533,47.0863483],[25.9610255,47.0867284],[25.9605089,47.0872367],[25.9602637,47.087651],[25.9602392,47.0882446],[25.9603054,47.0886495],[25.9604257,47.0888627],[25.960707,47.0890634],[25.9611332,47.0892618],[25.9614673,47.0894195],[25.9626136,47.089802],[25.9634056,47.0899125],[25.964506,47.090007],[25.9660271,47.0905348],[25.9662701,47.0907395],[25.9664294,47.0911342],[25.9661177,47.0917417],[25.9651498,47.0924209],[25.9645259,47.0925585],[25.9639075,47.0926184],[25.9625888,47.0926421],[25.9611558,47.0925511],[25.9594575,47.092555],[25.9583915,47.092486],[25.9561483,47.0925517],[25.954637,47.092616],[25.9518569,47.0927621],[25.9511665,47.092834],[25.950173,47.0929991],[25.9493813,47.0931875],[25.9489245,47.0933383],[25.948511,47.0935093],[25.9483016,47.0935852],[25.9480524,47.0936508],[25.9475533,47.093756],[25.9472346,47.0938365],[25.9469265,47.0939396],[25.9466636,47.0940776],[25.946324,47.094328],[25.9458246,47.0948322],[25.9449884,47.0958377],[25.9441953,47.0967998],[25.9437989,47.0974836],[25.9433494,47.0985846],[25.9430565,47.0997392],[25.9427331,47.1001237],[25.942752,47.1002148],[25.9427141,47.100267],[25.9427362,47.1003162],[25.9426339,47.1004281],[25.9428458,47.1005065],[25.9429253,47.1003898],[25.9429801,47.100378],[25.9430305,47.100317],[25.9431519,47.1002871],[25.9434149,47.0998434],[25.9437493,47.0986062],[25.9442802,47.0973579],[25.9445632,47.0969042],[25.9452847,47.0959468],[25.9466418,47.0946135],[25.9471861,47.0945714],[25.9467289,47.0952446],[25.9463235,47.0957231],[25.9452642,47.0972931],[25.9450947,47.098031],[25.9448977,47.0983542],[25.9445798,47.0987399],[25.9443107,47.0992283],[25.9443732,47.0997742],[25.9442063,47.1002853],[25.9441363,47.1004676],[25.9440267,47.1007319],[25.9438533,47.1017128],[25.9438499,47.1019134],[25.943199,47.1029106],[25.9426418,47.1034675],[25.94077,47.104564],[25.9394445,47.105131],[25.9383226,47.1057207],[25.9372537,47.1065146],[25.9366292,47.1070507],[25.9364124,47.1075576],[25.93647,47.1085176],[25.9363723,47.1090187],[25.9361121,47.109433],[25.935688,47.1097984],[25.935186,47.110366],[25.9352053,47.1110114],[25.9353892,47.1116553],[25.935584,47.1120503],[25.9358432,47.1124454],[25.9362245,47.1129203],[25.9362302,47.1133294],[25.9361361,47.113716],[25.9358488,47.1142887],[25.9353981,47.1147754],[25.9349764,47.114978],[25.9342661,47.1149566],[25.934009,47.1152326],[25.9345114,47.1153974],[25.9348866,47.1153262],[25.9356813,47.1149929]]]},"properties":{"name":"Lacul Bicaz (Izvorul Muntelui)","name_ro":"Lacul Bicaz","type":"lake","source":"manual_premap","source_detail":"HOTOSM Waterways HDX snapshot 2026-08-07, water=lake/reservoir name match (1 candidate features, largest polygon selected)","osm_type":"way","osm_id":"way/88373308","geocode_tier":"tier1","confidence":"high"}}]}