{"type":"FeatureCollection","metadata":{"pipeline":"tier1_premap","pipeline_version":"1.0","generated_at":"2026-08-11T10:41:30.990268+00:00"},"features":[{"type":"Feature","id":"lacul-sinoe","geometry":{"type":"Polygon","coordinates":[[[28.765433,44.462834],[28.765084,44.462723],[28.764395,44.462576],[28.763651,44.462493],[28.762545,44.462496],[28.761787,44.462544],[28.761404,44.462568],[28.761021,44.462587],[28.759982,44.462279],[28.759174,44.461954],[28.758289,44.462179],[28.75795,44.462644],[28.757341,44.462846],[28.756687,44.463032],[28.756078,44.463266],[28.755633,44.463723],[28.755523,44.464233],[28.755299,44.464723],[28.755005,44.465186],[28.754672,44.465619],[28.753922,44.466382],[28.753474,44.466739],[28.753057,44.467074],[28.752768,44.467713],[28.752466,44.468321],[28.751576,44.468812],[28.750616,44.469272],[28.750211,44.470029],[28.750183,44.470993],[28.750287,44.471958],[28.750506,44.472954],[28.750762,44.473967],[28.751139,44.474983],[28.751496,44.476012],[28.751898,44.477054],[28.752275,44.478092],[28.752563,44.479123],[28.752827,44.480153],[28.75299,44.481195],[28.752997,44.482257],[28.752858,44.483303],[28.752556,44.484342],[28.75207,44.485349],[28.7517752,44.4869706],[28.7516316,44.4888345],[28.7517418,44.4907682],[28.7520659,44.4923915],[28.7522088,44.4930025],[28.7522756,44.4938094],[28.7521493,44.4943408],[28.7518503,44.4948188],[28.7512073,44.4953081],[28.7505079,44.4958331],[28.7501259,44.4961438],[28.7500013,44.4966076],[28.7501273,44.497022],[28.751155,44.498006],[28.751785,44.498667],[28.751803,44.499067],[28.752017,44.499523],[28.752188,44.500177],[28.75272,44.501168],[28.753439,44.502079],[28.754296,44.502952],[28.754439,44.503108],[28.755436,44.504906],[28.756241,44.506797],[28.75622,44.508822],[28.756102,44.510551],[28.756233,44.511976],[28.758053,44.514566],[28.760295,44.517209],[28.762091,44.518792],[28.764519,44.521909],[28.765074,44.522624],[28.7653839,44.523582],[28.7649105,44.5235382],[28.76448,44.522913],[28.763735,44.5226],[28.763419,44.522371],[28.763091,44.522129],[28.762451,44.521774],[28.761679,44.522007],[28.762035,44.522761],[28.762361,44.523544],[28.762693,44.524344],[28.763018,44.525126],[28.763389,44.525926],[28.763751,44.526681],[28.76415,44.527408],[28.764972,44.527985],[28.765571,44.526131],[28.766141,44.526685],[28.766326,44.527393],[28.766536,44.528096],[28.766759,44.528799],[28.76698,44.529479],[28.766942,44.530501],[28.767243,44.532341],[28.768735,44.534879],[28.770479,44.537412],[28.771849,44.538817],[28.7720258,44.538717],[28.772595,44.539997],[28.7724708,44.541158],[28.773005,44.541678],[28.773488,44.542656],[28.774157,44.543375],[28.7750195,44.5448032],[28.7753108,44.5452255],[28.7755479,44.5455365],[28.7755497,44.5459857],[28.7756387,44.5462959],[28.7758557,44.5467036],[28.7757018,44.5467486],[28.7758123,44.5469202],[28.7760214,44.5469174],[28.7760796,44.5468847],[28.7762543,44.5470748],[28.7764415,44.5474949],[28.7762898,44.5476682],[28.7762937,44.5478201],[28.7761951,44.5480647],[28.775686,44.5485484],[28.7754883,44.5488944],[28.7754532,44.5492402],[28.775252,44.5495439],[28.7750889,44.5496246],[28.7750602,44.5497164],[28.7750865,44.5498609],[28.7751977,44.5499415],[28.7753472,44.5499617],[28.7754542,44.5499905],[28.7755026,44.5501393],[28.7754563,44.5503907],[28.775485,44.5505914],[28.7755614,44.5509601],[28.7753553,44.5513006],[28.7751321,44.5513808],[28.7750946,44.5517067],[28.7749855,44.5517743],[28.7751775,44.5519327],[28.7759382,44.5523587],[28.7758351,44.5524485],[28.7756086,44.5525664],[28.7754942,44.5526564],[28.7753524,44.553432],[28.7751833,44.5536339],[28.7749407,44.5538081],[28.7748473,44.5539737],[28.7743826,44.5541914],[28.774322,44.554132],[28.774217,44.5541522],[28.7742008,44.5543534],[28.7741312,44.5545924],[28.7740727,44.5551826],[28.7738624,44.5554421],[28.773678,44.5555267],[28.7735446,44.5557472],[28.7736196,44.5559888],[28.7735795,44.5562411],[28.7735012,44.5564409],[28.7732588,44.5565884],[28.7731199,44.5565452],[28.7730668,44.5566028],[28.7731022,44.556682],[28.7730402,44.556868],[28.7730037,44.5570095],[28.772832,44.5572254],[28.7728926,44.5574324],[28.7726906,44.5576069],[28.7727537,44.5577401],[28.7726885,44.5578229],[28.7728118,44.557947],[28.7727385,44.5581522],[28.7729734,44.5582368],[28.7731352,44.5583515],[28.7732411,44.558573],[28.7732054,44.5587372],[28.7731297,44.558838],[28.7731675,44.5592447],[28.7733276,44.5592349],[28.7735337,44.5593598],[28.7737279,44.5595383],[28.7736449,44.5597017],[28.773447,44.5598298],[28.7731044,44.5598061],[28.7728615,44.5599507],[28.7723165,44.5604125],[28.7720949,44.5606713],[28.7719149,44.5606428],[28.771824,44.5607724],[28.7718038,44.5610369],[28.7719212,44.5611127],[28.7722961,44.561152],[28.7726276,44.561481],[28.7728762,44.5620939],[28.772692,44.562633],[28.7724776,44.5628839],[28.7721501,44.5630301],[28.7716316,44.5630516],[28.7710452,44.5629401],[28.7705757,44.562718],[28.7700362,44.5624088],[28.7699175,44.5622241],[28.7692378,44.5622451],[28.7696405,44.5625887],[28.7696444,44.5627968],[28.7693524,44.5632859],[28.7695576,44.56339],[28.7695479,44.5635442],[28.7693406,44.5638285],[28.7690091,44.5639972],[28.7684369,44.5641209],[28.7682628,44.5640404],[28.7675457,44.5637054],[28.7673605,44.5637915],[28.7670935,44.5638978],[28.7677542,44.5646657],[28.7675694,44.5647359],[28.7675122,44.5649548],[28.7678423,44.565191],[28.7672147,44.5652718],[28.7674528,44.5657066],[28.7680329,44.5663138],[28.768242,44.5662407],[28.7685695,44.5663491],[28.7690991,44.5667544],[28.7694266,44.566805],[28.7695805,44.5671311],[28.769328,44.5672717],[28.7695016,44.5673476],[28.7698291,44.5671002],[28.7705078,44.5670721],[28.7704723,44.5668837],[28.7701566,44.5667797],[28.7699238,44.566538],[28.7698015,44.5662287],[28.7699672,44.5659082],[28.7701369,44.5657227],[28.7704697,44.5656098],[28.770868,44.5655971],[28.7710045,44.5654641],[28.771079,44.5652255],[28.7715054,44.5652905],[28.7717498,44.5654391],[28.7722219,44.5656272],[28.7729464,44.5663833],[28.7732305,44.5667404],[28.773399,44.5667311],[28.7735347,44.5668823],[28.7738264,44.5670749],[28.7739366,44.5671241],[28.7740908,44.5673195],[28.7741381,44.567505],[28.77415,44.5676793],[28.7745406,44.5677131],[28.7746472,44.5676906],[28.7748602,44.5677243],[28.7751248,44.5677638],[28.7751941,44.5678423],[28.7755584,44.5679634],[28.7758628,44.5681114],[28.7760251,44.5681348],[28.776071,44.5682386],[28.7762778,44.5683771],[28.7780461,44.5683661],[28.778605,44.568548],[28.77918,44.568804],[28.7793898,44.5691213],[28.7798872,44.5693099],[28.7801289,44.5693173],[28.7808253,44.5696337],[28.7814193,44.5699014],[28.78206,44.570388],[28.782649,44.570707],[28.7828549,44.5709921],[28.7836377,44.5710635],[28.7840082,44.5711628],[28.7840768,44.5712479],[28.784596,44.5712907],[28.7851686,44.5715402],[28.7853606,44.5715016],[28.7858441,44.5716317],[28.785873,44.571694],[28.7863244,44.5716564],[28.7867677,44.5717923],[28.7872212,44.5719306],[28.7875815,44.5719124],[28.7882737,44.5719659],[28.7886541,44.5719358],[28.788997,44.5720426],[28.7892655,44.5721734],[28.7895894,44.5721718],[28.7897901,44.5720884],[28.7901042,44.572111],[28.7902806,44.5721677],[28.7904545,44.5721266],[28.7914126,44.5720681],[28.7922287,44.5721397],[28.7925571,44.5721832],[28.7927607,44.571999],[28.7930257,44.5719197],[28.7930059,44.5716983],[28.7933068,44.5713118],[28.7936608,44.5711268],[28.794197,44.571048],[28.7946336,44.5711783],[28.7951022,44.5710834],[28.7955354,44.5712034],[28.7958652,44.5713899],[28.7959556,44.5716035],[28.7964128,44.5716285],[28.7973215,44.5710765],[28.7976819,44.5710061],[28.7980348,44.5710397],[28.798422,44.5712985],[28.7987592,44.5718612],[28.7986956,44.57217],[28.7988045,44.5725998],[28.798952,44.573367],[28.7986405,44.5742689],[28.798817,44.5745239],[28.798711,44.5746818],[28.7991542,44.5747778],[28.7993943,44.5750934],[28.7992987,44.5755464],[28.7994931,44.5758913],[28.7995432,44.576459],[28.7991189,44.5766901],[28.7985187,44.5767098],[28.7981632,44.5768768],[28.7979706,44.5768219],[28.7976521,44.5769605],[28.7970149,44.5769591],[28.7967993,44.5768968],[28.7959975,44.5771068],[28.7952287,44.5769024],[28.7945674,44.576671],[28.7939972,44.576345],[28.7935197,44.5758716],[28.792838,44.5753362],[28.7929383,44.5750945],[28.791766,44.5751092],[28.7911653,44.5746095],[28.7908647,44.5747522],[28.7911267,44.5749389],[28.7914459,44.5752188],[28.7915073,44.5757182],[28.7912115,44.5765474],[28.7913734,44.5766023],[28.7914428,44.5767745],[28.7908334,44.577615],[28.790316,44.5775839],[28.7898597,44.5778079],[28.7895514,44.5777683],[28.7888537,44.5775392],[28.7890097,44.5781537],[28.789552,44.57823],[28.7897235,44.5783194],[28.7900385,44.5785632],[28.790321,44.57888],[28.7905368,44.5791702],[28.7908395,44.5795776],[28.7909608,44.5798652],[28.7915306,44.5800871],[28.7923183,44.5804711],[28.7924086,44.5806171],[28.7926083,44.5808423],[28.792617,44.581062],[28.7924988,44.5813792],[28.7922623,44.5815161],[28.7920549,44.5816321],[28.7920253,44.5817867],[28.7918083,44.5819167],[28.7915994,44.5818803],[28.7914167,44.5822398],[28.7917343,44.5824015],[28.7920585,44.5826987],[28.792563,44.582528],[28.7929378,44.5825104],[28.7931795,44.5823593],[28.7935742,44.5822048],[28.7937566,44.5820221],[28.7940088,44.5819128],[28.7943534,44.581748],[28.7947924,44.5816426],[28.7948615,44.5817094],[28.7950348,44.5816061],[28.7954715,44.5816561],[28.796005,44.5818853],[28.7963856,44.5821064],[28.7964894,44.5824544],[28.7968345,44.5825104],[28.7968394,44.5825701],[28.7971232,44.5826808],[28.7972833,44.5826615],[28.7974913,44.5826924],[28.7976079,44.5827742],[28.7978308,44.5827212],[28.7983924,44.5827315],[28.7986694,44.5828547],[28.7991281,44.5828722],[28.7995956,44.5829667],[28.7998435,44.5832095],[28.8001474,44.5833444],[28.8003131,44.5831786],[28.8007511,44.5829369],[28.800932,44.5828505],[28.8012984,44.5828842],[28.8014693,44.5829959],[28.8015166,44.5830577],[28.8016311,44.5830212],[28.8017258,44.5828919],[28.8021021,44.5828498],[28.8022718,44.5829243],[28.8024282,44.5829566],[28.8028464,44.5829509],[28.8030793,44.5830316],[28.8032106,44.5833285],[28.8033594,44.5834175],[28.8033981,44.5835812],[28.8035251,44.5836535],[28.8035212,44.5838812],[28.8033752,44.5839936],[28.8029688,44.5840864],[28.8027359,44.5841735],[28.8027313,44.5842333],[28.8021006,44.5843871],[28.8016587,44.5842775],[28.8016942,44.5844152],[28.8016113,44.5845416],[28.8014259,44.5846793],[28.8012993,44.584807],[28.8004858,44.5850025],[28.8001161,44.5851364],[28.7994635,44.5851925],[28.7991372,44.5850884],[28.7989807,44.5850817],[28.7988817,44.5851205],[28.7991261,44.5852745],[28.7993443,44.5855392],[28.7994534,44.5857321],[28.799413,44.5859306],[28.7992327,44.5860666],[28.7993181,44.5861709],[28.7995262,44.5862515],[28.7996898,44.5862644],[28.8000434,44.5864227],[28.8001222,44.586545],[28.8002414,44.5865421],[28.8003282,44.5864832],[28.8006994,44.5863786],[28.8008353,44.5864371],[28.8010354,44.5864544],[28.8010333,44.5864198],[28.8009889,44.5863306],[28.8009384,44.586263],[28.8008919,44.5861407],[28.8009505,44.5859263],[28.8011121,44.5857364],[28.801199,44.5855335],[28.8012596,44.5854615],[28.8009485,44.5854342],[28.8009545,44.5853853],[28.8012595,44.5853671],[28.8015324,44.5854558],[28.8015647,44.5854285],[28.8016495,44.5854155],[28.8017101,44.5854702],[28.8019263,44.5854702],[28.8023647,44.5855421],[28.8025729,44.5856384],[28.8028759,44.5858961],[28.8028799,44.5859666],[28.8032198,44.5861139],[28.8033628,44.5862227],[28.8033608,44.586299],[28.8034153,44.5863436],[28.8034355,44.5863983],[28.8035971,44.5862817],[28.8037345,44.5862659],[28.8037619,44.5862005],[28.8039628,44.5861896],[28.8040032,44.5862875],[28.8041265,44.5862443],[28.8042553,44.5862711],[28.8044639,44.5864443],[28.8044113,44.5865364],[28.8046114,44.5865421],[28.8047487,44.5865868],[28.8049399,44.5867931],[28.8050205,44.5874382],[28.8047905,44.5876446],[28.8044824,44.5876518],[28.8043802,44.5875907],[28.8041654,44.587585],[28.8039999,44.5873548],[28.8039223,44.5873502],[28.8039135,44.5872585],[28.8038267,44.587213],[28.8038331,44.5871624],[28.8036842,44.5871169],[28.8035003,44.5871759],[28.8034232,44.5871357],[28.8033731,44.5871846],[28.8032054,44.5872191],[28.802971,44.5873817],[28.8031337,44.5874614],[28.8031771,44.5875788],[28.8031326,44.58775],[28.8027574,44.5878194],[28.8024215,44.5877184],[28.8021851,44.5876968],[28.8021149,44.5877442],[28.8018376,44.5876824],[28.8016315,44.5875515],[28.8014719,44.5875716],[28.8014012,44.5874939],[28.8013264,44.5874608],[28.8013446,44.5873774],[28.801183,44.5872925],[28.8010577,44.5873241],[28.8009335,44.5872313],[28.8007163,44.5872275],[28.8006234,44.5873112],[28.8003869,44.5873201],[28.7999786,44.5872251],[28.7998745,44.5872641],[28.799595,44.5872277],[28.7993283,44.587222],[28.7991606,44.5873198],[28.7990515,44.5872982],[28.798935,44.5873358],[28.7988455,44.5873443],[28.7987384,44.5872882],[28.7986151,44.5873889],[28.7985465,44.5873774],[28.7984495,44.5873011],[28.7984475,44.5873371],[28.7983343,44.5873918],[28.7981813,44.5873574],[28.7980616,44.5872479],[28.7979121,44.5873011],[28.7977767,44.5872695],[28.7976858,44.58735],[28.7972454,44.5873385],[28.7972676,44.5872752],[28.7971789,44.5872596],[28.7970958,44.5872925],[28.7970623,44.5874841],[28.7968878,44.5874997],[28.7967362,44.5875831],[28.7963907,44.5875731],[28.7960776,44.5876191],[28.7957685,44.5876033],[28.795621,44.5876551],[28.7954964,44.5875838],[28.7952957,44.5876709],[28.795025,44.5876968],[28.7949462,44.5877687],[28.7947886,44.5877213],[28.7946068,44.5878033],[28.7943066,44.5877875],[28.7940742,44.5879279],[28.7933865,44.5879213],[28.7932269,44.5879975],[28.7929802,44.5879165],[28.7928632,44.5879659],[28.7929299,44.5880249],[28.7929178,44.5880824],[28.7927844,44.5881241],[28.7921824,44.5882018],[28.7921036,44.5881313],[28.792047,44.5881572],[28.7920077,44.5882148],[28.791746,44.5882263],[28.791645,44.5882925],[28.7916409,44.5884306],[28.7917116,44.5885716],[28.791651,44.5886493],[28.7915601,44.5886637],[28.7914688,44.5887425],[28.7911237,44.5886263],[28.7910106,44.5884853],[28.7910873,44.5884018],[28.7910005,44.5882551],[28.7909358,44.5882666],[28.790952,44.5883126],[28.7908612,44.5883617],[28.7906429,44.5883549],[28.7899332,44.5876707],[28.7898108,44.5876482],[28.7896083,44.5875242],[28.7894557,44.587356],[28.789211,44.5872464],[28.7892032,44.5870553],[28.7889901,44.5870749],[28.7887888,44.5868473],[28.7886507,44.5864089],[28.7886783,44.5860548],[28.7886626,44.5855798],[28.7884653,44.5857204],[28.7885244,44.586066],[28.7884653,44.5862656],[28.7882956,44.5865129],[28.7882482,44.5868642],[28.7881456,44.5869681],[28.7876445,44.5870665],[28.7877019,44.5869697],[28.7873389,44.5869893],[28.7780374,44.5936266],[28.778584,44.5940202],[28.778889,44.5939404],[28.7793408,44.5941772],[28.7797196,44.5943005],[28.7798057,44.594265],[28.7803836,44.5944552],[28.7803882,44.5945282],[28.7807533,44.5945888],[28.7809726,44.5945181],[28.7813089,44.5946048],[28.7816345,44.5946149],[28.7821647,44.594876],[28.7824943,44.5949399],[28.7828368,44.5952046],[28.7829076,44.5953563],[28.7830563,44.5956002],[28.7830205,44.5957565],[28.7831976,44.5957706],[28.7833565,44.5959607],[28.7833073,44.5962798],[28.7831682,44.5963639],[28.7833655,44.5965159],[28.7833565,44.5966116],[28.7838404,44.5968541],[28.7838136,44.5970838],[28.78399,44.5971434],[28.7841412,44.5972836],[28.784102,44.597381],[28.7843776,44.5974503],[28.7845591,44.5976573],[28.7845624,44.5978657],[28.7847498,44.5978914],[28.7848189,44.5980951],[28.7850162,44.5981326],[28.7850721,44.5980483],[28.7852365,44.5979476],[28.7854867,44.597889],[28.7859468,44.5979734],[28.7860313,44.598117],[28.7866736,44.5982965],[28.7870328,44.5984643],[28.7870781,44.5985354],[28.7873693,44.5985697],[28.787716,44.598711],[28.7878603,44.5990003],[28.7877917,44.5991114],[28.7879068,44.5991559],[28.7882244,44.5991068],[28.7884264,44.5992589],[28.7885809,44.5994358],[28.7886467,44.5995399],[28.7885086,44.5996593],[28.7886006,44.5997436],[28.7885487,44.5998045],[28.7887552,44.5999075],[28.7890577,44.6001042],[28.7890249,44.6002259],[28.7891564,44.6002517],[28.7893833,44.6000597],[28.7898568,44.6001229],[28.7900673,44.6003617],[28.7899719,44.6005022],[28.7900772,44.6005935],[28.7900189,44.6006505],[28.7900459,44.6006882],[28.791191,44.6010072],[28.7912987,44.6009288],[28.7917214,44.6010618],[28.791893,44.6008981],[28.7923154,44.600771],[28.7926083,44.6008003],[28.7928007,44.6009461],[28.7933611,44.601008],[28.7935332,44.6011186],[28.7938261,44.6011406],[28.794128,44.6013094],[28.7942782,44.6013328],[28.7944272,44.6016747],[28.7957386,44.6021797],[28.7959649,44.6023668],[28.7963608,44.6023774],[28.7964623,44.6022136],[28.7966418,44.6020442],[28.7968936,44.6019381],[28.7972481,44.6018393],[28.7973612,44.6018979],[28.7977582,44.6018189],[28.7978288,44.6019235],[28.7980343,44.6018649],[28.7980446,44.6022308],[28.7982141,44.6024357],[28.7979058,44.603032],[28.7979779,44.6031607],[28.7984238,44.6034409],[28.798889,44.6035567],[28.7998195,44.6036731],[28.8001202,44.6033089],[28.8004204,44.6030142],[28.8008508,44.6028522],[28.8012139,44.6027416],[28.8014204,44.6027649],[28.801735,44.602687],[28.8024429,44.6027283],[28.8030199,44.6028296],[28.803666,44.6029665],[28.8041077,44.6031234],[28.8049154,44.6031777],[28.8052587,44.603299],[28.8056626,44.6033152],[28.8058958,44.6034381],[28.8060981,44.603897],[28.8060654,44.6039832],[28.8063449,44.6043061],[28.8061528,44.6045868],[28.8060346,44.6045685],[28.8058547,44.6046124],[28.8059318,44.6047697],[28.8057571,44.6051172],[28.8054547,44.605149],[28.8055532,44.6054943],[28.8054385,44.6057464],[28.8055212,44.6058849],[28.8057838,44.6060158],[28.8059678,44.6066829],[28.8061258,44.6067554],[28.8059911,44.6068648],[28.8060543,44.6068947],[28.8061995,44.6068168],[28.8064148,44.6069353],[28.8068093,44.607069],[28.8073772,44.6073162],[28.8079511,44.6074627],[28.8085194,44.6074888],[28.8090317,44.6074478],[28.809268,44.6074012],[28.8097521,44.6074327],[28.8098981,44.6075657],[28.8102278,44.6075031],[28.811001,44.6076855],[28.8113979,44.6073967],[28.8117264,44.6073138],[28.812857,44.6072748],[28.8134073,44.6074506],[28.8137644,44.6076126],[28.8140316,44.6079492],[28.814567,44.6079549],[28.815199,44.6077969],[28.8158884,44.6077418],[28.8160058,44.6077821],[28.8160332,44.607848],[28.8161069,44.6077731],[28.8163727,44.6077489],[28.8169502,44.6078644],[28.8170855,44.6079574],[28.8171465,44.6080683],[28.8176453,44.6080264],[28.8178053,44.6080533],[28.8179705,44.6081608],[28.8184836,44.608271],[28.818523,44.608371],[28.8189965,44.6085313],[28.8191838,44.6086871],[28.8191417,44.6087815],[28.8191965,44.6088444],[28.8192456,44.6088275],[28.8193711,44.6087351],[28.8195627,44.6087081],[28.8196237,44.6087501],[28.8199015,44.6087021],[28.8204516,44.6088142],[28.8206297,44.6089104],[28.8207497,44.6088759],[28.8213221,44.6092625],[28.8213474,44.6094528],[28.8212548,44.6095232],[28.820991,44.6095042],[28.8209739,44.6095351],[28.8210742,44.6095558],[28.8210873,44.6097245],[28.8212985,44.6098422],[28.8214981,44.6102266],[28.8217554,44.6108299],[28.8216431,44.6111154],[28.8209639,44.6113465],[28.820784,44.6113027],[28.8207593,44.6112412],[28.8196821,44.6111544],[28.8192391,44.6109076],[28.8191151,44.6103838],[28.819222,44.6102141],[28.8193494,44.6101585],[28.8190452,44.6100648],[28.8189137,44.6101965],[28.8187451,44.6102492],[28.8185996,44.6101836],[28.8185207,44.6102328],[28.8186341,44.610375],[28.818367,44.6105594],[28.8182792,44.6107795],[28.8177943,44.6109443],[28.81735,44.6110217],[28.8163894,44.6108925],[28.8156248,44.6105741],[28.8153539,44.6103545],[28.8152717,44.6100994],[28.8146551,44.6103701],[28.8141338,44.6104083],[28.8138445,44.6103358],[28.8133492,44.6101416],[28.8132196,44.6102422],[28.8130256,44.6102749],[28.8128349,44.6102351],[28.8127757,44.6101766],[28.8125455,44.6102375],[28.8118765,44.610143],[28.8117596,44.6100338],[28.8116609,44.6100853],[28.8115063,44.6100174],[28.811286,44.609788],[28.811062,44.6097381],[28.8110788,44.6095469],[28.8108749,44.6095469],[28.8107796,44.6097201],[28.8096217,44.6098505],[28.8093165,44.6097566],[28.8093129,44.6096171],[28.8092577,44.6095141],[28.8091919,44.6094935],[28.8091189,44.6095984],[28.8086798,44.6096342],[28.8081685,44.6094823],[28.8077249,44.6094291],[28.8067111,44.6088024],[28.8065453,44.6087537],[28.8063626,44.608802],[28.8058482,44.6086713],[28.8057561,44.6086975],[28.8057193,44.6086207],[28.8055877,44.6086057],[28.8054294,44.6087283],[28.8052668,44.60869],[28.8052194,44.6087425],[28.8048853,44.6086769],[28.8047898,44.608734],[28.804175,44.6084746],[28.8039202,44.6086976],[28.8045808,44.6088781],[28.8047564,44.6090421],[28.8048827,44.6092687],[28.8051247,44.6094579],[28.8051826,44.6096321],[28.8055721,44.6098],[28.8058245,44.6099655],[28.8060955,44.610016],[28.8063691,44.6102314],[28.8065284,44.61019],[28.80689,44.6103063],[28.8070952,44.6104505],[28.8072372,44.6106509],[28.8073951,44.6107052],[28.8075577,44.6108982],[28.8076529,44.6109038],[28.8079002,44.6110311],[28.808158,44.6110667],[28.8083426,44.6111396],[28.8083685,44.6111959],[28.8085263,44.6112502],[28.8090209,44.6112315],[28.8094234,44.6113289],[28.8098862,44.6115148],[28.8099811,44.6116754],[28.8101153,44.6116735],[28.810281,44.6119057],[28.8101682,44.6120224],[28.8103735,44.6120401],[28.8103896,44.612134],[28.8105812,44.6121341],[28.810707,44.6123427],[28.8107743,44.6125226],[28.8107312,44.6125246],[28.8107931,44.6128271],[28.8109404,44.6129699],[28.8109572,44.6131928],[28.8111374,44.6132387],[28.8111643,44.6133038],[28.8113418,44.6133115],[28.8116027,44.6133632],[28.8118259,44.6135278],[28.8119956,44.6135363],[28.8120814,44.6137423],[28.8123218,44.6137424],[28.8129367,44.6141482],[28.8130121,44.6144813],[28.8132864,44.6145081],[28.8135276,44.6147081],[28.8136818,44.61487],[28.8136979,44.6150787],[28.8138324,44.6152223],[28.8142885,44.6153228],[28.8144349,44.6154329],[28.814521,44.6153563],[28.8148491,44.6154942],[28.8150078,44.6156339],[28.8150132,44.6157143],[28.8151423,44.6157507],[28.8152319,44.6158942],[28.8152525,44.6161241],[28.8151191,44.6162508],[28.8150454,44.6162619],[28.8150535,44.6163404],[28.8149432,44.6164304],[28.8148464,44.6164572],[28.8147334,44.61644],[28.8147388,44.6165261],[28.8152176,44.6168995],[28.8157259,44.6172173],[28.8161328,44.6169645],[28.816471,44.6168861],[28.8165839,44.6169837],[28.8167265,44.6168899],[28.8169712,44.6169263],[28.8170842,44.6170067],[28.8172025,44.6169301],[28.8174312,44.6172135],[28.8175952,44.6172403],[28.8177227,44.617354],[28.8178023,44.61756],[28.8177163,44.6176576],[28.8178481,44.6176768],[28.8178965,44.6176136],[28.8181762,44.6176768],[28.8183537,44.6178338],[28.8184882,44.617851],[28.8188412,44.6180596],[28.8190982,44.6182923],[28.8191122,44.618523],[28.8190396,44.6186321],[28.8188917,44.61868],[28.8187805,44.6186725],[28.8188792,44.6187895],[28.8197962,44.6192362],[28.820001,44.61929],[28.8199855,44.6191846],[28.8200509,44.619105],[28.8202798,44.6190976],[28.8206396,44.6193243],[28.8208186,44.6191442],[28.8209264,44.6191458],[28.8211027,44.6192116],[28.8212696,44.6191295],[28.8213919,44.6191871],[28.8214452,44.6191099],[28.8215726,44.6191136],[28.8218596,44.6191901],[28.8218596,44.6192195],[28.8219849,44.6192126],[28.8221505,44.6192583],[28.8221832,44.6193185],[28.8221169,44.6193799],[28.8223315,44.6193842],[28.8225578,44.6197194],[28.8225151,44.6199399],[28.8224076,44.6200436],[28.8225371,44.6201105],[28.8225316,44.6201448],[28.8225908,44.6201556],[28.8226225,44.6201056],[28.8229158,44.6200017],[28.8232912,44.6201191],[28.8233032,44.6202422],[28.8234994,44.6203819],[28.8231033,44.6208175],[28.823741,44.6211034],[28.8238619,44.6208884],[28.8245332,44.6208406],[28.8247463,44.6209679],[28.8246608,44.621156],[28.8248756,44.6212802],[28.8247176,44.6214478],[28.8250837,44.6216147],[28.8252289,44.6215262],[28.8257886,44.6216243],[28.8261182,44.6217906],[28.8259565,44.6219444],[28.8261606,44.6219817],[28.8262814,44.62191],[28.8268762,44.6221547],[28.826848,44.6223257],[28.8271649,44.6224366],[28.8273153,44.6223181],[28.827645,44.6224027],[28.8278577,44.6225551],[28.828137,44.6225857],[28.8283626,44.6225475],[28.8284362,44.6226427],[28.8286204,44.6227424],[28.8286365,44.622838],[28.8288889,44.6229871],[28.8290992,44.6230286],[28.8294636,44.6232929],[28.8294719,44.6234737],[28.8292488,44.6236484],[28.8291682,44.623763],[28.8295388,44.624],[28.8298395,44.623893],[28.8305861,44.6239389],[28.8310221,44.624165],[28.8314113,44.6244204],[28.831773,44.6245696],[28.8321758,44.6245543],[28.8325464,44.6246422],[28.8329292,44.6248065],[28.8332768,44.6251315],[28.833489,44.62574],[28.8335522,44.6257934],[28.833621,44.6257322],[28.833787,44.6257316],[28.8339666,44.6257925],[28.8340644,44.6258717],[28.8341366,44.6258545],[28.8345121,44.6259533],[28.8348657,44.6261477],[28.834989,44.6264466],[28.8350323,44.6266357],[28.8349718,44.6267768],[28.834989,44.6268526],[28.8352468,44.6270704],[28.8352915,44.6271853],[28.8356833,44.6272587],[28.8359723,44.6274627],[28.836498,44.6277651],[28.8364911,44.6278409],[28.8366527,44.6279192],[28.8368136,44.6279084],[28.8370961,44.6280929],[28.837347,44.6281981],[28.8374865,44.6281615],[28.8378866,44.6282275],[28.8381101,44.6283693],[28.8382063,44.6284696],[28.8380983,44.6287319],[28.8378832,44.6291277],[28.8376873,44.6294139],[28.8374639,44.6296047],[28.8371751,44.6298591],[28.8366939,44.6307275],[28.8359936,44.6320833],[28.8358258,44.6326327],[28.8352048,44.6334926],[28.834953,44.6341973],[28.8346761,44.6344182],[28.8344831,44.6347228],[28.8346798,44.6349117],[28.8347388,44.6349841],[28.8347044,44.6350819],[28.8349789,44.6351908],[28.8353967,44.634934],[28.835625,44.6347333],[28.8356518,44.6344276],[28.8358667,44.6338543],[28.8362225,44.6329514],[28.8366588,44.6324163],[28.8371489,44.631327],[28.8374309,44.6309687],[28.8373638,44.6308302],[28.8376122,44.6305722],[28.8375786,44.6304623],[28.8378471,44.6299511],[28.8381761,44.6293969],[28.8384648,44.6291962],[28.83874,44.6291914],[28.8390085,44.6293634],[28.8390679,44.6295331],[28.8394046,44.6295832],[28.8397202,44.6298937],[28.8399686,44.6300323],[28.839954,44.630338],[28.8400827,44.6305053],[28.8410167,44.6308637],[28.8413571,44.6314307],[28.8413336,44.6316537],[28.8417275,44.6319338],[28.8417006,44.6320723],[28.8421236,44.6323638],[28.8423116,44.6322921],[28.8427748,44.632488],[28.8427211,44.6327077],[28.8429158,44.6329371],[28.8438422,44.6331807],[28.8441913,44.6334817],[28.844668,44.6335772],[28.8445673,44.6338878],[28.8447553,44.6340406],[28.845252,44.634055],[28.845628,44.6341792],[28.8461114,44.6343416],[28.846541,44.6347429],[28.8472124,44.6348337],[28.8476085,44.6351872],[28.8475381,44.6353709],[28.8474099,44.6353673],[28.8473553,44.6354048],[28.8474363,44.6354737],[28.847549,44.6355031],[28.8476496,44.6356075],[28.847732,44.6356903],[28.8479431,44.6356878],[28.8479607,44.6357505],[28.848135,44.635753],[28.848353,44.635885],[28.848717,44.63605],[28.8490251,44.6362463],[28.8489297,44.6363561],[28.8491073,44.6364098],[28.8492787,44.6363692],[28.8495598,44.6364692],[28.8498151,44.6363994],[28.850253,44.636606],[28.850282,44.6367778],[28.8502846,44.636985],[28.8501836,44.6370569],[28.8499859,44.6370006],[28.8498321,44.6370444],[28.8498234,44.6372788],[28.8497399,44.6373632],[28.8494895,44.6373819],[28.8492567,44.6375351],[28.8489931,44.6376508],[28.8485583,44.6379852],[28.8486505,44.6382853],[28.8490283,44.6383634],[28.8498234,44.6381102],[28.8500254,44.6377258],[28.8502319,44.6375695],[28.8506887,44.637507],[28.8505877,44.6373788],[28.8507634,44.6371288],[28.8509303,44.6370569],[28.8513005,44.6370825],[28.8515,44.636954],[28.8517208,44.6369674],[28.8516849,44.6370595],[28.8519615,44.6371208],[28.8521642,44.6370256],[28.8523675,44.6370441],[28.8525795,44.6372972],[28.8533783,44.6372773],[28.8536779,44.6373741],[28.8538405,44.6373177],[28.8541922,44.6373954],[28.8544369,44.6377242],[28.854998,44.6380022],[28.8549579,44.6383096],[28.854886,44.638376],[28.8550118,44.6384681],[28.8549327,44.6385754],[28.8551625,44.6387353],[28.8551072,44.6388359],[28.8552776,44.6388771],[28.8553423,44.6389717],[28.8552704,44.6390765],[28.8551123,44.6391276],[28.854821,44.639141],[28.8545052,44.6391813],[28.8543327,44.6392606],[28.8541064,44.6392606],[28.85411,44.6393219],[28.8543687,44.6394318],[28.8542995,44.6397291],[28.8540058,44.6399457],[28.8534238,44.6400939],[28.8532613,44.6399508],[28.8530357,44.6400709],[28.8519807,44.6400404],[28.8514657,44.6400939],[28.8514094,44.6402744],[28.8517028,44.6403547],[28.851825,44.6404467],[28.851807,44.640572],[28.8519795,44.6407381],[28.8517927,44.6409554],[28.851613,44.6410321],[28.8514873,44.6411369],[28.8515052,44.6412596],[28.8517352,44.6413159],[28.8521555,44.6416661],[28.8522237,44.6418624],[28.8525759,44.6419038],[28.8526226,44.6420316],[28.8528096,44.6420769],[28.8528058,44.6421646],[28.8529639,44.6421978],[28.8531435,44.642093],[28.8534238,44.6421697],[28.8534291,44.6423358],[28.8535703,44.6423594],[28.8540073,44.6426114],[28.8540827,44.6427374],[28.8540195,44.6428798],[28.8543728,44.6430698],[28.8544011,44.6431679],[28.8546139,44.6433003],[28.8548098,44.6433405],[28.8548513,44.643421],[28.8549417,44.6434746],[28.855051,44.6434692],[28.8552672,44.6435943],[28.8552846,44.6436595],[28.8554692,44.6437534],[28.8556726,44.6438311],[28.8560683,44.6440643],[28.8561908,44.644088],[28.8563697,44.6442386],[28.8565555,44.6442934],[28.856931,44.6445013],[28.8574085,44.6446989],[28.8573982,44.6447586],[28.857711,44.6448363],[28.8579393,44.6449388],[28.8581066,44.6450347],[28.8580915,44.6450776],[28.8585248,44.6452905],[28.8587508,44.6455413],[28.8589694,44.6456727],[28.8591445,44.6456367],[28.8593047,44.6457022],[28.8592821,44.6457477],[28.8595006,44.6458845],[28.8595948,44.645981],[28.8599042,44.6460125],[28.8601524,44.6461686],[28.8602993,44.6461847],[28.8607981,44.6464259],[28.8608135,44.646501],[28.8609196,44.6465463],[28.8610913,44.6465779],[28.8611434,44.6466465],[28.8612688,44.6466561],[28.8613363,44.6466918],[28.861386,44.646787],[28.8615697,44.6468798],[28.8616526,44.6469718],[28.8617761,44.6470253],[28.8619905,44.6470583],[28.8621002,44.6471955],[28.8619996,44.6472523],[28.8624976,44.6475152],[28.8632132,44.6478103],[28.8634816,44.6478334],[28.8637476,44.6479626],[28.8638201,44.6480849],[28.8640254,44.6481548],[28.8640096,44.6482846],[28.8639154,44.6483346],[28.8640312,44.6484924],[28.8639906,44.6485679],[28.8640948,44.6486173],[28.8640987,44.6487326],[28.8643315,44.6487853],[28.8643707,44.6488533],[28.8644768,44.6488918],[28.8645713,44.648808],[28.8648414,44.6488437],[28.8649417,44.6489247],[28.8651114,44.6489864],[28.8652002,44.6489686],[28.8653391,44.6490262],[28.8657127,44.6490671],[28.8658483,44.6492554],[28.8659891,44.6492567],[28.8660972,44.6494201],[28.8663374,44.6493823],[28.866571,44.6493918],[28.8667783,44.6495339],[28.8670866,44.6496025],[28.8671739,44.6497349],[28.86714,44.6497912],[28.8671965,44.6498877],[28.8673096,44.6499598],[28.8674188,44.6499118],[28.8676825,44.650027],[28.8677456,44.6501629],[28.8675913,44.6503331],[28.8676549,44.6503893],[28.8677999,44.6503561],[28.8682587,44.6505883],[28.8686214,44.6508203],[28.8688033,44.6508735],[28.8688625,44.650963],[28.8693679,44.6510906],[28.8693787,44.6512273],[28.8699133,44.651488],[28.8699827,44.6514043],[28.8701293,44.6514002],[28.8702393,44.6515072],[28.8702238,44.6515951],[28.8703661,44.6517341],[28.870415,44.651971],[28.8699856,44.6521743],[28.869739,44.6520414],[28.8690699,44.6518291],[28.8687474,44.651827],[28.8681476,44.651501],[28.8679074,44.6514994],[28.8676494,44.6512781],[28.8665643,44.6511358],[28.8663014,44.6510277],[28.8661977,44.651074],[28.8662556,44.651122],[28.8661464,44.6512906],[28.8659141,44.6514045],[28.8658122,44.6514024],[28.8657453,44.6514624],[28.8658086,44.6515546],[28.8659713,44.6515632],[28.8660467,44.6516576],[28.8662728,44.651649],[28.8664868,44.6517712],[28.8666405,44.6516854],[28.8668093,44.6516897],[28.8670203,44.6518355],[28.8680692,44.6521014],[28.8680782,44.6521893],[28.8683616,44.6523073],[28.868449,44.652288],[28.8686811,44.6523952],[28.8687202,44.6525303],[28.8693221,44.6527713],[28.8696304,44.6526427],[28.8699836,44.6526175],[28.8702875,44.6526589],[28.8703719,44.6525517],[28.870396,44.652393],[28.8709536,44.6518698],[28.8712641,44.6518805],[28.8715052,44.6519384],[28.8716559,44.6520821],[28.8717313,44.6522751],[28.871466,44.6523844],[28.8712912,44.6523544],[28.8713846,44.6526224],[28.8715715,44.6527382],[28.8712349,44.6527274],[28.871571,44.6529774],[28.8711797,44.6530792],[28.8712279,44.6533793],[28.8711224,44.6534244],[28.8711625,44.6535059],[28.871237,44.6534865],[28.8713033,44.6535466],[28.8712489,44.6536025],[28.8713925,44.6537881],[28.8715344,44.6539011],[28.8716502,44.6539264],[28.8717983,44.6540647],[28.8719777,44.6540183],[28.8722626,44.654234],[28.8723126,44.6543902],[28.8724573,44.654531],[28.8725438,44.6545427],[28.8726386,44.6546348],[28.8727828,44.6546711],[28.8729151,44.6547891],[28.8730501,44.654822],[28.87309,44.6548722],[28.8730386,44.6549044],[28.8731557,44.6549703],[28.8732302,44.655053],[28.8734732,44.6551943],[28.8734134,44.6552451],[28.8734964,44.6553905],[28.8737163,44.655455],[28.8737568,44.6554221],[28.8738147,44.6554386],[28.8738171,44.6554728],[28.8738552,44.6554838],[28.8739175,44.6554417],[28.8739224,44.655383],[28.8746314,44.6557433],[28.8750562,44.6557959],[28.8754035,44.6558595],[28.8760262,44.6560753],[28.8757748,44.6558067],[28.8760631,44.6556146],[28.8761488,44.6550937],[28.8771106,44.6551643],[28.8772754,44.6550133],[28.8778489,44.6554523],[28.8778943,44.6551084],[28.8784454,44.6552122],[28.8787844,44.6554132],[28.8791587,44.6559043],[28.8788084,44.6562748],[28.8786648,44.6564444],[28.8787393,44.6567449],[28.8791075,44.6571092],[28.8790642,44.6572139],[28.8793976,44.6572586],[28.880381,44.6572291],[28.8810626,44.6573214],[28.8806965,44.6564418],[28.8811364,44.6563964],[28.8809697,44.6560263],[28.8814218,44.6559794],[28.8817977,44.6559837],[28.8822293,44.6559946],[28.8826381,44.6562621],[28.8828488,44.6564653],[28.8828535,44.6569108],[28.8825614,44.6571914],[28.8820435,44.6573731],[28.8819163,44.6574837],[28.8817326,44.6574234],[28.8817421,44.6579058],[28.8820011,44.6579996],[28.8821047,44.658224],[28.8823543,44.6582274],[28.882541,44.658364],[28.8825239,44.6585691],[28.8827923,44.6586866],[28.8830044,44.658849],[28.8831974,44.6588523],[28.8835584,44.6590511],[28.8835554,44.6593146],[28.8832398,44.6594687],[28.8832304,44.6595424],[28.8827109,44.6595084],[28.8821595,44.6592483],[28.88194,44.6592912],[28.8819639,44.6593655],[28.8820719,44.6594285],[28.8820389,44.6595792],[28.8820342,44.6598238],[28.8821451,44.6598164],[28.8822868,44.6599004],[28.8823009,44.6604632],[28.8821273,44.6605402],[28.8822906,44.6608269],[28.8824751,44.6609249],[28.8826061,44.6608537],[28.8827851,44.6608637],[28.8829122,44.6609508],[28.8829253,44.6610911],[28.8830286,44.6611246],[28.8831807,44.6610647],[28.8834397,44.6611351],[28.8834988,44.6613287],[28.8834168,44.6613664],[28.8834804,44.6614061],[28.8835688,44.6613372],[28.8836556,44.661351],[28.8837038,44.661399],[28.8836194,44.6614899],[28.8841378,44.6616219],[28.8841933,44.6615636],[28.8842608,44.6615825],[28.8842391,44.661634],[28.8845364,44.6617074],[28.8849724,44.6618394],[28.8851626,44.6618226],[28.8858385,44.6620052],[28.8858667,44.6619324],[28.8859921,44.6619221],[28.8860838,44.661977],[28.886173,44.6619598],[28.8862598,44.6619821],[28.8862618,44.6621073],[28.8865154,44.6621605],[28.8866311,44.662248],[28.8869084,44.6621605],[28.8870786,44.6622016],[28.8872412,44.6623474],[28.8872436,44.6624606],[28.8874895,44.6624726],[28.8876101,44.6624298],[28.8877138,44.6624915],[28.8877114,44.6625772],[28.8880199,44.662683],[28.8880538,44.6626441],[28.8882588,44.6626819],[28.8882357,44.6627801],[28.8892287,44.6631855],[28.8898387,44.663354],[28.8900576,44.663397],[28.8901589,44.6633542],[28.8903421,44.6634073],[28.8903204,44.6634742],[28.8905374,44.6635685],[28.8906463,44.6634338],[28.8908557,44.6634348],[28.8910197,44.6635068],[28.8909546,44.6635788],[28.891215,44.6636097],[28.8915507,44.6637216],[28.8915285,44.6637606],[28.8918106,44.6639098],[28.8919746,44.6638893],[28.8921289,44.6640196],[28.8924014,44.6639184],[28.892522,44.6639801],[28.8926618,44.6639356],[28.8928306,44.6640162],[28.8929588,44.66412],[28.8931947,44.6642391],[28.8933008,44.6643575],[28.8934792,44.664378],[28.8935805,44.6643352],[28.8936456,44.664402],[28.893595,44.6645084],[28.8937517,44.6646078],[28.8937975,44.6647245],[28.8937713,44.6648095],[28.8930621,44.6648359],[28.8928306,44.6647965],[28.8926956,44.6649354],[28.8923986,44.6649088],[28.8922495,44.6647588],[28.8914873,44.6646402],[28.891297,44.6647879],[28.8910315,44.664784],[28.8906411,44.6647073],[28.8900454,44.6645122],[28.8898864,44.6643232],[28.8897948,44.6643489],[28.889679,44.6642786],[28.8893293,44.6645853],[28.8887263,44.6645963],[28.8883624,44.6644758],[28.8882222,44.6645214],[28.8880369,44.6644261],[28.8879573,44.6644466],[28.8877958,44.6643403],[28.8878006,44.6642906],[28.8876559,44.6642666],[28.8875786,44.6643562],[28.8872971,44.6644147],[28.887132,44.664355],[28.8870121,44.664414],[28.8864688,44.6644293],[28.886231,44.6644765],[28.8858696,44.6643483],[28.8855473,44.6645173],[28.8861038,44.6648215],[28.8864163,44.6650183],[28.8869798,44.6649789],[28.8875638,44.665478],[28.8873471,44.6657527],[28.8879735,44.6659436],[28.8881619,44.6661747],[28.8880767,44.6664005],[28.8883927,44.6664326],[28.8889359,44.6666773],[28.8890426,44.6668078],[28.8895933,44.6668808],[28.890088,44.666817],[28.8901305,44.6669016],[28.8903754,44.6668882],[28.8905544,44.6669183],[28.8907286,44.6669987],[28.8910159,44.6669618],[28.8911787,44.6669886],[28.8914115,44.6670221],[28.8915365,44.6671544],[28.891856,44.6672218],[28.8919484,44.667136],[28.8922536,44.6673128],[28.8923063,44.667471],[28.8925324,44.6675714],[28.8929328,44.6676118],[28.8933527,44.6677204],[28.8934366,44.6676853],[28.8935197,44.6677315],[28.8935004,44.6677676],[28.8939879,44.6678884],[28.8948873,44.6680828],[28.8947996,44.6684291],[28.8950243,44.6685907],[28.8952468,44.6686219],[28.8952992,44.6687862],[28.8949014,44.6688291],[28.8948917,44.6689491],[28.894829,44.6690091],[28.8949303,44.6690486],[28.8950436,44.66916],[28.8953269,44.6691271],[28.8955741,44.6692458],[28.8956509,44.6693904],[28.8957815,44.6693298],[28.8960178,44.6695459],[28.8961263,44.6696282],[28.8963747,44.6695922],[28.89651,44.6697546],[28.896478,44.6704029],[28.8961465,44.6704752],[28.8964152,44.6705713],[28.896576,44.6707083],[28.8968737,44.6707137],[28.8970733,44.6708852],[28.8970018,44.671046],[28.8969151,44.6710621],[28.8969113,44.6711505],[28.8967795,44.6713113],[28.8967845,44.67144],[28.8969791,44.6714372],[28.8972881,44.6720106],[28.8971579,44.6721217],[28.897351,44.672182],[28.8975111,44.6721318],[28.8977231,44.6723461],[28.8981749,44.672417],[28.8983353,44.6726911],[28.8985527,44.6727646],[28.8985124,44.6728676],[28.8988264,44.6729706],[28.8989753,44.6728103],[28.899162,44.6728069],[28.899426,44.6730078],[28.8993569,44.6731659],[28.8999049,44.6733713],[28.9005328,44.6734457],[28.9010962,44.6736947],[28.901063,44.6738499],[28.9014664,44.6740582],[28.9016154,44.6739179],[28.9018343,44.674072],[28.9017965,44.6741698],[28.9021104,44.674247],[28.9022029,44.6741068],[28.9023398,44.674124],[28.9024766,44.6743043],[28.9028952,44.6742842],[28.9036488,44.6746365],[28.9033821,44.6747765],[28.9033861,44.674931],[28.9036719,44.6749768],[28.9039559,44.6747575],[28.9049195,44.6749682],[28.9051368,44.6749139],[28.9054024,44.6749625],[28.9055528,44.6750798],[28.9066017,44.675366],[28.9067104,44.6758325],[28.9068366,44.6758621],[28.9070766,44.6757953],[28.9072416,44.6760214],[28.9076101,44.6761526],[28.9081955,44.6762303],[28.9088192,44.6764015],[28.9090929,44.6762933],[28.9099154,44.6766858],[28.9101232,44.6771031],[28.9108235,44.6772892],[28.9111012,44.6772348],[28.9114473,44.6774437],[28.9117986,44.6772849],[28.9121073,44.6773492],[28.9121314,44.6774666],[28.9124237,44.6773635],[28.9126466,44.6774237],[28.9128559,44.6776555],[28.9128196,44.6778644],[28.9131014,44.6778987],[28.9133509,44.6777957],[28.9139425,44.6780618],[28.9144069,44.6780352],[28.9148456,44.6782354],[28.9154316,44.6784167],[28.9157714,44.6782429],[28.9163262,44.6781106],[28.917193,44.6780448],[28.9181194,44.6782451],[28.9185506,44.6784939],[28.9187744,44.6787613],[28.9189374,44.6794493],[28.9195205,44.6795098],[28.9197895,44.6799169],[28.9206125,44.6802211],[28.9214267,44.6801376],[28.9219699,44.6801664],[28.9225163,44.6803443],[28.9229099,44.6803098],[28.9235011,44.6804675],[28.9238388,44.6806974],[28.9246891,44.6803897],[28.925348,44.6804198],[28.9256062,44.6807095],[28.9261771,44.6809349],[28.9267337,44.6814502],[28.9265845,44.6819861],[28.9258231,44.6820394],[28.9257223,44.6823714],[28.9249403,44.6826606],[28.9244162,44.682519],[28.9241809,44.6820452],[28.9240078,44.6821568],[28.9239112,44.6825173],[28.9234726,44.6828349],[28.9235571,44.6831526],[28.9231278,44.6836962],[28.9229735,44.6837735],[28.923376,44.6838479],[28.9237583,44.6840425],[28.9241044,44.684383],[28.9243499,44.6843544],[28.924857,44.6845404],[28.9261767,44.6846241],[28.9267107,44.6849177],[28.9269256,44.6849266],[28.9270021,44.6850039],[28.9272611,44.6849456],[28.9274327,44.6850354],[28.927638,44.6849953],[28.9280074,44.6850301],[28.9282135,44.68527],[28.9284129,44.6852219],[28.9288735,44.6852786],[28.9293676,44.6856402],[28.9300257,44.6850753],[28.9307431,44.684983],[28.93106,44.6849061],[28.9315297,44.6850239],[28.9317774,44.6849408],[28.9321285,44.6850013],[28.9328197,44.6845916],[28.9329151,44.6843745],[28.933216,44.6844202],[28.9335943,44.6841569],[28.9340973,44.6842113],[28.934541,44.6845436],[28.9348217,44.6842847],[28.9354703,44.6843206],[28.9357715,44.684177],[28.9366702,44.6844765],[28.9380798,44.6860345],[28.9381978,44.6865584],[28.9378047,44.6869705],[28.9369499,44.6872919],[28.9372581,44.6874444],[28.9372376,44.6876868],[28.9370515,44.6878191],[28.937298,44.68793],[28.9375898,44.6879049],[28.9381783,44.688538],[28.9387578,44.6882698],[28.9385959,44.6877369],[28.9387217,44.687111],[28.9390285,44.6866961],[28.9394259,44.6865065],[28.9399491,44.6864421],[28.9398183,44.6861953],[28.9393756,44.6860737],[28.939275,44.6858198],[28.9389631,44.6859807],[28.938611,44.6858341],[28.9384852,44.6854228],[28.9385255,44.6852404],[28.9383594,44.6850329],[28.9382035,44.6850902],[28.9379218,44.6852511],[28.9378312,44.6851152],[28.9375847,44.6850687],[28.9374338,44.6847182],[28.9372125,44.6845823],[28.9377778,44.6841843],[28.9377306,44.6839277],[28.9379419,44.683706],[28.9377256,44.6835057],[28.9376099,44.6835915],[28.9373282,44.6834448],[28.9372024,44.683477],[28.9367094,44.6830764],[28.9368452,44.6828904],[28.9359105,44.6832404],[28.9355158,44.6832278],[28.9348629,44.6830581],[28.9344291,44.6826139],[28.9344658,44.6825158],[28.9342242,44.6825185],[28.9338972,44.6823539],[28.9335401,44.6819819],[28.9336018,44.6815082],[28.9339674,44.681209],[28.9342739,44.6810847],[28.934342,44.6809016],[28.9346212,44.6807793],[28.9347862,44.6804958],[28.9348196,44.6801817],[28.9347444,44.6797935],[28.9352617,44.6793976],[28.9358081,44.679397],[28.9370921,44.6797708],[28.9375021,44.6798025],[28.9376531,44.6796475],[28.9371499,44.6791704],[28.9369496,44.6781785],[28.9368422,44.6772269],[28.936767,44.6760518],[28.936939,44.6758157],[28.9372906,44.6757793],[28.9375176,44.6753165],[28.9382574,44.6755174],[28.9385928,44.6752693],[28.938405,44.6749067],[28.937989,44.6749258],[28.9375596,44.6746491],[28.9370158,44.6747381],[28.936513,44.6746014],[28.9350659,44.6750673],[28.9341225,44.6751559],[28.933587,44.675461],[28.9331718,44.674859],[28.9338427,44.6741052],[28.9345807,44.6738285],[28.9354395,44.6739525],[28.9358689,44.6730746],[28.9341245,44.6730078],[28.9330778,44.6727407],[28.9325675,44.6722873],[28.932729,44.6717986],[28.9342578,44.6714405],[28.9354792,44.6709926],[28.9359328,44.6706677],[28.9362623,44.6706151],[28.936905,44.6702402],[28.9367008,44.6696052],[28.9368528,44.6690694],[28.9371388,44.6685834],[28.9373488,44.6680764],[28.9373792,44.6675695],[28.9379184,44.6675105],[28.9381687,44.6674832],[28.9391479,44.6668355],[28.9392022,44.6667996],[28.9387362,44.6664914],[28.9385513,44.6661891],[28.9386809,44.6656266],[28.9390356,44.6651796],[28.9399379,44.6643433],[28.9409242,44.6643172],[28.9411328,44.6643534],[28.941364,44.6640948],[28.9419007,44.6640057],[28.9418691,44.6633201],[28.9421517,44.6628187],[28.9426771,44.662613],[28.9431374,44.6627401],[28.9436045,44.6630382],[28.9437978,44.6636971],[28.9445105,44.6636378],[28.9449275,44.6634416],[28.946487,44.6636399],[28.9472347,44.6642243],[28.9477722,44.6643484],[28.9488614,44.6641788],[28.9493219,44.6644166],[28.9498263,44.6648291],[28.9498099,44.6649585],[28.9494784,44.6652549],[28.9488504,44.6652171],[28.9487675,44.6653399],[28.9487998,44.6654594],[28.9486916,44.6654839],[28.9485121,44.6654054],[28.9483509,44.665443],[28.9482911,44.6653612],[28.9479367,44.6653382],[28.947985,44.6654839],[28.9477479,44.6654659],[28.9475937,44.665353],[28.9476052,44.6652367],[28.94735,44.6652396],[28.9469424,44.6653366],[28.9468158,44.6653153],[28.9465511,44.6654152],[28.9460793,44.665276],[28.9460977,44.6653661],[28.9457501,44.6653071],[28.9455752,44.6654021],[28.9449929,44.6654086],[28.944774,44.665347],[28.9443439,44.6653513],[28.9437339,44.6653792],[28.9437385,44.665461],[28.943681,44.6654823],[28.9436051,44.6654217],[28.9433933,44.6655363],[28.9430642,44.665628],[28.9428455,44.6656411],[28.94262,44.6655625],[28.9424335,44.6656525],[28.942376,44.6655903],[28.942162,44.6656231],[28.941872,44.6657982],[28.9413782,44.6659053],[28.9411377,44.665959],[28.9409237,44.6662107],[28.940652,44.6663929],[28.9405496,44.6663779],[28.9406084,44.6667034],[28.9404913,44.6667169],[28.9404283,44.6668722],[28.940208,44.6670905],[28.9399429,44.6672477],[28.9398613,44.6673186],[28.9397712,44.6673968],[28.9397706,44.6675432],[28.9396233,44.6676578],[28.9396705,44.6677722],[28.9393591,44.6680702],[28.9393551,44.6682428],[28.9393057,44.6684091],[28.9393506,44.6686424],[28.939472,44.6688534],[28.9395616,44.6689143],[28.9397611,44.6693035],[28.9396743,44.6693618],[28.9398541,44.6695887],[28.9402089,44.6698789],[28.9402901,44.6700938],[28.9403845,44.6701066],[28.9405104,44.6703144],[28.9405334,44.6705208],[28.940653,44.670884],[28.9405341,44.6711725],[28.9406952,44.6718231],[28.9405773,44.6721382],[28.940373,44.6724144],[28.9401239,44.6723673],[28.9401229,44.672449],[28.9403011,44.6724852],[28.9403368,44.6725418],[28.940393,44.6730293],[28.9402169,44.6733842],[28.9402076,44.6737486],[28.9402863,44.6739044],[28.9403368,44.6739564],[28.9404624,44.6741782],[28.9404998,44.6744439],[28.9408654,44.67529],[28.9412129,44.6756944],[28.9410699,44.6762139],[28.9409887,44.6768493],[28.9410083,44.6770529],[28.9413146,44.6773048],[28.941427,44.6774407],[28.9415562,44.6777324],[28.9420511,44.6780308],[28.9429835,44.6782957],[28.9430626,44.6782181],[28.9435229,44.6784196],[28.944232,44.6783877],[28.9442733,44.6785616],[28.9443392,44.6785708],[28.9444275,44.6785832],[28.9449725,44.6785071],[28.9450277,44.6788164],[28.9451635,44.6786904],[28.9453751,44.6786583],[28.9455939,44.6786527],[28.9455824,44.6784825],[28.945686,44.678453],[28.9458011,44.6786102],[28.9460703,44.6786102],[28.9459336,44.6784177],[28.9460174,44.6781765],[28.9462084,44.6781208],[28.9461923,44.6780537],[28.9460703,44.6780953],[28.9459645,44.6780586],[28.9458736,44.6779754],[28.9460253,44.6779195],[28.9459298,44.6776598],[28.9458174,44.6776398],[28.9457949,44.6772283],[28.945986,44.6769486],[28.9463512,44.6768207],[28.9464346,44.6766418],[28.9467952,44.6764451],[28.9469693,44.6761534],[28.9473167,44.6761238],[28.9478684,44.6761685],[28.948155,44.6763252],[28.9483911,44.6765787],[28.9485779,44.6765548],[28.9487795,44.6765291],[28.9489836,44.6765617],[28.9491023,44.6763981],[28.9490267,44.6761807],[28.949219,44.6758268],[28.949526,44.6753422],[28.9499841,44.6749048],[28.9501632,44.675012],[28.9504113,44.6748688],[28.9503429,44.6747705],[28.9505875,44.674521],[28.9508321,44.6745773],[28.9509278,44.6744967],[28.9510047,44.6745492],[28.9510946,44.6745364],[28.9511773,44.674388],[28.9513355,44.674342],[28.9512991,44.6742362],[28.9517707,44.6736924],[28.9515153,44.6734955],[28.9517383,44.6731631],[28.9518968,44.6731358],[28.9521195,44.6727948],[28.9525444,44.6727894],[28.9525079,44.6726823],[28.9523964,44.6726311],[28.9525151,44.6724368],[28.9526446,44.6722935],[28.952569,44.6722143],[28.9527171,44.6718004],[28.9528603,44.6718179],[28.9528675,44.671713],[28.9528999,44.6715596],[28.9530222,44.6715903],[28.9531624,44.67147],[28.9529898,44.6712603],[28.9531157,44.6709534],[28.9532991,44.6707974],[28.95354,44.6708409],[28.9535003,44.6705405],[28.9538889,44.6698997],[28.9541736,44.6698199],[28.9541514,44.6696159],[28.9539932,44.6692962],[28.9541874,44.6690813],[28.9544355,44.6690199],[28.9541907,44.6686258],[28.9543686,44.6680234],[28.9546348,44.668049],[28.9547067,44.6679058],[28.9545441,44.6677742],[28.9546132,44.6675682],[28.9543851,44.6673319],[28.9545973,44.6668357],[28.9548347,44.6667155],[28.9550839,44.6667182],[28.9550236,44.6663768],[28.955131,44.6662331],[28.9551851,44.6659479],[28.9553216,44.665765],[28.9555762,44.6657147],[28.9559375,44.665684],[28.9559269,44.6656167],[28.9556069,44.6655939],[28.9555167,44.6653961],[28.9556373,44.6652243],[28.9554245,44.6648094],[28.9555281,44.6646846],[28.9553795,44.6645938],[28.9551533,44.6647253],[28.9550303,44.6647133],[28.9549699,44.6646498],[28.9548203,44.664658],[28.9547714,44.6645864],[28.9546707,44.6645803],[28.95457,44.6646601],[28.9542881,44.6647092],[28.954062,44.6646342],[28.9541042,44.6642752],[28.9538022,44.664475],[28.9537249,44.6648098],[28.9534825,44.6648442],[28.9529781,44.6647203],[28.9529992,44.6645075],[28.952792,44.6645925],[28.9526914,44.6645434],[28.9526506,44.664415],[28.9521375,44.6642602],[28.9519289,44.6643224],[28.9519635,44.6645189],[28.9518369,44.6645393],[28.9516988,44.664435],[28.9516301,44.6643099],[28.9513369,44.664246],[28.9507398,44.6642552],[28.9503815,44.6643002],[28.9498077,44.6639592],[28.9496728,44.6636655],[28.9500746,44.663231],[28.9506836,44.6630176],[28.9514495,44.6631923],[28.9532954,44.6629953],[28.9565918,44.6625263],[28.9596833,44.6631373],[28.9606165,44.6635255],[28.9614822,44.664097],[28.9628144,44.6639695],[28.9635651,44.6645462],[28.9634426,44.6652244],[28.9631534,44.6654495],[28.9628606,44.6653936],[28.9628213,44.6655446],[28.9627145,44.6655476],[28.9626652,44.6654541],[28.9625462,44.6655388],[28.9626266,44.665607],[28.9623449,44.6662807],[28.9618973,44.6666166],[28.9614004,44.6666078],[28.9612833,44.666941],[28.9611375,44.6670196],[28.9609568,44.6674578],[28.9610662,44.6680093],[28.9604363,44.6683695],[28.9597785,44.6681773],[28.9594478,44.667878],[28.9592635,44.6681401],[28.9594889,44.6684761],[28.9592313,44.6687433],[28.9593601,44.6693158],[28.9602772,44.6692677],[28.9609763,44.6695777],[28.9616095,44.6705997],[28.9619448,44.6712685],[28.9628657,44.671271],[28.9635896,44.6714917],[28.9641692,44.6720147],[28.9645066,44.6726629],[28.9650775,44.6732137],[28.9659519,44.6746871],[28.966309,44.6758622],[28.9660667,44.6769833],[28.9665475,44.677004],[28.9669936,44.6770233],[28.9679801,44.676965],[28.9693761,44.6764089],[28.9695558,44.6763136],[28.9696845,44.6762454],[28.9685974,44.6753454],[28.9684665,44.6747432],[28.9688903,44.6744041],[28.9693603,44.6743707],[28.9694945,44.6748044],[28.9697926,44.6745985],[28.9698814,44.6741959],[28.9698824,44.6740372],[28.9701774,44.6739053],[28.9710374,44.673809],[28.9713711,44.6735672],[28.9716534,44.6737908],[28.9716021,44.6740281],[28.9722438,44.6742699],[28.9725069,44.6747673],[28.9724556,44.6755795],[28.9721219,44.6757985],[28.9716855,44.6758533],[28.9712941,44.6757575],[28.9712748,44.6756571],[28.9710442,44.6755947],[28.9709644,44.6758123],[28.9718512,44.6762297],[28.9722718,44.6766075],[28.9724625,44.6770738],[28.9734268,44.6773392],[28.9735598,44.6774995],[28.9743735,44.6768574],[28.9762694,44.676426],[28.9782769,44.6762235],[28.9780698,44.6757785],[28.9780255,44.6752975],[28.9788449,44.6745853],[28.9801985,44.6746368],[28.9805521,44.6749141],[28.9807974,44.6749039],[28.9813381,44.6742964],[28.9818438,44.6737919],[28.9820279,44.6736083],[28.9822018,44.6733942],[28.9817549,44.6719056],[28.9800268,44.6701899],[28.9734928,44.6634279],[28.9692003,44.6589097],[28.9626612,44.6524452],[28.9623058,44.652155],[28.9577098,44.648026],[28.9547965,44.6452315],[28.9523478,44.6427387],[28.9484113,44.6388063],[28.9460972,44.6364429],[28.9435574,44.6339603],[28.9410739,44.6314827],[28.9398906,44.6303284],[28.9390946,44.6292386],[28.9371715,44.6264443],[28.9362292,44.6251823],[28.9360253,44.6249561],[28.9354369,44.6240306],[28.9344943,44.6227367],[28.9344663,44.6225317],[28.9339153,44.6221505],[28.9338876,44.6220045],[28.9340206,44.6218713],[28.932932,44.6200387],[28.9310362,44.6175414],[28.9299144,44.6160862],[28.9297137,44.6158258],[28.9295386,44.6153664],[28.9291959,44.6154632],[28.9293242,44.6156724],[28.9292024,44.6157116],[28.9289867,44.6154381],[28.9285609,44.6155474],[28.9286453,44.615305],[28.9289671,44.6152061],[28.9293317,44.6149134],[28.9292577,44.6148432],[28.9293748,44.6146108],[28.9293686,44.6144046],[28.9295104,44.6140405],[28.929726,44.6137291],[28.9297322,44.6134308],[28.9295412,44.6129746],[28.9293748,44.6121367],[28.9292454,44.611777],[28.9292207,44.6112901],[28.9290667,44.610869],[28.9287771,44.6108076],[28.9284505,44.6108076],[28.9282533,44.6107286],[28.9281609,44.6104961],[28.9282286,44.610347],[28.9283765,44.6101846],[28.9287154,44.6101759],[28.9284813,44.609746],[28.9284135,44.6097547],[28.9281547,44.6097854],[28.9279822,44.6098556],[28.9278219,44.6100092],[28.9277911,44.6101934],[28.9278219,44.6103777],[28.9278897,44.6105838],[28.9279888,44.6107524],[28.928059,44.6108475],[28.928268,44.6110085],[28.9285121,44.6112028],[28.9284237,44.6114328],[28.9283743,44.6116223],[28.928351,44.611729],[28.9283118,44.611739],[28.9283024,44.6118402],[28.9283393,44.6119558],[28.9284336,44.6119746],[28.9284927,44.6121291],[28.9284114,44.6122056],[28.9283252,44.6122826],[28.9281671,44.6123488],[28.9280498,44.6124185],[28.9279765,44.612466],[28.9279144,44.6125292],[28.9278495,44.612622],[28.9277141,44.6129037],[28.9276048,44.613087],[28.9275372,44.6132033],[28.9274759,44.6132465],[28.9274044,44.6132638],[28.9273502,44.613264],[28.9272905,44.6132642],[28.927175,44.613268],[28.927076,44.6131099],[28.9271179,44.6128856],[28.9268721,44.6126631],[28.9268919,44.6126085],[28.9271873,44.6124842],[28.9272341,44.6123638],[28.9271604,44.612195],[28.9266177,44.6114955],[28.9257497,44.6102819],[28.9249187,44.6091198],[28.9240832,44.6079902],[28.923004,44.6065334],[28.9224521,44.6057393],[28.9219795,44.6051853],[28.9218992,44.6051395],[28.9217691,44.6051839],[28.9216604,44.6052448],[28.9214002,44.6051844],[28.9211921,44.6050031],[28.9210977,44.604755],[28.9211547,44.6046629],[28.9213257,44.6045864],[28.9214404,44.6044941],[28.9210101,44.6037658],[28.9195516,44.6018051],[28.9177739,44.5992977],[28.9159929,44.5966683],[28.9155169,44.595907],[28.9154239,44.5959295],[28.9153869,44.5960856],[28.9153447,44.5961535],[28.9152385,44.5961235],[28.9150387,44.5959939],[28.9149436,44.5958483],[28.9149764,44.5954555],[28.9151512,44.5954938],[28.9152018,44.5953838],[28.9138616,44.5932265],[28.9121137,44.5904191],[28.9110016,44.5886295],[28.9096276,44.5864213],[28.9084076,44.5844442],[28.9080218,44.5838276],[28.9076026,44.5831457],[28.9051787,44.5792445],[28.9033046,44.5762343],[28.9019178,44.5740297],[28.9008808,44.5723308],[28.9006985,44.5724162],[28.9004257,44.5722921],[28.9000605,44.5717803],[28.8998916,44.5716526],[28.8994872,44.5714807],[28.8991444,44.571388],[28.8988381,44.571399],[28.8982537,44.5714431],[28.8980219,44.5714135],[28.897974,44.5712797],[28.898059,44.5710682],[28.8982738,44.5709462],[28.898514,44.5708931],[28.8986423,44.570899],[28.898663,44.5708754],[28.8985217,44.5706982],[28.8983814,44.5705096],[28.8980087,44.5706305],[28.8979839,44.5705981],[28.8978845,44.5705981],[28.89781,44.5706246],[28.897701,44.5706202],[28.8975909,44.5705798],[28.8974978,44.5704783],[28.8974482,44.5703664],[28.8975583,44.5700971],[28.8976379,44.5700141],[28.8977278,44.5699244],[28.8978583,44.5698115],[28.8980321,44.5696384],[28.8982022,44.5694372],[28.8983449,44.5691906],[28.898559,44.5688479],[28.8987544,44.5685874],[28.898893,44.5683485],[28.8989971,44.5681679],[28.8989813,44.5680823],[28.8989446,44.5679965],[28.8989159,44.5679655],[28.898534,44.5675535],[28.8981708,44.5670955],[28.8977324,44.5665249],[28.8972847,44.5659299],[28.896965,44.5660166],[28.8968569,44.5663428],[28.8966839,44.5665314],[28.896372,44.5666798],[28.8961098,44.5668022],[28.8958253,44.5668923],[28.8955057,44.5669411],[28.8952076,44.5669134],[28.8944937,44.5668536],[28.8940753,44.5667459],[28.8939036,44.5667528],[28.893639,44.5668183],[28.8932628,44.5668069],[28.8929177,44.5667121],[28.8927465,44.5666312],[28.8925752,44.5665962],[28.8924352,44.5665089],[28.8923638,44.5663391],[28.8923398,44.5662178],[28.8923113,44.5660598],[28.8923087,44.5659694],[28.8923013,44.565842],[28.8923046,44.5657293],[28.8923406,44.5656123],[28.8924529,44.5655234],[28.8925331,44.565488],[28.892592,44.5654576],[28.8926917,44.5654249],[28.8928105,44.5653972],[28.8929279,44.565394],[28.89301,44.5654011],[28.8930652,44.5653906],[28.8930969,44.5653455],[28.8931083,44.5652937],[28.8931197,44.5652469],[28.8930881,44.5652323],[28.893054,44.5652135],[28.8930378,44.5651921],[28.8930352,44.5651665],[28.8930454,44.5651372],[28.8930774,44.5651214],[28.8931314,44.5651082],[28.893144,44.565085],[28.8931794,44.5650616],[28.8931821,44.5650322],[28.893158,44.565009],[28.893126,44.5649928],[28.8930913,44.5649862],[28.8930567,44.564991],[28.8930117,44.5650001],[28.8929656,44.5650175],[28.8929248,44.5650216],[28.8928767,44.5650059],[28.8928223,44.5649918],[28.8927756,44.5650129],[28.8927462,44.5650451],[28.8926847,44.5650561],[28.8926522,44.5650371],[28.8926438,44.5650034],[28.8926161,44.5649679],[28.892528,44.5649315],[28.8924405,44.5649104],[28.8923485,44.5649036],[28.8922612,44.5648937],[28.8921773,44.564891],[28.892111,44.5648812],[28.8920448,44.5648522],[28.8919981,44.564803],[28.8919811,44.5647505],[28.8919459,44.5646903],[28.891893,44.564742],[28.8918304,44.5648054],[28.8917923,44.5648545],[28.8916744,44.564873],[28.8915836,44.5648878],[28.8914676,44.5649461],[28.8914279,44.5650153],[28.8914969,44.5650712],[28.8915909,44.5651092],[28.8915546,44.5651595],[28.8917004,44.5651511],[28.8918441,44.5651819],[28.8919553,44.5652294],[28.8920551,44.5653051],[28.8921505,44.5654106],[28.8921592,44.5655041],[28.892212,44.5655501],[28.892238,44.5656038],[28.8922495,44.5656827],[28.8922631,44.5657864],[28.8922734,44.5658923],[28.8922698,44.5659985],[28.8922612,44.5660662],[28.89223,44.566173],[28.8921835,44.5662836],[28.8920713,44.5664838],[28.8918021,44.5666877],[28.8915773,44.566808],[28.8912936,44.5668634],[28.8910386,44.5668426],[28.890832,44.5668751],[28.8905695,44.5668144],[28.890381,44.5667213],[28.8903338,44.5666093],[28.8901579,44.5665966],[28.8899026,44.56664],[28.8896666,44.5667126],[28.8894306,44.5667199],[28.889159,44.5666704],[28.8891495,44.5668034],[28.8890814,44.5669086],[28.8890794,44.5670076],[28.8892048,44.5671033],[28.889375,44.5672077],[28.8895943,44.5673208],[28.8899919,44.5673869],[28.8902279,44.5675628],[28.8904284,44.5676666],[28.8907464,44.5676557],[28.890929,44.5676743],[28.8911079,44.5677794],[28.8912244,44.5678642],[28.891256,44.5679],[28.8913577,44.5678299],[28.8915561,44.5677741],[28.8918411,44.5677529],[28.8921198,44.5678125],[28.8924368,44.5678931],[28.8929813,44.5678837],[28.8935999,44.568039],[28.8938376,44.5682593],[28.8940356,44.5683987],[28.8942553,44.5683965],[28.8943066,44.5684864],[28.8944966,44.5685519],[28.8947011,44.5685304],[28.8954087,44.5685617],[28.8959671,44.5686248],[28.8962835,44.5686187],[28.8963757,44.5686998],[28.8965902,44.5686777],[28.8966631,44.5685819],[28.8968137,44.5684829],[28.8969447,44.5684283],[28.8970988,44.5684545],[28.8971723,44.5685571],[28.897231,44.5686523],[28.8973223,44.5686296],[28.8974197,44.568627],[28.8975331,44.5687753],[28.8975548,44.5689668],[28.8974712,44.5691405],[28.89729,44.5695039],[28.8972026,44.5696857],[28.8972032,44.5698444],[28.8971873,44.5699882],[28.8972488,44.5701713],[28.8972139,44.5702508],[28.8972792,44.5703342],[28.8974249,44.5705202],[28.8974417,44.5706507],[28.897392,44.5707437],[28.8972844,44.5709066],[28.8971514,44.5709401],[28.8968411,44.5711011],[28.8965747,44.5713683],[28.8963181,44.5716837],[28.8961955,44.5718727],[28.8957231,44.5724581],[28.8953676,44.5727544],[28.8950141,44.5729326],[28.894588,44.5730805],[28.8941117,44.5731386],[28.8933437,44.5727506],[28.8924937,44.5723596],[28.8916987,44.5719456],[28.8909487,44.5715256],[28.8901877,44.5711515],[28.8894637,44.5707495],[28.8887517,44.5703295],[28.8880277,44.5699225],[28.8872777,44.5695255],[28.8865467,44.5691195],[28.8857547,44.5687635],[28.8849337,44.5684715],[28.8841067,44.5681965],[28.8831747,44.5679965],[28.8822077,44.5678775],[28.8811867,44.5678315],[28.8803857,44.5675655],[28.8799927,44.5674905],[28.8795677,44.5674125],[28.8787737,44.5673485],[28.8779917,44.5673255],[28.8775707,44.5673455],[28.8771807,44.5673575],[28.8767917,44.5673865],[28.8764017,44.5674105],[28.8756527,44.5674185],[28.8752637,44.5674205],[28.8738577,44.5665655],[28.8726697,44.5658425],[28.8713937,44.5652785],[28.8699807,44.5648115],[28.8685657,44.5644475],[28.8670637,44.5641305],[28.8655327,44.5638805],[28.8639647,44.5636635],[28.8624087,44.5634285],[28.8608787,44.5631915],[28.8593467,44.5629245],[28.8578517,44.5626205],[28.8564966,44.5625033],[28.8560278,44.56258],[28.8556449,44.5625957],[28.8553724,44.5625537],[28.8551373,44.5624725],[28.8549795,44.5622656],[28.8547764,44.561897],[28.854454,44.5615293],[28.8538497,44.5610785],[28.8526997,44.5603375],[28.8522727,44.5599435],[28.8518807,44.5594955],[28.8514827,44.5590615],[28.8511177,44.5586395],[28.8507267,44.5582185],[28.8502547,44.5578435],[28.8497537,44.5574965],[28.8486897,44.5573065],[28.8478797,44.5573695],[28.8472187,44.5569705],[28.8469417,44.5567415],[28.8466507,44.5564985],[28.8461807,44.5559705],[28.8453445,44.5555539],[28.8449722,44.5552295],[28.8448437,44.555024],[28.8446804,44.554763],[28.8445339,44.5543879],[28.844609,44.5543077],[28.8448713,44.5541929],[28.8450661,44.5542276],[28.845363,44.554057],[28.8453883,44.5539526],[28.845984,44.5538778],[28.8462662,44.553919],[28.8466022,44.5541795],[28.8467109,44.5542089],[28.8469674,44.5545473],[28.8472265,44.5545505],[28.8475951,44.5544144],[28.8483173,44.5543715],[28.8487283,44.5544275],[28.8490027,44.5544882],[28.8490608,44.5545526],[28.8492548,44.5545266],[28.8493372,44.5545666],[28.8494667,44.5545703],[28.8496556,44.5543335],[28.8497756,44.554345],[28.8501353,44.5541314],[28.8513121,44.5540156],[28.8518624,44.5540487],[28.8522633,44.5539633],[28.8524694,44.554022],[28.8533045,44.5538398],[28.852861,44.553544],[28.8528553,44.5532611],[28.8522109,44.5532584],[28.850447,44.552859],[28.850396,44.552235],[28.84996,44.55158],[28.84754,44.551057],[28.84692,44.551544],[28.846859,44.552206],[28.846481,44.552784],[28.845487,44.552795],[28.844885,44.552675],[28.84378,44.552314],[28.842818,44.551763],[28.841992,44.551111],[28.841726,44.550463],[28.841441,44.549806],[28.841113,44.549176],[28.84078,44.548601],[28.840453,44.547999],[28.840096,44.547447],[28.839701,44.546891],[28.839269,44.546385],[28.8388,44.545866],[28.838332,44.545383],[28.837831,44.544878],[28.837251,44.544415],[28.836682,44.543961],[28.836078,44.543521],[28.835397,44.543086],[28.834717,44.542665],[28.834043,44.542455],[28.833469,44.542181],[28.832967,44.541843],[28.832578,44.541467],[28.832214,44.541086],[28.831924,44.540676],[28.831603,44.540268],[28.831313,44.539863],[28.832096,44.538563],[28.831461,44.538339],[28.830781,44.538139],[28.830071,44.537957],[28.829366,44.537757],[28.828654,44.537516],[28.828018,44.537288],[28.82741,44.536987],[28.82687,44.536604],[28.826401,44.535887],[28.826563,44.535034],[28.825987,44.534292],[28.825266,44.533786],[28.824559,44.533307],[28.823878,44.532841],[28.823197,44.532388],[28.822555,44.531958],[28.821912,44.531518],[28.82127,44.53111],[28.820628,44.530711],[28.820024,44.530275],[28.819406,44.529839],[28.818839,44.529407],[28.818234,44.528949],[28.817665,44.528468],[28.817047,44.527987],[28.81647,44.527452],[28.815899,44.526889],[28.815256,44.526436],[28.814613,44.525956],[28.813969,44.525498],[28.813326,44.52504],[28.812684,44.524632],[28.811968,44.524252],[28.811259,44.523917],[28.810445,44.523637],[28.81002,44.523284],[28.809656,44.522899],[28.809035,44.522143],[28.808721,44.521766],[28.808395,44.521384],[28.808031,44.520999],[28.807567,44.520641],[28.806919,44.519828],[28.806166,44.519066],[28.805351,44.518323],[28.804448,44.517613],[28.803529,44.516957],[28.802565,44.516288],[28.801601,44.515633],[28.800607,44.515001],[28.799645,44.514373],[28.798725,44.513708],[28.797792,44.513021],[28.796978,44.512313],[28.796194,44.511583],[28.795522,44.510789],[28.794907,44.509984],[28.794445,44.509087],[28.793921,44.508605],[28.79303,44.507831],[28.792662,44.507508],[28.792345,44.507221],[28.792067,44.506964],[28.791814,44.506734],[28.791562,44.506513],[28.79131,44.506283],[28.791051,44.506053],[28.790767,44.50581],[28.79045,44.505523],[28.790095,44.5052],[28.789669,44.504851],[28.789166,44.504454],[28.7882,44.5037],[28.787632,44.503223],[28.787089,44.502718],[28.786558,44.502214],[28.786051,44.501686],[28.785619,44.50113],[28.785268,44.50052],[28.784983,44.499845],[28.784655,44.499418],[28.784303,44.498982],[28.783976,44.498582],[28.783625,44.498179],[28.783223,44.49778],[28.782872,44.497403],[28.78247,44.497004],[28.782081,44.496623],[28.781654,44.496238],[28.781229,44.49589],[28.78079,44.49551],[28.780326,44.495157],[28.779863,44.4948],[28.779362,44.494474],[28.778836,44.494127],[28.778299,44.493807],[28.777906,44.4933],[28.777477,44.492821],[28.777048,44.492369],[28.77662,44.491912],[28.776153,44.49146],[28.775687,44.491008],[28.77522,44.490557],[28.774717,44.490133],[28.774251,44.489681],[28.773785,44.489247],[28.773356,44.488795],[28.772884,44.488343],[28.772494,44.48789],[28.772064,44.487411],[28.77171,44.486935],[28.771343,44.486432],[28.771203,44.486156],[28.771062,44.485884],[28.771269,44.485241],[28.771578,44.482982],[28.7715846,44.4803417],[28.771498,44.478061],[28.771078,44.475584],[28.7699795,44.4735166],[28.76913,44.4714075],[28.7680748,44.4688811],[28.7672407,44.4670755],[28.767189,44.465642],[28.76697,44.464826],[28.766644,44.464044],[28.76632,44.463095],[28.765433,44.462834]],[[28.777677,44.5654174],[28.7774161,44.5653368],[28.7773065,44.5651488],[28.7772966,44.5649234],[28.7777667,44.5645737],[28.7784087,44.564647],[28.7786164,44.5648237],[28.7786298,44.5649621],[28.7789316,44.5650791],[28.7788711,44.565325],[28.7786065,44.5655573],[28.7782143,44.5655876],[28.777677,44.5654174]],[[28.7810318,44.5662152],[28.7806399,44.5658712],[28.7806355,44.5654496],[28.7809537,44.565354],[28.7812377,44.5651848],[28.7817914,44.5651749],[28.7827339,44.5652719],[28.783247,44.565436],[28.7835825,44.5654336],[28.7838975,44.5655494],[28.7842581,44.5654401],[28.784706,44.5655418],[28.7848693,44.5656497],[28.7848559,44.5658168],[28.7847619,44.5659975],[28.7843465,44.566089],[28.7840181,44.5660269],[28.7835758,44.5661081],[28.7833077,44.5660221],[28.7831125,44.5661787],[28.7827716,44.566237],[28.7822891,44.5661558],[28.7817663,44.5662465],[28.7810318,44.5662152]],[[28.9000623,44.5733487],[28.8998156,44.573471],[28.8995581,44.5735895],[28.8993489,44.5736659],[28.8990914,44.5737194],[28.8988875,44.5737576],[28.8986944,44.5737691],[28.8985013,44.5737499],[28.898276,44.5736926],[28.898099,44.5736124],[28.8979541,44.573536],[28.8977449,44.5733372],[28.8976108,44.5731347],[28.8975572,44.572978],[28.8975733,44.5729054],[28.8976108,44.5728328],[28.8976645,44.5727946],[28.8976698,44.5727258],[28.897584,44.57268],[28.8975786,44.5725997],[28.8976054,44.5725233],[28.8976913,44.5725004],[28.897584,44.5724125],[28.8975786,44.572187],[28.8976108,44.5719654],[28.8976591,44.5718278],[28.8976966,44.5717552],[28.8977396,44.5717131],[28.8977986,44.5717131],[28.8978147,44.571759],[28.8978629,44.571801],[28.897938,44.5718278],[28.8980292,44.5718431],[28.8981151,44.5718354],[28.898217,44.5718163],[28.8982814,44.5717857],[28.8983565,44.5717857],[28.8985228,44.5717819],[28.8986837,44.5717552],[28.8988822,44.5717361],[28.8990538,44.5717628],[28.8992523,44.571824],[28.8994454,44.5719004],[28.8996386,44.5720036],[28.899778,44.5721144],[28.89988,44.5722405],[28.8999765,44.5723628],[28.9000999,44.5725462],[28.9002072,44.5726417],[28.9002877,44.5727449],[28.9003842,44.5728405],[28.900454,44.5729322],[28.9004325,44.5730506],[28.9003252,44.5731882],[28.9002447,44.5732761],[28.9000623,44.5733487]],[[28.8917692,44.5808643],[28.8914828,44.5801213],[28.8914329,44.5794874],[28.8920798,44.5789886],[28.8924723,44.5788401],[28.8933224,44.578796],[28.8937891,44.5788571],[28.8942408,44.5792094],[28.8943872,44.5796843],[28.8936961,44.5812174],[28.8935883,44.5816695],[28.8929352,44.582229],[28.8926062,44.5821681],[28.8917692,44.5808643]],[[28.7854456,44.5886018],[28.7863596,44.5885275],[28.7870536,44.5879298],[28.7875489,44.5876998],[28.7881359,44.5875887],[28.7885648,44.5876094],[28.7889767,44.5877355],[28.7894093,44.5880706],[28.7895426,44.5884866],[28.7894347,44.5889026],[28.7891716,44.5891816],[28.7884444,44.5894873],[28.7882164,44.5895408],[28.7877926,44.5896248],[28.7869745,44.5897681],[28.7862093,44.5900511],[28.7857521,44.5903405],[28.7858683,44.5904219],[28.7855553,44.591299],[28.7853804,44.5915096],[28.7850756,44.5915969],[28.7849075,44.5920217],[28.7849618,44.5924437],[28.7851657,44.5927692],[28.7855074,44.5929808],[28.7855718,44.5932311],[28.7855771,44.5933437],[28.7854966,44.5934278],[28.7853786,44.5935252],[28.7852606,44.5936188],[28.7850782,44.5936665],[28.7849683,44.5937945],[28.7848824,44.5938633],[28.7847671,44.593997],[28.7846222,44.5940524],[28.7843084,44.5939626],[28.7839705,44.5939263],[28.7835616,44.5937677],[28.7835235,44.593501],[28.7832505,44.593397],[28.7830961,44.5929541],[28.7826956,44.5927752],[28.7824051,44.5924611],[28.7822156,44.5920677],[28.7824442,44.5913714],[28.7828484,44.5911109],[28.7831235,44.5909011],[28.7832531,44.5906995],[28.783514,44.5906092],[28.7837908,44.5903908],[28.7840213,44.5898243],[28.7842057,44.5895164],[28.7842508,44.5893717],[28.7844339,44.5891443],[28.7848696,44.5888483],[28.7854456,44.5886018]],[[28.8058094,44.5945695],[28.8057436,44.5946424],[28.8056192,44.5946476],[28.8054216,44.5947727],[28.8051947,44.5947519],[28.805134,44.5947107],[28.8050501,44.5944631],[28.8050561,44.5943457],[28.805137,44.5943777],[28.805191,44.5942966],[28.8052929,44.5942603],[28.8052869,44.5941622],[28.8053888,44.5940341],[28.805119,44.5938121],[28.80517,44.5937652],[28.8053948,44.5938014],[28.8054337,44.5938612],[28.8055386,44.5939018],[28.8055236,44.5939871],[28.8056256,44.5940277],[28.8057694,44.5939978],[28.8059073,44.594032],[28.8060901,44.5941195],[28.8061899,44.5940953],[28.8061826,44.5942047],[28.8062924,44.5942099],[28.8063216,44.5941266],[28.8064314,44.5940953],[28.8066143,44.5942151],[28.8064899,44.5944601],[28.8063509,44.5945174],[28.8062558,44.5944861],[28.8060948,44.5944913],[28.8058983,44.5945762],[28.8058094,44.5945695]],[[28.7888925,44.5953561],[28.7890499,44.5951564],[28.7893408,44.5950848],[28.7897139,44.5951583],[28.7898766,44.5953093],[28.7900789,44.5954917],[28.7900789,44.5957121],[28.7899599,44.5958195],[28.7898596,44.5958752],[28.7897618,44.5960239],[28.7895822,44.5960654],[28.7893492,44.5960411],[28.7890313,44.5958873],[28.7889206,44.5957376],[28.7888925,44.5953561]],[[28.807295,44.5954235],[28.8072141,44.5954129],[28.8071272,44.595368],[28.8071422,44.595304],[28.8072291,44.5952763],[28.8073939,44.595319],[28.8075048,44.5954001],[28.8075918,44.595526],[28.8076847,44.5961428],[28.8074958,44.5961343],[28.807367,44.5960446],[28.807313,44.5960361],[28.807304,44.5959571],[28.80728,44.5958781],[28.8072201,44.5958376],[28.8071961,44.5957287],[28.8072411,44.5956434],[28.8071781,44.5956263],[28.8072171,44.5955025],[28.807313,44.5954812],[28.807295,44.5954235]],[[28.7922651,44.5982153],[28.792353,44.5982063],[28.7925252,44.5982211],[28.7928503,44.5982095],[28.7930004,44.5982661],[28.7931266,44.5983658],[28.7931244,44.5985358],[28.7930315,44.5987166],[28.7929589,44.5987851],[28.7927568,44.598875],[28.7924012,44.5990023],[28.7922669,44.5989183],[28.792121,44.5988423],[28.7920904,44.5987361],[28.791947,44.5986445],[28.7919441,44.5985567],[28.7919685,44.598415],[28.7919989,44.5983442],[28.7921554,44.5982819],[28.7922651,44.5982153]],[[28.7947716,44.600674],[28.7950333,44.6006762],[28.7951615,44.6005604],[28.7955217,44.6005628],[28.7958047,44.6007085],[28.7958102,44.6008811],[28.7957292,44.6010517],[28.7954311,44.6013202],[28.7953501,44.601377],[28.7952007,44.6013816],[28.7949543,44.6013388],[28.794839,44.6012717],[28.7947862,44.6011965],[28.7946778,44.6011086],[28.7946556,44.601025],[28.7946286,44.6009328],[28.7946705,44.6008304],[28.7946846,44.6007914],[28.7948003,44.6007616],[28.7947716,44.600674]],[[28.9289139,44.6159728],[28.928866,44.6159316],[28.9287404,44.6158942],[28.9285179,44.615853],[28.9284575,44.6158427],[28.9284427,44.6158143],[28.928438,44.6157812],[28.9284641,44.6157653],[28.9285175,44.6157519],[28.9285883,44.6157489],[28.9286741,44.6157481],[28.9288632,44.6157608],[28.9290276,44.6157726],[28.9292466,44.6157745],[28.9293224,44.6157974],[28.9293735,44.6158482],[28.9293811,44.6159049],[28.9293518,44.6159506],[28.9292787,44.6159666],[28.9292215,44.6160452],[28.9290596,44.616141],[28.9289771,44.6161244],[28.9289164,44.6160838],[28.9288987,44.6160332],[28.9289139,44.6159728]],[[28.936637,44.6262533],[28.9367714,44.6263668],[28.9368806,44.6266538],[28.9370402,44.6267495],[28.9372166,44.6270065],[28.936931,44.6268391],[28.936427,44.6262772],[28.936091,44.6259304],[28.935965,44.6255598],[28.9361246,44.6256853],[28.9362842,44.6257092],[28.9364606,44.6259723],[28.9364942,44.6262114],[28.936637,44.6262533]],[[28.934154,44.623369],[28.9339259,44.6232066],[28.9339662,44.6231016],[28.9337917,44.6228723],[28.9339125,44.6227482],[28.9340026,44.6227286],[28.9341433,44.6227849],[28.9343016,44.6228944],[28.9342005,44.6229695],[28.9343896,44.6231792],[28.9345391,44.6233889],[28.9345479,44.6234859],[28.9347369,44.6236048],[28.9347105,44.623705],[28.9348293,44.6239053],[28.9359086,44.625775],[28.9360324,44.6259252],[28.9361152,44.6261262],[28.9363299,44.6263034],[28.9363471,44.626389],[28.9369482,44.6270124],[28.9384689,44.6290111],[28.9388031,44.6293765],[28.9393976,44.6300499],[28.9394433,44.6301876],[28.9396966,44.6305931],[28.939883,44.6308109],[28.9398443,44.6309411],[28.9396684,44.6309586],[28.9395946,44.630866],[28.9393694,44.6309286],[28.9389297,44.6308785],[28.9385885,44.6307108],[28.9381946,44.6303729],[28.9379343,44.6304204],[28.9374524,44.6303653],[28.9368368,44.6299848],[28.9366187,44.6295918],[28.9367876,44.6295242],[28.9368157,44.6294491],[28.9361051,44.6292764],[28.9356514,44.6290611],[28.9356443,44.6287757],[28.9355072,44.6287582],[28.9350534,44.6285079],[28.9350886,44.6283827],[28.9347755,44.6284979],[28.9344413,44.6284678],[28.9342077,44.6283063],[28.9340467,44.6280103],[28.9342345,44.6277715],[28.9345163,44.6276188],[28.9348518,44.6276379],[28.9351604,44.6278384],[28.93563,44.6275901],[28.9359923,44.6276761],[28.9362875,44.6276761],[28.9362741,44.6274946],[28.9359655,44.6273418],[28.9352812,44.62738],[28.9342479,44.6267975],[28.9342077,44.6266256],[28.9340198,44.6263773],[28.9340467,44.6259666],[28.9337917,44.6258616],[28.9338588,44.6256228],[28.9336173,44.6254987],[28.9335099,44.6251549],[28.9338051,44.624792],[28.9342077,44.6247824],[28.9342211,44.6245246],[28.9338186,44.6240184],[28.933993,44.6237414],[28.9339662,44.6236364],[28.934154,44.623369]],[[28.9491945,44.6558699],[28.9490136,44.6557507],[28.9490203,44.6555314],[28.949161,44.6553073],[28.9493487,44.6551452],[28.9496168,44.6550499],[28.9499251,44.6550594],[28.9501798,44.6551881],[28.9503674,44.6553407],[28.9503674,44.655622],[28.9500591,44.6557936],[28.9496168,44.6558842],[28.9491945,44.6558699]],[[28.9411636,44.6600283],[28.9411522,44.6598272],[28.9412983,44.6596252],[28.941576,44.6595506],[28.9416035,44.6593821],[28.9418947,44.6595043],[28.9421912,44.6596696],[28.9420628,44.66002],[28.9418534,44.6600572],[28.9418471,44.6603183],[28.9415601,44.660385],[28.9412018,44.6602858],[28.9412933,44.6602095],[28.9414877,44.660219],[28.9416083,44.6600188],[28.9412815,44.6598466],[28.9411636,44.6600283]],[[28.9315238,44.6738419],[28.9312786,44.6739095],[28.9310102,44.673784],[28.9311363,44.6733206],[28.9313619,44.672945],[28.9316509,44.6727046],[28.9323109,44.6726415],[28.9329356,44.672876],[28.9330681,44.6734113],[28.9326548,44.6739015],[28.9319636,44.6740132],[28.9315238,44.6738419]],[[28.9290198,44.6753389],[28.9291785,44.6751925],[28.9290154,44.6750055],[28.9291356,44.6746618],[28.9293481,44.6745786],[28.9295282,44.6745356],[28.9296632,44.6746069],[28.9297876,44.67443],[28.9306098,44.6742363],[28.9309801,44.6742104],[28.9312607,44.6742489],[28.9315849,44.6745245],[28.9324813,44.6747533],[28.9328492,44.6749387],[28.9326272,44.6754731],[28.9326486,44.6759917],[28.9322957,44.6761506],[28.9307937,44.6758635],[28.930518,44.6757441],[28.9299849,44.6756958],[28.9298087,44.6755126],[28.9299978,44.6753877],[28.9305254,44.6755067],[28.9305983,44.6754274],[28.9304053,44.6753511],[28.9302938,44.6752688],[28.9299506,44.6752657],[28.9294445,44.6753176],[28.9292686,44.6754762],[28.9290713,44.6754121],[28.9290198,44.6753389]],[[28.9299511,44.6819999],[28.929644,44.6821077],[28.9293472,44.6819154],[28.9293931,44.6815514],[28.9298668,44.6814628],[28.9301339,44.6816032],[28.9301048,44.6818546],[28.9299511,44.6819999]],[[28.9547473,44.6457496],[28.9545503,44.6456871],[28.9545679,44.6455644],[28.9545257,44.6454643],[28.9546734,44.6453392],[28.9548458,44.6453893],[28.9549267,44.6454819],[28.9550498,44.6455294],[28.955085,44.645642],[28.9552503,44.6457972],[28.9554016,44.6460074],[28.9552679,44.646115],[28.9549267,44.6460474],[28.9549162,44.6460074],[28.9547262,44.6458948],[28.9547157,44.6458397],[28.9547684,44.6458422],[28.9547473,44.6457496]],[[28.9574655,44.6486206],[28.9572017,44.6485955],[28.957083,44.6484923],[28.9570654,44.6483578],[28.9571973,44.648289],[28.9572457,44.6483703],[28.9573864,44.6484391],[28.9575095,44.6484266],[28.9576194,44.6485361],[28.9575974,44.6485862],[28.9574655,44.6486206]],[[28.9575667,44.6489115],[28.9576326,44.648924],[28.9577469,44.6488145],[28.9578964,44.6487895],[28.9579888,44.6489209],[28.958014,44.6489473],[28.9581257,44.6489383],[28.9584337,44.6491267],[28.9586012,44.6492728],[28.958702,44.6494368],[28.9587939,44.6494688],[28.9592945,44.6498865],[28.9597322,44.6502773],[28.960105,44.6506847],[28.960458,44.6509243],[28.9604508,44.6509537],[28.9605084,44.6509563],[28.9606831,44.6510537],[28.9608362,44.6512087],[28.9610325,44.6515136],[28.9610991,44.6515316],[28.9611766,44.6516661],[28.9611226,44.6516853],[28.9611316,44.6517122],[28.9612108,44.6517135],[28.9612288,44.6517622],[28.9612918,44.6517507],[28.9613171,44.6517763],[28.9612828,44.6518596],[28.9612,44.6518442],[28.9610919,44.65198],[28.9609875,44.6520082],[28.9609713,44.6519582],[28.960883,44.6519941],[28.9608884,44.6520466],[28.960847,44.6520479],[28.9608146,44.652021],[28.9605786,44.6520489],[28.960284,44.6519363],[28.9602136,44.6519863],[28.9601433,44.6519269],[28.9601785,44.6517549],[28.9601125,44.6517423],[28.9600378,44.6517987],[28.959919,44.6517642],[28.9599366,44.6517173],[28.9598883,44.6516641],[28.9598399,44.6516548],[28.9598179,44.6515828],[28.9599058,44.6515453],[28.9598003,44.6514671],[28.9597344,44.6512638],[28.9596816,44.6511918],[28.9596332,44.6511824],[28.9595981,44.6512794],[28.9595101,44.6513107],[28.9594354,44.6512763],[28.9593826,44.6512888],[28.9593386,44.6514327],[28.9591847,44.651489],[28.9589649,44.6514827],[28.9589209,44.6515672],[28.9587978,44.6515296],[28.9587187,44.6515891],[28.9584065,44.6516391],[28.9581778,44.6515985],[28.9581251,44.6515422],[28.9580459,44.6515734],[28.9577865,44.6514452],[28.9577733,44.6514827],[28.9576722,44.6515078],[28.9575051,44.6514296],[28.9569291,44.6511981],[28.9569247,44.6511449],[28.9569951,44.6511355],[28.9569555,44.6510605],[28.9568544,44.6510511],[28.9568588,44.6509729],[28.9569511,44.6509823],[28.9569555,44.6507195],[28.9570478,44.6506788],[28.9570478,44.6504974],[28.9571446,44.6503316],[28.9569467,44.6503441],[28.9569775,44.6501314],[28.9570962,44.6501283],[28.957149,44.6498249],[28.9571753,44.6495496],[28.9572677,44.6494307],[28.9572633,44.6492775],[28.95736,44.649143],[28.9574304,44.6491367],[28.957426,44.6490554],[28.9575667,44.6489115]],[[28.961379,44.6526146],[28.9613015,44.6526235],[28.9612799,44.6525812],[28.9612979,44.6525543],[28.9613285,44.6525556],[28.9613826,44.65258],[28.961379,44.6526146]],[[28.9609745,44.6538537],[28.9607775,44.6536421],[28.9609586,44.6535166],[28.9612242,44.653205],[28.9619982,44.6528364],[28.9615915,44.6525153],[28.9613402,44.6520013],[28.9614449,44.6518448],[28.9620313,44.652411],[28.9620104,44.6525823],[28.9623245,44.6528505],[28.9617172,44.6533422],[28.9616145,44.6534286],[28.9617151,44.6534763],[28.961955,44.6533908],[28.9620732,44.6534763],[28.9615707,44.6537831],[28.9614202,44.6537385],[28.9616548,44.6535287],[28.9615207,44.6534572],[28.9609745,44.6538537]],[[28.9545281,44.6509561],[28.9555242,44.6510421],[28.9559772,44.6514775],[28.9562119,44.6517138],[28.9569033,44.6515781],[28.9578721,44.6517503],[28.9585158,44.6521861],[28.9586499,44.6527106],[28.9581975,44.6532589],[28.957707,44.6532056],[28.9573681,44.6535449],[28.9562167,44.6535311],[28.9560612,44.6540396],[28.9554488,44.654432],[28.9546286,44.6546594],[28.9538874,44.6544747],[28.9536411,44.6545734],[28.9536065,44.6547607],[28.9534489,44.6549434],[28.9532044,44.6549216],[28.9529782,44.6551123],[28.9527268,44.6549812],[28.9522074,44.6552136],[28.951688,44.6552553],[28.9516629,44.6553685],[28.9512803,44.6554298],[28.9508679,44.6553341],[28.9506999,44.6551151],[28.9507665,44.6547368],[28.9509022,44.6543964],[28.9511909,44.6540856],[28.9517634,44.6539263],[28.9516663,44.6535898],[28.9519645,44.6534079],[28.9521386,44.6530557],[28.9526012,44.6526331],[28.9530033,44.6524841],[28.9534291,44.6525461],[28.9541678,44.6529311],[28.9554831,44.6530086],[28.9556088,44.6528357],[28.9553909,44.6525437],[28.9547878,44.6527523],[28.9540003,44.6526629],[28.9535869,44.6521876],[28.9537405,44.6515782],[28.9540254,44.651316],[28.9545281,44.6509561]],[[28.9595913,44.6550928],[28.9592385,44.6551097],[28.9590887,44.6549364],[28.9588604,44.6545705],[28.9590272,44.6541305],[28.9599119,44.6541203],[28.9600695,44.6545698],[28.9599369,44.6548395],[28.9595913,44.6550928]],[[28.9735237,44.664354],[28.9731235,44.6641444],[28.9731549,44.6638436],[28.9726065,44.6635539],[28.9721052,44.6628296],[28.9724029,44.6627628],[28.9729512,44.6634759],[28.9734055,44.6636096],[28.9738755,44.6643116],[28.9741418,44.6645567],[28.9743298,44.6649467],[28.9736092,44.6646681],[28.9735237,44.664354]],[[28.9752071,44.6665957],[28.9753951,44.6661723],[28.9748311,44.6658826],[28.9744708,44.6654147],[28.9746588,44.6653032],[28.9758651,44.6663506],[28.9765857,44.6670748],[28.9776667,44.668111],[28.97751,44.668189],[28.9769147,44.668111],[28.9765857,44.667877],[28.9761784,44.6678102],[28.9758338,44.6674982],[28.9756458,44.6675205],[28.9753481,44.6672642],[28.9754108,44.6668408],[28.9752071,44.6665957]],[[28.9689207,44.6735089],[28.9691209,44.6735272],[28.9692287,44.6735746],[28.9693776,44.6735345],[28.9694443,44.6736221],[28.9693519,44.6736294],[28.9693006,44.6736914],[28.9691569,44.6736622],[28.9691209,44.6736075],[28.968972,44.6736148],[28.9688796,44.6735673],[28.9689207,44.6735089]],[[28.9703563,44.6736165],[28.9703409,44.6737297],[28.9701664,44.6737516],[28.9700637,44.6736786],[28.9700997,44.6735581],[28.9702793,44.6735435],[28.9703563,44.6736165]],[[28.9770421,44.6738208],[28.97701,44.6737386],[28.9770293,44.6734648],[28.9773116,44.6733279],[28.9775876,44.6732823],[28.9778314,44.6734192],[28.9777993,44.6734968],[28.9778571,44.6738253],[28.9775683,44.6739485],[28.9771961,44.673912],[28.9771448,44.6739714],[28.9771705,44.6741676],[28.9769715,44.6743775],[28.9766699,44.6744094],[28.9763363,44.6741447],[28.9765031,44.6738892],[28.9766956,44.6738253],[28.9768945,44.6738527],[28.9770421,44.6738208]],[[28.9804238,44.6738929],[28.9804238,44.6740618],[28.9800773,44.6741348],[28.980026,44.6742489],[28.9797308,44.6740846],[28.9798078,44.6738245],[28.980058,44.673756],[28.9803276,44.6738245],[28.9804238,44.6738929]],[[28.9750112,44.674936],[28.9748636,44.6747718],[28.9751395,44.6744569],[28.9753384,44.6743292],[28.9755438,44.6743611],[28.9758004,44.6744706],[28.975794,44.674717],[28.975486,44.6749406],[28.9750112,44.674936]],[[28.9758935,44.6760831],[28.9758871,44.675896],[28.975701,44.6758367],[28.9756882,44.6755903],[28.9757844,44.6754899],[28.9759384,44.6754488],[28.9761758,44.6754716],[28.9762785,44.6756222],[28.9761309,44.6759051],[28.9763748,44.6760146],[28.9762143,44.6760922],[28.9758935,44.6760831]],[[28.9684851,44.6755242],[28.9689368,44.6759477],[28.9688177,44.6761346],[28.9686986,44.6761667],[28.9688958,44.6763244],[28.9687602,44.6764295],[28.9687028,44.6764266],[28.9686206,44.6762455],[28.9680128,44.6760674],[28.9679717,44.6758951],[28.9681524,44.6757462],[28.9681032,44.675679],[28.9682017,44.6755855],[28.9684851,44.6755242]],[[28.9680323,44.6767484],[28.9678639,44.6767484],[28.9677612,44.6766491],[28.967753,44.6765907],[28.9678269,44.6765147],[28.9679707,44.6764739],[28.9681473,44.6765556],[28.9681596,44.6766462],[28.9680323,44.6767484]]]},"properties":{"name":"Lacul Sinoe","name_ro":"Lacul Sinoe","type":"lake","source":"manual_premap","source_detail":"HOTOSM Waterways HDX snapshot 2026-08-07, water=lake/reservoir name match (1 candidate features, largest polygon selected)","osm_type":"way","osm_id":"relation/1395380","geocode_tier":"tier1","confidence":"high"}}]}