{"type":"FeatureCollection","metadata":{"pipeline":"tier1_premap","pipeline_version":"1.0","generated_at":"2026-08-11T10:41:31.145253+00:00"},"features":[{"type":"Feature","id":"lacul-snagov","geometry":{"type":"Polygon","coordinates":[[[26.1611892,44.6874077],[26.1611516,44.6872399],[26.1610711,44.686828],[26.1610615,44.6866333],[26.1611115,44.6864515],[26.1611158,44.6863931],[26.1610113,44.6863841],[26.1609341,44.686414],[26.1609045,44.6864519],[26.1608566,44.6865419],[26.1608405,44.6866678],[26.1608566,44.6868814],[26.1609317,44.6873314],[26.1609525,44.6875005],[26.160883,44.6876338],[26.1607861,44.6877477],[26.1604323,44.6878903],[26.1599793,44.6879308],[26.1596359,44.6879491],[26.1594231,44.6880158],[26.1592926,44.6880955],[26.1590094,44.6883152],[26.1587505,44.688515],[26.1585978,44.6885604],[26.1584343,44.6885715],[26.158091,44.6884983],[26.1577219,44.6883884],[26.1571645,44.6883846],[26.1567349,44.6884372],[26.1564602,44.68848],[26.1562076,44.6883835],[26.156142,44.6883972],[26.1560872,44.6884339],[26.1560929,44.6885205],[26.1562652,44.6890371],[26.1566061,44.6893647],[26.1569752,44.6897004],[26.1570771,44.6898396],[26.1571468,44.6899749],[26.1571468,44.6902495],[26.1571232,44.6903693],[26.1570782,44.6904631],[26.1569543,44.6905313],[26.1568035,44.6905729],[26.1565805,44.6905773],[26.1563392,44.6905665],[26.1558079,44.6905119],[26.1552929,44.6904631],[26.1548466,44.6904753],[26.1546258,44.6904545],[26.1543745,44.6904143],[26.1539883,44.6903289],[26.1522545,44.6898651],[26.1520211,44.689799],[26.1518425,44.6897004],[26.1516155,44.6893287],[26.1515401,44.6892958],[26.1514434,44.6893069],[26.1513833,44.6893558],[26.1513275,44.6894563],[26.151329,44.6896653],[26.151293,44.6897076],[26.1512389,44.6897435],[26.1510271,44.6897919],[26.150555,44.6899932],[26.1501688,44.6901885],[26.1497713,44.6904583],[26.1496128,44.690515],[26.1494252,44.6904792],[26.1492388,44.690397],[26.1490936,44.6902837],[26.149012,44.6902623],[26.1489847,44.6903352],[26.1490276,44.6903523],[26.1490151,44.690393],[26.1490902,44.6904101],[26.1490848,44.6905102],[26.1492741,44.6905313],[26.1492511,44.6906585],[26.1492993,44.6907741],[26.1493015,44.6910979],[26.1493216,44.6912054],[26.1493728,44.6913295],[26.1494725,44.6914493],[26.1496367,44.6915797],[26.1503409,44.6919439],[26.1505099,44.6920784],[26.150555,44.6922814],[26.1503834,44.6927268],[26.1504383,44.692889],[26.1505293,44.6930432],[26.1506409,44.693398],[26.1506151,44.6935444],[26.1504091,44.6936055],[26.1502605,44.6937596],[26.1502316,44.6939117],[26.1502976,44.6941119],[26.1503576,44.6944597],[26.150345,44.6948809],[26.1503233,44.6950454],[26.1502546,44.6952894],[26.1499497,44.695845],[26.1498438,44.6958106],[26.1497389,44.6959908],[26.149661,44.6960491],[26.1494953,44.6960834],[26.1493783,44.69609],[26.1492287,44.6960414],[26.1489843,44.6958996],[26.1487526,44.6957409],[26.1484951,44.6952284],[26.1483917,44.6951069],[26.1482769,44.6950143],[26.1473541,44.6946661],[26.1465704,44.6944307],[26.1464849,44.6944177],[26.1464742,44.6944135],[26.1456799,44.6942949],[26.1449074,44.6941607],[26.1445641,44.6941607],[26.1442418,44.6942936],[26.1437058,44.6945146],[26.1431736,44.6945878],[26.1426415,44.694661],[26.1419033,44.6945756],[26.1412853,44.6943925],[26.140942,44.6943559],[26.140324,44.6943925],[26.1389851,44.6941302],[26.1379379,44.6938434],[26.137011,44.6935017],[26.1367384,44.6932992],[26.1364552,44.6930905],[26.1361768,44.6928861],[26.1350626,44.692074],[26.1347794,44.6919641],[26.1344962,44.6918743],[26.1342472,44.6916102],[26.1339897,44.6910184],[26.1336636,44.6897065],[26.1335894,44.6895068],[26.1333889,44.6893098],[26.1330698,44.6891487],[26.1326246,44.6889243],[26.1321884,44.6887371],[26.131741,44.6885959],[26.1314148,44.6883945],[26.1312239,44.6881381],[26.1312923,44.6878208],[26.1314305,44.6877152],[26.1317148,44.6875952],[26.1317446,44.6875312],[26.1317167,44.6874651],[26.1315903,44.6873621],[26.1314859,44.6873664],[26.1313281,44.6874498],[26.1311401,44.6876623],[26.1308827,44.6882908],[26.1308827,44.6884372],[26.1309685,44.6886203],[26.1308827,44.6888827],[26.1306852,44.689023],[26.130402,44.6890658],[26.129784,44.688962],[26.1290287,44.6888827],[26.1284966,44.6888217],[26.1279816,44.6886203],[26.1275811,44.6883759],[26.1271912,44.6879865],[26.126994,44.687866],[26.1268069,44.6877896],[26.1265587,44.6877389],[26.1263524,44.6877221],[26.1261462,44.6877513],[26.1260936,44.6877792],[26.1260907,44.6878253],[26.1261886,44.6878816],[26.1264924,44.6880147],[26.1267541,44.6881858],[26.126895,44.6883618],[26.1270071,44.6885685],[26.1270828,44.6887988],[26.1271082,44.6890239],[26.1270203,44.6893281],[26.1269394,44.6894557],[26.1268229,44.6895722],[26.1266739,44.6896269],[26.1264727,44.6896778],[26.1261541,44.6897428],[26.1253119,44.6897946],[26.1244625,44.689798],[26.1237864,44.6897951],[26.1235131,44.6897713],[26.1225766,44.6895967],[26.1213135,44.6892763],[26.1210278,44.6891935],[26.1210519,44.6891363],[26.120509,44.6889582],[26.1204632,44.6887797],[26.120093,44.6885738],[26.1199871,44.6887015],[26.1198838,44.68865],[26.1200085,44.6885089],[26.119912,44.6884593],[26.1198597,44.6885146],[26.1197014,44.6884374],[26.1196759,44.6884641],[26.1195311,44.6883745],[26.1193554,44.6882048],[26.1192133,44.6880284],[26.119078,44.6879295],[26.1182226,44.6875402],[26.1169712,44.6871549],[26.1163025,44.686887],[26.1156327,44.6865989],[26.1151056,44.6862611],[26.1146789,44.685899],[26.11412,44.6856028],[26.1140405,44.685662],[26.1136164,44.6855058],[26.11256,44.6853166],[26.1119984,44.6852797],[26.1111403,44.6851081],[26.1102318,44.6848083],[26.1097627,44.6844666],[26.108664,44.6826724],[26.1085795,44.6823468],[26.1083839,44.6820354],[26.10788,44.6815415],[26.1076223,44.6812288],[26.1074391,44.6811048],[26.1071676,44.6809312],[26.1070497,44.6808173],[26.1069702,44.6807115],[26.1065668,44.6799365],[26.1062841,44.6797828],[26.1063467,44.6797273],[26.1054253,44.6792224],[26.1048474,44.6789531],[26.104464,44.6788341],[26.103593,44.6784666],[26.1029362,44.6781971],[26.1023869,44.6780018],[26.102146,44.677803],[26.1018067,44.6774476],[26.1017346,44.6773426],[26.1020778,44.6766751],[26.1022418,44.6764703],[26.1021191,44.6763974],[26.1016745,44.676598],[26.1013569,44.6766896],[26.1010737,44.6766286],[26.1004922,44.6758714],[26.1002726,44.675679],[26.0994631,44.6750469],[26.0994272,44.6749619],[26.0994858,44.6748769],[26.0997293,44.6744687],[26.0996885,44.6744077],[26.0999666,44.6739207],[26.0996951,44.6739188],[26.0996312,44.6740176],[26.0994622,44.6744792],[26.0992685,44.674669],[26.0991714,44.6747634],[26.0990648,44.6749081],[26.0990566,44.6750234],[26.0996403,44.6756093],[26.099872,44.6758046],[26.1001375,44.6760697],[26.1002472,44.6763696],[26.1002522,44.676477],[26.1001945,44.6765492],[26.1002637,44.676606],[26.1001776,44.6766549],[26.1001404,44.6766323],[26.0999213,44.6767761],[26.0998334,44.6767358],[26.0997643,44.6767042],[26.0994275,44.6765515],[26.099302,44.6764882],[26.0991949,44.676581],[26.0991217,44.6765408],[26.0992329,44.6764394],[26.0991436,44.6763936],[26.0985842,44.6761668],[26.0985184,44.6761455],[26.0984404,44.6761468],[26.098373,44.67618],[26.0983203,44.6762376],[26.0982121,44.6765264],[26.0981278,44.6765471],[26.0980765,44.676541],[26.09761,44.676367],[26.097556,44.6763088],[26.0976179,44.6759708],[26.0969097,44.6757369],[26.0962551,44.6755048],[26.0960621,44.6755261],[26.0954565,44.675486],[26.0948672,44.6753918],[26.0943675,44.6752371],[26.0940764,44.6751344],[26.0925454,44.6743977],[26.0921377,44.6743498],[26.0915537,44.674314],[26.0909812,44.6742882],[26.090839,44.6743169],[26.0907063,44.674547],[26.0903465,44.6745374],[26.0902215,44.6744375],[26.0900248,44.674387],[26.089362,44.6744077],[26.0888461,44.6744229],[26.08882,44.674458],[26.0880654,44.6743925],[26.088038,44.6745687],[26.0879123,44.6745573],[26.0879265,44.6744173],[26.0871955,44.6743519],[26.0867302,44.6742401],[26.085418,44.673789],[26.0850113,44.6737063],[26.0843796,44.6737599],[26.0836158,44.6738154],[26.083174,44.673822],[26.0827175,44.6738134],[26.082611,44.6738971],[26.0825706,44.674001],[26.0824917,44.6740423],[26.0823656,44.6740634],[26.0818397,44.6740521],[26.0814013,44.674016],[26.0811192,44.6739638],[26.0808759,44.6738261],[26.0806294,44.673681],[26.0802507,44.6736603],[26.0799085,44.6736593],[26.079453,44.6736079],[26.0791912,44.6735066],[26.0789293,44.6733449],[26.0786718,44.673058],[26.0785007,44.6727597],[26.0782679,44.672547],[26.0782036,44.6723529],[26.0780136,44.6721562],[26.0777107,44.6719761],[26.0773914,44.6718085],[26.077099,44.6717428],[26.0768437,44.6717152],[26.076411,44.6718143],[26.0761333,44.6718844],[26.0758712,44.6719656],[26.0759068,44.6720245],[26.0757016,44.6720774],[26.0754916,44.6721052],[26.0754726,44.6720623],[26.0753927,44.6720692],[26.075388,44.6720426],[26.0751686,44.6721997],[26.0749367,44.6723831],[26.0748541,44.6724872],[26.0748059,44.6726044],[26.074784,44.6726987],[26.074672,44.6727333],[26.0746689,44.6727858],[26.0746704,44.6728225],[26.0746654,44.6729259],[26.074661,44.6730447],[26.0749212,44.67306],[26.0750127,44.6730677],[26.0750018,44.6731057],[26.0752994,44.6731549],[26.0753875,44.6731029],[26.0758244,44.6731967],[26.0762084,44.6733429],[26.0766748,44.6736192],[26.076583,44.6737295],[26.076673,44.6737818],[26.0767258,44.6737352],[26.0767093,44.6737254],[26.0767566,44.6736839],[26.0768176,44.6737199],[26.0767683,44.6737617],[26.0767513,44.6737515],[26.0766994,44.6737972],[26.0768327,44.6738746],[26.0768874,44.6738273],[26.0768715,44.6738178],[26.0769199,44.6737773],[26.0769761,44.6738106],[26.0769266,44.6738513],[26.0769102,44.6738414],[26.0768572,44.6738886],[26.0769886,44.6739652],[26.0770449,44.6739167],[26.0770287,44.6739061],[26.0770756,44.6738659],[26.0771343,44.6739034],[26.0770858,44.6739426],[26.077069,44.673932],[26.0770126,44.6739794],[26.0771439,44.6740555],[26.0772016,44.6740091],[26.0771841,44.673998],[26.0772325,44.6739583],[26.077289,44.6739945],[26.0772406,44.674034],[26.0772251,44.6740239],[26.0771678,44.6740702],[26.0775214,44.674275],[26.0776565,44.674159],[26.0774643,44.6740464],[26.0774827,44.6740287],[26.0778515,44.6742445],[26.0778303,44.6742615],[26.0776895,44.6741783],[26.0775534,44.6742935],[26.0777943,44.6744336],[26.0778236,44.6744086],[26.0777949,44.674391],[26.0778671,44.674326],[26.0778973,44.674343],[26.0779235,44.6743201],[26.0778939,44.6743022],[26.0779161,44.6742825],[26.07801,44.6743373],[26.0779871,44.6743571],[26.0779564,44.6743397],[26.0779304,44.6743628],[26.0779607,44.6743809],[26.077887,44.6744443],[26.0778551,44.6744269],[26.0778267,44.6744524],[26.0779353,44.6745155],[26.077948,44.6744843],[26.0779989,44.6743935],[26.0780855,44.6744254],[26.0780712,44.674452],[26.0781364,44.6744847],[26.078363,44.6745987],[26.0783882,44.6746473],[26.0785969,44.6747456],[26.0787902,44.6748198],[26.0790761,44.6749095],[26.0795031,44.6750363],[26.079741,44.6750798],[26.0798829,44.675081],[26.0799335,44.6749245],[26.0802282,44.6749915],[26.0801722,44.6751751],[26.0806858,44.6752809],[26.0807103,44.6752219],[26.0808085,44.6752348],[26.0808194,44.6752025],[26.0809291,44.6752154],[26.0809178,44.6752621],[26.0809959,44.6752287],[26.0810253,44.6751803],[26.0810623,44.675093],[26.0811152,44.6750554],[26.081225,44.6750567],[26.0813336,44.6750866],[26.081619,44.6751682],[26.081918,44.6751385],[26.0821033,44.6751778],[26.0821387,44.6752525],[26.0821865,44.6753146],[26.0823111,44.675322],[26.0823665,44.6752939],[26.0824485,44.6752431],[26.0825651,44.6752278],[26.0829278,44.6752023],[26.0844912,44.6751576],[26.0851547,44.6752126],[26.0854353,44.6752675],[26.0863346,44.6755616],[26.0866344,44.6756454],[26.0869958,44.6757204],[26.0874891,44.6758107],[26.0879563,44.6758933],[26.0880935,44.6758528],[26.088282,44.6758403],[26.0892005,44.6759386],[26.090112,44.6759749],[26.0901384,44.6758969],[26.0905881,44.6757988],[26.0908125,44.6757526],[26.0913252,44.6756781],[26.0917436,44.6756859],[26.0920701,44.6757264],[26.092137,44.6755133],[26.092321,44.6755502],[26.0922625,44.6757464],[26.0924328,44.6757755],[26.0929118,44.6758959],[26.0928889,44.6759875],[26.0929055,44.6760318],[26.0930031,44.6760571],[26.0930382,44.6760475],[26.0930982,44.6759774],[26.0940956,44.6766835],[26.0942231,44.6767261],[26.094173,44.6767831],[26.0944779,44.6768703],[26.0947433,44.6768843],[26.0948795,44.6768783],[26.0956094,44.6769295],[26.0956366,44.6768916],[26.09569,44.6768542],[26.0957647,44.6768518],[26.0959271,44.6768733],[26.0959865,44.6768895],[26.0960206,44.6769302],[26.0960416,44.6769862],[26.0964136,44.677055],[26.0964243,44.6770227],[26.0967724,44.6771001],[26.0968174,44.6770286],[26.0969301,44.6770635],[26.0968954,44.6771197],[26.0969501,44.6771337],[26.0969104,44.6772019],[26.0970941,44.6772313],[26.0973051,44.6772872],[26.0973423,44.6772301],[26.0974326,44.6772574],[26.0973801,44.6773298],[26.0975838,44.6774073],[26.0976736,44.6773484],[26.0978462,44.6771671],[26.0978746,44.6771706],[26.0979235,44.6771947],[26.097941,44.6772223],[26.0977807,44.6774459],[26.0980621,44.6775829],[26.0983765,44.6773572],[26.0984543,44.6774078],[26.0981854,44.6776449],[26.0982475,44.677675],[26.0989442,44.6780506],[26.0990133,44.6781384],[26.0993265,44.6783472],[26.0996866,44.6785644],[26.1008553,44.6791436],[26.1008079,44.6791978],[26.1015795,44.6795679],[26.1018969,44.6792883],[26.1021586,44.6794382],[26.1019632,44.6796642],[26.1023934,44.6799173],[26.1024333,44.6798424],[26.102532,44.6797724],[26.1026862,44.6797308],[26.1027295,44.6797654],[26.1027317,44.679844],[26.1025551,44.6800379],[26.1026061,44.680073],[26.1025392,44.6801306],[26.1028301,44.6803002],[26.1028789,44.6802447],[26.1032728,44.680468],[26.103363,44.6803919],[26.1034889,44.6804688],[26.1034326,44.680527],[26.1036983,44.6806729],[26.1038419,44.6807458],[26.1039734,44.6806974],[26.1049855,44.6812151],[26.1050039,44.681264],[26.1049349,44.6813637],[26.1052925,44.6815783],[26.1056506,44.681803],[26.105827,44.6819503],[26.1060825,44.6821862],[26.1063678,44.6824845],[26.1067785,44.6828654],[26.1068755,44.6829507],[26.1069493,44.683003],[26.1069949,44.6830346],[26.1070206,44.683085],[26.107035,44.6831562],[26.1070063,44.6832038],[26.1070213,44.6833704],[26.1069932,44.6834287],[26.1069353,44.6834823],[26.1068094,44.6835425],[26.1065838,44.6835945],[26.1063487,44.6836382],[26.1057004,44.6837568],[26.1054329,44.683795],[26.1051241,44.6838391],[26.1047836,44.683872],[26.1044035,44.6838908],[26.1040928,44.6838955],[26.1038719,44.6838875],[26.1036828,44.6838749],[26.103389,44.6838508],[26.1031439,44.6838074],[26.1028173,44.6837497],[26.1024814,44.6837323],[26.102066,44.6837643],[26.1016352,44.6837881],[26.1013642,44.683803],[26.1005433,44.68379],[26.1005105,44.6838451],[26.1005331,44.6839016],[26.1012627,44.6839386],[26.1019352,44.6839195],[26.1023397,44.6838839],[26.1026087,44.6838767],[26.102818,44.6838978],[26.103509,44.6840023],[26.1041999,44.684067],[26.1056398,44.6840229],[26.1060862,44.6840576],[26.1063902,44.6841044],[26.106829,44.6842348],[26.1069626,44.6841637],[26.1070837,44.6841557],[26.1072001,44.6841941],[26.1072829,44.6842452],[26.107457,44.6844617],[26.107795,44.6849341],[26.1083011,44.6853437],[26.1092804,44.6860413],[26.1095022,44.6861489],[26.1096718,44.6862382],[26.1100415,44.6863617],[26.110861,44.686466],[26.111573,44.6865443],[26.1120796,44.6865942],[26.1126044,44.6867181],[26.1130694,44.6869109],[26.1136272,44.6871978],[26.1140168,44.6874483],[26.1144203,44.6877782],[26.1145504,44.6880112],[26.1146349,44.6882847],[26.1146362,44.6886192],[26.114592,44.6889132],[26.1144632,44.6891817],[26.1143999,44.6895175],[26.1142025,44.6898669],[26.1138796,44.6901336],[26.11325,44.6903741],[26.1130031,44.6905771],[26.1127466,44.690939],[26.1125063,44.6911709],[26.1123604,44.6915614],[26.1122123,44.6917804],[26.1119836,44.6918579],[26.1117167,44.6918055],[26.1115622,44.6917018],[26.1114163,44.6916729],[26.1112126,44.6916356],[26.11103,44.691659],[26.1106867,44.6917018],[26.1103764,44.691671],[26.1101889,44.6915797],[26.1090988,44.6914394],[26.1085635,44.6913711],[26.1080431,44.6913356],[26.1074612,44.6914054],[26.106753,44.6916323],[26.1059819,44.692052],[26.105664,44.6926933],[26.105668,44.69276],[26.1058184,44.6928166],[26.1060814,44.6929029],[26.1062768,44.6932301],[26.1071239,44.6940776],[26.1073097,44.6942978],[26.1074483,44.6944912],[26.107516,44.6947014],[26.1074799,44.6948579],[26.1078712,44.6950121],[26.1079799,44.6950549],[26.1081457,44.6951203],[26.1083237,44.6951904],[26.1084513,44.6946576],[26.1085302,44.694619],[26.1079174,44.694305],[26.1078288,44.6942326],[26.1077012,44.6939591],[26.1075407,44.6937317],[26.1073565,44.6935543],[26.1070495,44.6933231],[26.1068843,44.6931393],[26.1066906,44.6928683],[26.1066009,44.6926678],[26.1065867,44.6924941],[26.1067842,44.6922623],[26.1070998,44.692101],[26.1076692,44.692027],[26.1080325,44.6919927],[26.108298,44.691987],[26.1096101,44.6921861],[26.1102775,44.6923741],[26.1112944,44.6926933],[26.1119243,44.6928374],[26.1124891,44.6929221],[26.1128762,44.6929826],[26.1129945,44.6929766],[26.1132681,44.6927573],[26.1135617,44.6924111],[26.1137724,44.6918821],[26.1140486,44.69148],[26.114196,44.691254],[26.1144105,44.6909594],[26.1148484,44.6906907],[26.1152,44.6904997],[26.115707,44.6901964],[26.1160147,44.6900668],[26.1157813,44.6896449],[26.116003,44.6892475],[26.1164822,44.6890477],[26.1167523,44.6890142],[26.1171565,44.689131],[26.1168912,44.6900282],[26.1168877,44.6900686],[26.1174408,44.6901307],[26.1175315,44.689879],[26.1175905,44.6896788],[26.1177984,44.6895596],[26.1180331,44.689614],[26.1182745,44.6898199],[26.1185519,44.6900164],[26.1189268,44.6901608],[26.1195928,44.6903786],[26.1196838,44.6904712],[26.1203924,44.6907237],[26.12036,44.6907708],[26.1205832,44.6908426],[26.1205623,44.6908806],[26.1206829,44.6909242],[26.1206498,44.690976],[26.1219177,44.6914344],[26.1220397,44.6915865],[26.1220942,44.6916357],[26.1222271,44.6916743],[26.1222369,44.6916069],[26.1224811,44.6916188],[26.1225942,44.6916183],[26.122592,44.6916961],[26.1227204,44.6916848],[26.1227288,44.6916138],[26.1228849,44.6915835],[26.1232877,44.6915118],[26.1234888,44.6914613],[26.1234729,44.6913841],[26.1237884,44.6913549],[26.1241167,44.6913282],[26.1241224,44.6914299],[26.1243515,44.6914258],[26.1243559,44.6914526],[26.124515,44.6914397],[26.1245195,44.691309],[26.1251767,44.6912928],[26.1257949,44.691353],[26.1264157,44.6914317],[26.1276898,44.6914516],[26.1286861,44.6914795],[26.1291318,44.6914436],[26.1298184,44.691354],[26.129827,44.6912696],[26.1301596,44.6912452],[26.1304998,44.6912092],[26.130755,44.6912327],[26.1309686,44.6912811],[26.1312822,44.6913974],[26.1314283,44.6914961],[26.1315198,44.6915717],[26.1315706,44.6917458],[26.1316895,44.6920618],[26.1319398,44.692332],[26.1325649,44.6928306],[26.132681,44.6930015],[26.1327194,44.6931539],[26.1326765,44.6934041],[26.1322216,44.6948502],[26.1322474,44.6950576],[26.1322817,44.6953383],[26.1321615,44.6955884],[26.1320156,44.6956738],[26.1310136,44.6959091],[26.13074,44.6959682],[26.1306469,44.6959966],[26.1306713,44.6961673],[26.1308929,44.6961808],[26.1314763,44.6959672],[26.131884,44.695911],[26.1321127,44.6958525],[26.1322354,44.6958605],[26.1323681,44.6958996],[26.1324044,44.6959968],[26.1324448,44.6960887],[26.1328739,44.6953383],[26.1330113,44.6945512],[26.1331143,44.6943437],[26.1332516,44.6942766],[26.1335949,44.6943315],[26.1340699,44.694435],[26.1345476,44.6945268],[26.13588,44.695035],[26.1366378,44.6953315],[26.1374058,44.6956128],[26.1380476,44.6957864],[26.1383373,44.6958662],[26.1387309,44.6958667],[26.1393713,44.6958569],[26.139409,44.6958562],[26.1402427,44.6958466],[26.1413584,44.6958355],[26.1423754,44.6958142],[26.1429934,44.6958508],[26.1437143,44.6960582],[26.1439289,44.6962235],[26.1441925,44.6964302],[26.1447014,44.6966439],[26.1450439,44.69667],[26.1455769,44.6966988],[26.145903,44.6967721],[26.1461348,44.6968941],[26.1464352,44.6971808],[26.1467699,44.6973456],[26.1471304,44.6975164],[26.1472506,44.6977421],[26.1472591,44.6992247],[26.1472334,44.6994504],[26.1470446,44.6995419],[26.1462423,44.6994041],[26.1461184,44.6996442],[26.1476135,44.7003766],[26.1484423,44.7006651],[26.1486668,44.7010061],[26.1488813,44.7010671],[26.1491818,44.7009451],[26.1493591,44.700169],[26.1500335,44.6996857],[26.1506224,44.6995038],[26.1510559,44.6993207],[26.1515202,44.6990748],[26.1520142,44.6987793],[26.1525721,44.6984743],[26.1528127,44.698558],[26.153645,44.6990844],[26.1540741,44.6996639],[26.154815,44.7000201],[26.1556191,44.699969],[26.156389,44.7002188],[26.1572069,44.7004876],[26.1582029,44.7013988],[26.1591103,44.7019609],[26.1599106,44.7025923],[26.1595244,44.7029888],[26.161078,44.703465],[26.1614985,44.7037819],[26.161713,44.7043004],[26.1616887,44.7049863],[26.1616701,44.7060695],[26.1615414,44.706405],[26.160988,44.7065294],[26.1607006,44.7065167],[26.1604052,44.7064481],[26.160164,44.7063003],[26.1599063,44.7061069],[26.1597312,44.7060345],[26.1594984,44.7059159],[26.1593408,44.7058202],[26.1590475,44.70569],[26.1589737,44.7057071],[26.1592997,44.7059318],[26.159637,44.7061648],[26.1597858,44.7063387],[26.1598254,44.7064409],[26.1598901,44.7065142],[26.1601688,44.7067377],[26.1610986,44.7071981],[26.1612586,44.7072773],[26.161562,44.707518],[26.1616437,44.7076004],[26.1617504,44.7077082],[26.1621898,44.7081515],[26.1629795,44.7087698],[26.1643792,44.7098583],[26.1646366,44.710322],[26.1649153,44.7111857],[26.1649403,44.7113337],[26.1649059,44.7114313],[26.1646935,44.7117391],[26.1646828,44.7117546],[26.1645969,44.7117973],[26.1644768,44.7118278],[26.1644142,44.7117939],[26.1639747,44.7108866],[26.1638886,44.7108077],[26.1635412,44.7106594],[26.1631259,44.7105795],[26.1630291,44.7105547],[26.1625586,44.7105123],[26.1616034,44.7103615],[26.1597581,44.7098734],[26.1588518,44.7090324],[26.1582296,44.7088355],[26.1575674,44.7086254],[26.1569752,44.7083753],[26.156604,44.7082002],[26.156471,44.7081837],[26.1562952,44.7082162],[26.1561907,44.7084271],[26.1562199,44.7085095],[26.1582798,44.7093025],[26.1588537,44.7096191],[26.1590993,44.7099919],[26.1592239,44.710187],[26.1612961,44.7108941],[26.1618334,44.7110836],[26.1625713,44.7114679],[26.1630005,44.7118949],[26.1631069,44.7125511],[26.1631804,44.7127442],[26.1635042,44.7130058],[26.16355,44.7131269],[26.1635373,44.713499],[26.1634131,44.7139108],[26.1635498,44.7140604],[26.1639876,44.7145666],[26.163979,44.7146922],[26.1626411,44.7152954],[26.1623532,44.7153566],[26.1613604,44.7153102],[26.1606215,44.7152061],[26.1600291,44.7152071],[26.159719,44.7152247],[26.1590876,44.7151833],[26.1590043,44.7151763],[26.1589343,44.7151826],[26.1588876,44.7152138],[26.1588799,44.7152536],[26.1588929,44.7153025],[26.1589476,44.7153588],[26.159116,44.7153983],[26.1593012,44.7154693],[26.1595349,44.7154802],[26.159988,44.7155017],[26.1604335,44.7155612],[26.1610693,44.715768],[26.1623704,44.7159715],[26.1639876,44.715829],[26.1643309,44.71589],[26.16476,44.7163169],[26.1648029,44.7167439],[26.1646742,44.7169573],[26.1640734,44.7171708],[26.1636013,44.7172013],[26.1636013,44.7173843],[26.1646907,44.7176774],[26.165175,44.718222],[26.1657042,44.7188785],[26.1662722,44.7193113],[26.1671181,44.7195745],[26.1673615,44.7197909],[26.1674495,44.720033],[26.1679464,44.7201507],[26.1684603,44.720196],[26.1687481,44.72014],[26.169043,44.7200861],[26.1692693,44.7200753],[26.1699256,44.7200788],[26.1704077,44.7199885],[26.1706823,44.7199397],[26.1711372,44.7197933],[26.1713261,44.7197628],[26.1715921,44.7197933],[26.1721243,44.7200373],[26.172562,44.7203422],[26.1727572,44.7205499],[26.1728281,44.7206472],[26.1731028,44.7209033],[26.1734976,44.7210741],[26.1737379,44.7212204],[26.174416,44.7218181],[26.1744846,44.7219157],[26.174416,44.7219584],[26.1740641,44.7219766],[26.1739353,44.7220132],[26.173798,44.7219645],[26.1736435,44.7218547],[26.1733774,44.7218181],[26.1732058,44.7218425],[26.1731543,44.7219401],[26.1731629,44.7220925],[26.1732401,44.7221352],[26.1734804,44.722184],[26.1736435,44.7222572],[26.1744846,44.7228426],[26.1748104,44.7230718],[26.1759009,44.7242635],[26.1766905,44.7248551],[26.1767248,44.7249648],[26.1766733,44.7250624],[26.1765102,44.7251112],[26.1763128,44.725099],[26.1759352,44.7250563],[26.1754413,44.7250723],[26.1744522,44.7252746],[26.1736834,44.7255696],[26.1735233,44.7256417],[26.1726822,44.7259649],[26.172193,44.7263491],[26.1718926,44.7266418],[26.1718411,44.726837],[26.1718239,44.7269955],[26.1718239,44.7271419],[26.1716694,44.7272882],[26.1715063,44.7273248],[26.1713432,44.7273126],[26.17106,44.7272638],[26.1705965,44.7271297],[26.1700558,44.7271846],[26.1680388,44.7274285],[26.167498,44.7275504],[26.1659484,44.727728],[26.1656149,44.7277323],[26.1651806,44.7277151],[26.1650738,44.727696],[26.1649489,44.727648],[26.1647824,44.7275756],[26.1644778,44.7273503],[26.1643983,44.7272866],[26.1642453,44.7272857],[26.1642449,44.7272484],[26.164063,44.7272495],[26.1640637,44.7271873],[26.1635126,44.7271032],[26.1633526,44.727045],[26.1629435,44.7274488],[26.1630303,44.7274838],[26.1640648,44.7279834],[26.1642135,44.7279831],[26.1643738,44.7280383],[26.1652235,44.7287029],[26.1655405,44.7292482],[26.1655668,44.7296725],[26.1656221,44.7300322],[26.165687,44.7303615],[26.1656269,44.7308493],[26.1662706,44.7309652],[26.1663593,44.730791],[26.1664076,44.7307652],[26.1664837,44.7307975],[26.1665252,44.7307855],[26.1665909,44.7305596],[26.1665839,44.7305205],[26.1664625,44.7303903],[26.1665968,44.7301298],[26.166717,44.7299591],[26.167601,44.728892],[26.1676096,44.728648],[26.1677984,44.7285566],[26.1680567,44.7285056],[26.1683477,44.7284468],[26.1689314,44.7281419],[26.1692146,44.72802],[26.1693606,44.7279773],[26.1700386,44.7279407],[26.1702532,44.7279712],[26.1706137,44.7281053],[26.171087,44.7285292],[26.1717522,44.7291153],[26.1726841,44.729921],[26.1729654,44.7301847],[26.1727594,44.7302639],[26.1731305,44.7306022],[26.1734674,44.7308883],[26.1736471,44.7310243],[26.1738325,44.7312305],[26.1739026,44.7312881],[26.1739943,44.7313432],[26.1740898,44.7315018],[26.1739172,44.7315558],[26.1740093,44.7318116],[26.1742259,44.7317758],[26.1742736,44.731921],[26.1741878,44.7319352],[26.1741536,44.7318307],[26.1740227,44.7318524],[26.1741493,44.7322464],[26.1742281,44.7326687],[26.1744226,44.7328409],[26.1744855,44.7328903],[26.1747237,44.7327373],[26.1747631,44.7327683],[26.1745167,44.7329267],[26.1746829,44.7330572],[26.1749031,44.7329157],[26.1749437,44.7329475],[26.1747274,44.7330865],[26.1748877,44.7332124],[26.1751275,44.7330582],[26.1751655,44.7330881],[26.1749221,44.7332446],[26.1750773,44.7333637],[26.1753058,44.7332218],[26.1753429,44.7332536],[26.1751178,44.7333955],[26.1752664,44.733515],[26.175488,44.733372],[26.1755242,44.7334019],[26.1753046,44.7335451],[26.1752148,44.7336026],[26.1757521,44.7340229],[26.1758409,44.7339733],[26.1763558,44.7343431],[26.1764673,44.7345017],[26.176433,44.7348675],[26.17633,44.7350565],[26.1754288,44.7355931],[26.1757206,44.7359528],[26.175815,44.735904],[26.1757206,44.7357638],[26.1760296,44.7355931],[26.1762013,44.7357516],[26.1762871,44.7357028],[26.1763933,44.7356631],[26.1762957,44.7355443],[26.1769051,44.7352577],[26.1768021,44.7351053],[26.1770596,44.7349514],[26.1772026,44.7350983],[26.1774531,44.7349412],[26.1773171,44.7348065],[26.1774115,44.7347638],[26.1774066,44.7346677],[26.1773458,44.734512],[26.1772343,44.7343353],[26.1769965,44.7339562],[26.1765617,44.7333737],[26.176268,44.7326429],[26.1762791,44.7324726],[26.1763503,44.7323711],[26.1764738,44.7323023],[26.1766649,44.7322765],[26.1772055,44.7322517],[26.1775,44.7322558],[26.1776199,44.7324785],[26.1777355,44.7324563],[26.1776886,44.7322579],[26.1784071,44.7322944],[26.1789042,44.732296],[26.1789853,44.7324484],[26.1790409,44.732434],[26.1790626,44.7324921],[26.1791997,44.732468],[26.1791787,44.7323751],[26.1793272,44.7323306],[26.1793071,44.7322114],[26.1793154,44.7321061],[26.1794193,44.7319136],[26.1795626,44.7318719],[26.1796504,44.7319019],[26.1797769,44.7318653],[26.1797809,44.7318085],[26.1799537,44.7317512],[26.1801498,44.7320708],[26.180218,44.7320959],[26.1802908,44.7320759],[26.1803116,44.7320328],[26.1801447,44.7316934],[26.1812307,44.7313791],[26.1817545,44.7312457],[26.1821811,44.731228],[26.1824395,44.7312626],[26.1824513,44.7312341],[26.18271,44.7312889],[26.1826968,44.7313238],[26.1828879,44.7314026],[26.1830389,44.7314756],[26.1831535,44.7315383],[26.1835639,44.7318868],[26.1836452,44.7319402],[26.183641,44.7320179],[26.1845706,44.7322377],[26.1846477,44.7321899],[26.184757,44.7321955],[26.1848063,44.7321778],[26.1851156,44.7322389],[26.1851084,44.7322798],[26.1852812,44.7323136],[26.1852755,44.7323256],[26.1855008,44.7323639],[26.185688,44.7324306],[26.1857782,44.7324703],[26.1857233,44.7325216],[26.1863569,44.7328599],[26.1866269,44.7330411],[26.1868644,44.7332392],[26.1870486,44.7334396],[26.1874993,44.7339219],[26.1879442,44.7344115],[26.1880963,44.7346103],[26.1877519,44.7346701],[26.1869229,44.7347505],[26.1866235,44.7347345],[26.1862917,44.734635],[26.1861005,44.7346148],[26.1859631,44.7346195],[26.1859075,44.7346812],[26.1859605,44.7347454],[26.1860449,44.7347799],[26.1864503,44.7348358],[26.186898,44.7349113],[26.1880315,44.7349256],[26.188231,44.7349474],[26.1883454,44.7351829],[26.1883801,44.7352263],[26.1888005,44.7358326],[26.1894779,44.7365689],[26.1893677,44.7372941],[26.1898977,44.7381198],[26.190123,44.7384708],[26.1908801,44.7397232],[26.1911662,44.7401318],[26.191631,44.7408657],[26.1920542,44.7414764],[26.1924475,44.7413601],[26.1986884,44.7395148],[26.2001524,44.7393227],[26.2056412,44.7392817],[26.2058021,44.7392764],[26.2059845,44.7392329],[26.2062162,44.7390195],[26.2063879,44.7387147],[26.2065492,44.7384495],[26.2066151,44.7383805],[26.2067974,44.7383778],[26.2088378,44.7385936],[26.2088693,44.7384327],[26.2088983,44.7382788],[26.2083874,44.7382327],[26.208373,44.7382835],[26.2081451,44.7382593],[26.2081508,44.7382136],[26.2079781,44.7381986],[26.2069463,44.7381086],[26.2067741,44.7380623],[26.2067194,44.7380118],[26.2066454,44.7378794],[26.2066218,44.7377689],[26.2065461,44.737674],[26.2064641,44.7375738],[26.2063224,44.7374654],[26.2062767,44.7374867],[26.2061732,44.7373646],[26.2062124,44.7373444],[26.2060311,44.7371463],[26.2059632,44.7371584],[26.2059299,44.7370885],[26.2060017,44.7370663],[26.205995,44.7370212],[26.2058942,44.7370212],[26.2060013,44.7366127],[26.20607,44.7366274],[26.2061709,44.7364057],[26.2063034,44.7361013],[26.2064649,44.7357194],[26.2064858,44.7356217],[26.2064767,44.7355567],[26.2064576,44.7354918],[26.2061562,44.735087],[26.2060034,44.7348855],[26.2058534,44.734759],[26.2056613,44.7346682],[26.2054754,44.7346236],[26.2050266,44.7346467],[26.2048603,44.7346364],[26.2046455,44.7345992],[26.204254,44.7345005],[26.2040275,44.734435],[26.2037014,44.7344285],[26.2031289,44.7345031],[26.2024105,44.7346146],[26.2020472,44.7346178],[26.201728,44.7346043],[26.2012195,44.7345741],[26.2007304,44.7345478],[26.2003645,44.7345648],[26.2000738,44.7346002],[26.199775,44.7347328],[26.1994957,44.7348919],[26.1993755,44.7349346],[26.1992905,44.7349115],[26.199221,44.7348553],[26.1991404,44.7346546],[26.1990199,44.7345634],[26.1987826,44.7345673],[26.1985746,44.7346729],[26.1983302,44.734885],[26.1982588,44.7350436],[26.1982263,44.7351617],[26.1982082,44.7353431],[26.1982082,44.7356479],[26.1981774,44.7357939],[26.1981311,44.7359399],[26.1980369,44.7360913],[26.1978338,44.7362427],[26.1976097,44.7362915],[26.1974057,44.7362933],[26.1971783,44.7362454],[26.1968774,44.736114],[26.196647,44.7359549],[26.1963886,44.7356967],[26.196139,44.7352555],[26.1959738,44.7350402],[26.195845,44.734886],[26.195495,44.7346176],[26.1954378,44.73467],[26.1950915,44.7344177],[26.1947717,44.7342077],[26.1942651,44.7339068],[26.1941715,44.7339844],[26.1940635,44.733915],[26.1941507,44.733841],[26.1936849,44.7335871],[26.1935899,44.7336659],[26.193495,44.7336036],[26.193588,44.7335295],[26.1929256,44.7330996],[26.1925925,44.7328825],[26.1921603,44.7325458],[26.1916848,44.7322408],[26.1914444,44.7323669],[26.191133,44.7321121],[26.1907826,44.7323011],[26.1906548,44.732176],[26.1910552,44.731943],[26.1909657,44.7318328],[26.1906989,44.7315159],[26.1906631,44.7315294],[26.1906201,44.7314731],[26.1903448,44.7310424],[26.1903019,44.73095],[26.1903098,44.7308829],[26.190407,44.7307911],[26.1902775,44.7305836],[26.1899159,44.7305546],[26.1898165,44.7304233],[26.1894758,44.729764],[26.1887669,44.7291969],[26.1883149,44.7288915],[26.1880192,44.7286629],[26.1877271,44.7283971],[26.1874921,44.7281112],[26.1873077,44.7278553],[26.1871365,44.7274743],[26.1870159,44.7271114],[26.1868614,44.7262272],[26.1869112,44.7259676],[26.187062,44.725667],[26.1872625,44.7255025],[26.1875052,44.7253612],[26.1880888,44.7251295],[26.188704,44.724776],[26.1889695,44.7245155],[26.189093,44.7243855],[26.1895566,44.723774],[26.1895349,44.7236829],[26.1890035,44.7231955],[26.188913,44.723099],[26.1887018,44.7229701],[26.1884719,44.7228826],[26.1883149,44.7227565],[26.1881489,44.7225987],[26.1877003,44.7219031],[26.1875742,44.7217869],[26.187383,44.7216707],[26.1870331,44.7214095],[26.1864545,44.7210169],[26.1861998,44.7208216],[26.1860344,44.7206147],[26.186,44.7204456],[26.1859657,44.7203399],[26.1858915,44.7202202],[26.1860248,44.7200006],[26.1860057,44.7196985],[26.1859774,44.7195311],[26.1859417,44.7194827],[26.1858352,44.7193383],[26.1857885,44.7192749],[26.1857429,44.7191314],[26.1858355,44.7189647],[26.1855005,44.7187123],[26.1849687,44.7183864],[26.1846114,44.7181865],[26.1836857,44.7177458],[26.1831789,44.7174665],[26.1829256,44.7171553],[26.1828261,44.71702],[26.1828345,44.7169562],[26.1828587,44.716905],[26.1829415,44.7168679],[26.1830951,44.7168555],[26.1833449,44.7168347],[26.1834951,44.7168333],[26.1836454,44.7168252],[26.1837863,44.7167964],[26.1839603,44.7167292],[26.1840709,44.7166799],[26.184095,44.716644],[26.1841687,44.7166119],[26.1842169,44.7165948],[26.1842484,44.7166171],[26.1843413,44.7165839],[26.1843581,44.7165426],[26.1844014,44.7165155],[26.1844718,44.7165037],[26.1845496,44.7165092],[26.1847201,44.7165319],[26.1847945,44.7165291],[26.1849016,44.7164918],[26.1849903,44.7164524],[26.1850388,44.7164129],[26.1850424,44.7163261],[26.1851706,44.7162377],[26.1857425,44.7158856],[26.1857867,44.7158203],[26.1857852,44.7157643],[26.1857268,44.7157146],[26.1856258,44.7157206],[26.185574,44.7157375],[26.1855115,44.7157801],[26.1854174,44.7158272],[26.185295,44.7158921],[26.1849044,44.7160425],[26.1843997,44.7162163],[26.1839566,44.7163407],[26.1836302,44.7163966],[26.1834828,44.7164077],[26.1832995,44.7163962],[26.1831456,44.7163715],[26.182979,44.7163257],[26.1828638,44.7162842],[26.1827443,44.7162247],[26.1826629,44.7161526],[26.1825498,44.7160535],[26.1823875,44.7158747],[26.1821907,44.7157877],[26.181994,44.715674],[26.1817562,44.715519],[26.1817175,44.7154996],[26.1816703,44.7154953],[26.1816279,44.7155273],[26.1816425,44.7155789],[26.1817922,44.7156637],[26.1819809,44.7157705],[26.1821615,44.7158814],[26.182228,44.7159263],[26.1822553,44.7159647],[26.1822657,44.7160092],[26.1822807,44.7160933],[26.1822864,44.7162325],[26.1822855,44.716334],[26.1822692,44.7163966],[26.1822687,44.7164554],[26.1822641,44.7165131],[26.1822496,44.71658],[26.1822449,44.7166357],[26.1822555,44.7167271],[26.1821873,44.7167989],[26.1821768,44.7168624],[26.1821941,44.7169158],[26.182274,44.7169639],[26.1824583,44.7171281],[26.1828016,44.7175977],[26.1830069,44.7177812],[26.1830618,44.7177485],[26.1831221,44.7177481],[26.1832061,44.7177616],[26.1832631,44.7178019],[26.1833121,44.7178427],[26.1833349,44.7178778],[26.1833175,44.7179223],[26.1832805,44.7179631],[26.1832277,44.7179786],[26.1831392,44.7180245],[26.1830794,44.7180811],[26.183067,44.7181536],[26.1830834,44.7182304],[26.1831367,44.7182468],[26.1832343,44.7183581],[26.1832597,44.7183838],[26.1833832,44.7183588],[26.1834226,44.7183816],[26.1837313,44.7185939],[26.1838842,44.7186834],[26.1843004,44.7189173],[26.1845043,44.7190319],[26.1846662,44.7191505],[26.1848001,44.7192631],[26.1849107,44.7193869],[26.1849983,44.7195181],[26.1850379,44.7196235],[26.1850541,44.719751],[26.1850459,44.7199367],[26.1849902,44.7201422],[26.1849708,44.7205183],[26.1850881,44.7208049],[26.1853775,44.721205],[26.1855287,44.721414],[26.1863933,44.7221503],[26.1865197,44.7223072],[26.1865512,44.7225467],[26.1866811,44.7228004],[26.1870169,44.7230939],[26.1872894,44.7233932],[26.1874341,44.7236631],[26.187453,44.7239391],[26.1873998,44.7242757],[26.1872881,44.724386],[26.1871257,44.7244375],[26.1867601,44.7244842],[26.1862486,44.7246009],[26.1860458,44.7246767],[26.1858671,44.7247812],[26.1856823,44.7249354],[26.1854881,44.7251295],[26.1852391,44.7253732],[26.1850332,44.7255747],[26.184962,44.7257802],[26.1848687,44.7260497],[26.1847586,44.7263674],[26.184711,44.726534],[26.1846298,44.7268187],[26.1845336,44.7270422],[26.1844153,44.7271724],[26.1842264,44.7272028],[26.1840653,44.727175],[26.1837832,44.7270522],[26.1835457,44.7270027],[26.1833166,44.7269772],[26.1828875,44.7270016],[26.1823982,44.7270809],[26.1821244,44.7271426],[26.1817691,44.7272442],[26.1816124,44.7273278],[26.1813476,44.7275165],[26.181093,44.727724],[26.1807074,44.7280383],[26.1804842,44.7281968],[26.180317,44.7282422],[26.1801666,44.7282395],[26.1799091,44.7281602],[26.1796774,44.7280139],[26.1796348,44.7279438],[26.1796259,44.7278736],[26.1797375,44.7276602],[26.1797774,44.7275355],[26.1799091,44.7271236],[26.1800207,44.7268797],[26.1801924,44.7266967],[26.1805958,44.7263064],[26.1809391,44.7258796],[26.181085,44.7254344],[26.1810645,44.7252269],[26.1810507,44.7250868],[26.1808802,44.7247126],[26.1804241,44.7242788],[26.1802286,44.7238122],[26.1802166,44.7233085],[26.1801145,44.7231556],[26.1799594,44.7229234],[26.1789787,44.7217532],[26.1785621,44.72137],[26.1785064,44.7213976],[26.1784315,44.7213309],[26.178597,44.7212499],[26.1786599,44.7213142],[26.1789066,44.7211871],[26.178837,44.7211341],[26.1787625,44.7211013],[26.1786608,44.7210796],[26.1785665,44.7210825],[26.1784692,44.721107],[26.1783499,44.7211551],[26.1778873,44.7206863],[26.1778915,44.7203609],[26.1775897,44.7199149],[26.1775169,44.7198579],[26.1774021,44.7199369],[26.1772662,44.7199014],[26.1770929,44.719799],[26.1770546,44.7197105],[26.1768871,44.7196155],[26.176866,44.7196379],[26.176553,44.7194912],[26.1766776,44.7193861],[26.176181,44.7190922],[26.1754536,44.7186652],[26.1750708,44.7184375],[26.1751024,44.718348],[26.1748334,44.7182891],[26.1744903,44.7181345],[26.173386,44.7177075],[26.1732173,44.7176032],[26.173083,44.7174826],[26.1728051,44.7168812],[26.1725845,44.7166567],[26.1722997,44.7165509],[26.1719634,44.7164818],[26.1715747,44.7164391],[26.1710822,44.716455],[26.1704662,44.7165567],[26.1700091,44.7167583],[26.1698694,44.7168102],[26.1697526,44.7168295],[26.1695553,44.7168056],[26.1694066,44.7167737],[26.1692906,44.7166991],[26.1691666,44.7164479],[26.1691803,44.7163474],[26.1692145,44.7162926],[26.1693205,44.7162734],[26.1693691,44.7161767],[26.169249,44.7159715],[26.1693351,44.7157232],[26.1694698,44.7154076],[26.1695324,44.7153734],[26.1696326,44.715391],[26.170016,44.7143427],[26.1702204,44.7142531],[26.1703704,44.7141208],[26.1702627,44.7135728],[26.1700558,44.7134015],[26.1698498,44.713127],[26.1698919,44.7125014],[26.1697685,44.7118419],[26.1696192,44.7111432],[26.1696279,44.7110628],[26.1697004,44.7108882],[26.1694807,44.7104737],[26.1694216,44.7103246],[26.1693191,44.7101719],[26.1691116,44.7099552],[26.1688139,44.7096178],[26.1684346,44.7091047],[26.1679248,44.7086674],[26.1676742,44.7084639],[26.1673704,44.7082523],[26.1665622,44.707649],[26.16579,44.7070333],[26.1656183,44.7068808],[26.1656183,44.7066795],[26.1658072,44.7065148],[26.1657929,44.7061191],[26.1656452,44.7059756],[26.165687,44.7055571],[26.165843,44.7052765],[26.1659319,44.7051011],[26.1662559,44.7045311],[26.1663119,44.7043733],[26.1663319,44.7041598],[26.166273,44.7037996],[26.1661781,44.7036327],[26.1660173,44.7034181],[26.1658205,44.7032574],[26.1653426,44.7029221],[26.1650765,44.7027574],[26.1640342,44.7022174],[26.1619718,44.7012191],[26.1615979,44.701035],[26.1600222,44.7002008],[26.159277,44.699754],[26.1587444,44.6993704],[26.1584263,44.6991267],[26.1578936,44.6988464],[26.1570688,44.6980681],[26.1568207,44.6977909],[26.1568409,44.6973776],[26.1570645,44.6966355],[26.157076,44.6964146],[26.1570236,44.6962135],[26.1568857,44.6960289],[26.1566919,44.6958813],[26.1563658,44.695686],[26.1554216,44.6953078],[26.1549925,44.6951857],[26.154816,44.6952679],[26.1538869,44.694464],[26.1530137,44.6936582],[26.1528148,44.6932411],[26.1523418,44.6926384],[26.1516572,44.6917648],[26.1513962,44.6914882],[26.1510376,44.6911457],[26.1509413,44.6910123],[26.1510681,44.6907458],[26.1513277,44.6904911],[26.1516003,44.6903877],[26.1519455,44.6904021],[26.1520664,44.6904051],[26.15257,44.6904525],[26.1528553,44.6904753],[26.153163,44.6906526],[26.153753,44.6906965],[26.1541082,44.6907381],[26.1549644,44.6908202],[26.1555883,44.6908847],[26.1562263,44.6909896],[26.1562646,44.6910568],[26.1565946,44.691048],[26.1566796,44.6910822],[26.1569923,44.6910001],[26.1574215,44.6908414],[26.1577648,44.6905973],[26.1576738,44.6903504],[26.1578507,44.6900848],[26.1581217,44.6901517],[26.1582375,44.6899038],[26.1577648,44.6898407],[26.1573357,44.6895173],[26.1570353,44.6892305],[26.156995,44.6891226],[26.1569923,44.6890108],[26.1571479,44.6888899],[26.1574014,44.6888131],[26.1578132,44.6888255],[26.158391,44.6888509],[26.1585939,44.6888318],[26.1587884,44.6887789],[26.1592068,44.6886447],[26.1597282,44.6882753],[26.1598934,44.6882176],[26.1605543,44.6880711],[26.1610436,44.687827],[26.1611431,44.6877033],[26.1612152,44.6875341],[26.1611892,44.6874077]],[[26.1736006,44.7286968],[26.1738849,44.7286242],[26.1741718,44.7286643],[26.1757464,44.7289529],[26.175918,44.7290749],[26.1760341,44.7291266],[26.1768511,44.7294908],[26.1781925,44.73027],[26.1782213,44.730515],[26.1781067,44.7306176],[26.1778492,44.7306481],[26.1774785,44.7306864],[26.1772678,44.7306853],[26.1767474,44.7306105],[26.1765875,44.7305261],[26.1758494,44.730514],[26.1753344,44.7304652],[26.174888,44.7302944],[26.1745276,44.7301603],[26.1743301,44.7299042],[26.1742014,44.7295017],[26.1740727,44.7292944],[26.1737551,44.7290322],[26.1735445,44.7288588],[26.1736006,44.7286968]]]},"properties":{"name":"Lacul Snagov","name_ro":"Lacul Snagov","type":"lake","source":"manual_premap","source_detail":"HOTOSM Waterways HDX snapshot 2026-08-07, water=lake/reservoir name match (1 candidate features, largest polygon selected)","osm_type":"way","osm_id":"relation/3598010","geocode_tier":"tier1","confidence":"high"}}]}