{"type":"FeatureCollection","metadata":{"pipeline":"tier1_premap","pipeline_version":"1.0","generated_at":"2026-08-11T10:41:31.099535+00:00"},"features":[{"type":"Feature","id":"lacul-vidraru","geometry":{"type":"Polygon","coordinates":[[[24.6060603,45.4479996],[24.6062641,45.447691],[24.60635,45.4473824],[24.6065109,45.4470512],[24.6067713,45.4468882],[24.6068697,45.4467983],[24.6068049,45.4466434],[24.6068054,45.446486],[24.6069293,45.4463286],[24.6073156,45.4459673],[24.6075838,45.4456512],[24.6077125,45.4451243],[24.6078198,45.4448156],[24.6080237,45.4444242],[24.6083992,45.4439726],[24.608721,45.4437468],[24.6089571,45.4435134],[24.6090951,45.4432633],[24.6090885,45.4430278],[24.6091058,45.4428041],[24.6092575,45.4424219],[24.609354,45.4420907],[24.6093648,45.4418046],[24.6094399,45.4413229],[24.6095686,45.4410669],[24.6100246,45.4402426],[24.6100622,45.4398926],[24.6098798,45.4395011],[24.6098905,45.4392301],[24.6100407,45.4390118],[24.6104055,45.4387182],[24.6109741,45.4383568],[24.6114891,45.4379503],[24.611636,45.437731],[24.6117399,45.4376046],[24.6119213,45.4374961],[24.6122186,45.4373782],[24.6125405,45.4371448],[24.6133774,45.4364823],[24.6136626,45.4362101],[24.6138849,45.435917],[24.6140104,45.4355412],[24.6141606,45.4351648],[24.6143072,45.4348521],[24.614462,45.4346674],[24.6146709,45.4346225],[24.6149075,45.4345952],[24.6150952,45.4344619],[24.6151969,45.4344261],[24.6153926,45.434385],[24.615502,45.4343435],[24.6156247,45.4342464],[24.615708,45.4342222],[24.6158045,45.4342213],[24.6158892,45.4343059],[24.6159911,45.4344638],[24.6160703,45.4346152],[24.6162205,45.4348787],[24.6163814,45.4350293],[24.6166501,45.435251],[24.6171777,45.4356322],[24.6172955,45.4357338],[24.6173902,45.4358539],[24.6174436,45.4360005],[24.6174543,45.4361661],[24.6175294,45.4363769],[24.6177011,45.4365425],[24.6177869,45.4367157],[24.6177762,45.4369114],[24.6177547,45.4371373],[24.6178084,45.4373405],[24.6178737,45.4376798],[24.617829,45.4378982],[24.6178835,45.4380934],[24.6179479,45.4382874],[24.6180122,45.4384397],[24.6183341,45.4387333],[24.6187525,45.4390118],[24.61901,45.4391172],[24.6190904,45.4392226],[24.6190851,45.439328],[24.6191334,45.4393882],[24.6192997,45.439471],[24.6194821,45.4395689],[24.6198254,45.4396818],[24.6201365,45.4397646],[24.6204798,45.4398173],[24.6206515,45.4399377],[24.6206515,45.4400055],[24.6206515,45.440141],[24.6207052,45.4402614],[24.6208768,45.4405249],[24.6212845,45.4408561],[24.6217888,45.4412175],[24.6224861,45.4416616],[24.622926,45.4419627],[24.6230548,45.4420004],[24.6231942,45.4419627],[24.623323,45.4419627],[24.623441,45.4420606],[24.623559,45.4422563],[24.62372,45.4425424],[24.6238809,45.4428359],[24.6239882,45.443137],[24.624074,45.4433252],[24.6242886,45.4437392],[24.6247285,45.4443941],[24.6249216,45.4448533],[24.6249752,45.445192],[24.6251576,45.4453124],[24.6251791,45.4454103],[24.6251254,45.4455006],[24.6249752,45.4455383],[24.6248143,45.4456813],[24.6248036,45.445892],[24.6247821,45.4463136],[24.6247499,45.4466974],[24.6247821,45.4470136],[24.6247607,45.4472243],[24.6247714,45.4474652],[24.624825,45.4476082],[24.6249001,45.4477663],[24.624887,45.4479449],[24.624825,45.4480523],[24.6247928,45.4481577],[24.6247499,45.4483609],[24.6246748,45.4485491],[24.6245301,45.4488535],[24.624455,45.4490718],[24.6243477,45.449418],[24.6243048,45.4496212],[24.6243048,45.4498245],[24.6244657,45.4500804],[24.6245622,45.4503062],[24.6245822,45.4504385],[24.6245638,45.4505935],[24.6244626,45.4507164],[24.6242189,45.4509459],[24.6239722,45.4512244],[24.6238549,45.4514304],[24.6238106,45.4516105],[24.6238374,45.4517889],[24.6239347,45.4519292],[24.6240665,45.4520647],[24.624227,45.4521526],[24.6244013,45.4523082],[24.6246833,45.4525168],[24.6251953,45.4526996],[24.625556,45.4528707],[24.625965,45.4530371],[24.6263007,45.4531732],[24.6268005,45.4533673],[24.6269208,45.453389],[24.6269684,45.4533878],[24.6269709,45.4533375],[24.626868,45.4532438],[24.6261287,45.4528877],[24.6253991,45.4525716],[24.6250772,45.4524211],[24.6246159,45.4520975],[24.6243691,45.4519394],[24.6242603,45.4517824],[24.6242404,45.4516158],[24.6243369,45.4514427],[24.6246374,45.4510739],[24.6248627,45.450833],[24.6250129,45.4507126],[24.6252167,45.4505244],[24.6252811,45.4503965],[24.6252704,45.4502685],[24.6252167,45.4500804],[24.6251094,45.4498922],[24.624927,45.4498169],[24.6248412,45.4497266],[24.6247768,45.4495987],[24.6247285,45.4493544],[24.6248358,45.449234],[24.6249538,45.4490007],[24.6250181,45.448677],[24.6250396,45.4484437],[24.6250074,45.4483383],[24.6250503,45.4481652],[24.6251576,45.4479921],[24.625222,45.4477286],[24.6251684,45.447277],[24.6252327,45.4469684],[24.6253325,45.4465612],[24.6253105,45.4462701],[24.6254282,45.4460162],[24.6256082,45.4457264],[24.6257048,45.4453952],[24.6255755,45.4449715],[24.6254688,45.4446877],[24.6254473,45.4445371],[24.6255009,45.4444468],[24.6256297,45.4442436],[24.6258014,45.4441231],[24.6260267,45.4440403],[24.6261018,45.4439801],[24.6258765,45.4439726],[24.6253722,45.4439952],[24.6251576,45.4438597],[24.6250396,45.4436188],[24.6249001,45.4430693],[24.6246534,45.4424972],[24.6244066,45.4419025],[24.6242028,45.4416767],[24.6237521,45.4414132],[24.6231191,45.4410142],[24.6225934,45.4406454],[24.6222394,45.4403518],[24.6221321,45.4401937],[24.6220784,45.4400657],[24.6221643,45.4399302],[24.6224003,45.4397646],[24.6225183,45.4395312],[24.6225827,45.4393957],[24.6227329,45.4392302],[24.622454,45.4392226],[24.6221106,45.4391849],[24.6218961,45.4391172],[24.6217524,45.4389245],[24.6217802,45.4385786],[24.6217416,45.4383828],[24.6216901,45.4381558],[24.621688,45.4379383],[24.6216681,45.4377034],[24.6215732,45.4374414],[24.6214214,45.437208],[24.6212658,45.4369558],[24.621145,45.4366103],[24.621145,45.4362489],[24.621188,45.4359478],[24.6212845,45.4356843],[24.6212952,45.4353304],[24.6211558,45.4349691],[24.6209519,45.4346152],[24.620555,45.4342388],[24.6201902,45.4340107],[24.6197288,45.4336591],[24.6193855,45.4332299],[24.61901,45.4327857],[24.6185701,45.4323641],[24.6183019,45.4320705],[24.618259,45.4318597],[24.6182483,45.4315961],[24.6183448,45.4313703],[24.6185272,45.4312272],[24.6186881,45.4311444],[24.6188666,45.431038],[24.6188223,45.4307864],[24.6189943,45.4306019],[24.6190103,45.4302857],[24.6188502,45.430086],[24.6187875,45.4298514],[24.6187588,45.4295716],[24.6187684,45.4292464],[24.618828,45.4290056],[24.6189618,45.4288082],[24.6192114,45.4286537],[24.6196351,45.4285484],[24.6200452,45.4285558],[24.6201203,45.4285241],[24.6200902,45.4284729],[24.6195696,45.4282482],[24.6192839,45.4279326],[24.6191246,45.4276466],[24.6190487,45.4274164],[24.6190636,45.4270861],[24.6191817,45.426943],[24.6192889,45.4268752],[24.6194284,45.426879],[24.6196698,45.4270032],[24.6198361,45.4270597],[24.6201043,45.4271237],[24.6203726,45.4271576],[24.6205067,45.4271576],[24.6205389,45.4271162],[24.6205228,45.4269844],[24.6204369,45.4268677],[24.6202385,45.4266719],[24.6200614,45.4264837],[24.619981,45.426254],[24.6199059,45.4259604],[24.6197825,45.4257269],[24.6197127,45.4255952],[24.619702,45.4255086],[24.6197342,45.4254107],[24.6198629,45.4252149],[24.620099,45.4250681],[24.6202498,45.4249472],[24.6204208,45.4248836],[24.6206461,45.424876],[24.6208929,45.4248986],[24.6211933,45.4248422],[24.6214723,45.4247292],[24.6215956,45.4246464],[24.6215581,45.4245937],[24.6215152,45.4245221],[24.6215259,45.4244468],[24.6215956,45.424413],[24.6216493,45.4244054],[24.6217834,45.424364],[24.6218692,45.4242586],[24.6219229,45.4241494],[24.6221214,45.4240779],[24.622352,45.4240252],[24.6225505,45.4239875],[24.6227275,45.4239461],[24.622808,45.423852],[24.6226685,45.423724],[24.6225452,45.4236298],[24.6224861,45.4235206],[24.6224754,45.4233851],[24.6225881,45.4232157],[24.6230709,45.4228693],[24.6233391,45.4227789],[24.6235751,45.422745],[24.623956,45.4227751],[24.6243691,45.4228806],[24.6247553,45.4229596],[24.624884,45.4229145],[24.6248948,45.4228015],[24.6248411,45.4226584],[24.6247016,45.4225379],[24.6246856,45.4224513],[24.6247499,45.4224062],[24.6250021,45.4223798],[24.6252864,45.4223346],[24.6253883,45.4222669],[24.6253025,45.4221991],[24.625045,45.4221162],[24.6247559,45.4218896],[24.6246376,45.4217279],[24.6245789,45.421536],[24.6246534,45.421303],[24.6249055,45.4211034],[24.6252274,45.4209942],[24.6256243,45.4209189],[24.6260857,45.4208097],[24.6263378,45.4206666],[24.6264451,45.420516],[24.6264987,45.420388],[24.6265309,45.4202449],[24.6265363,45.4200717],[24.6265846,45.4199324],[24.6266328,45.419827],[24.6267294,45.4196764],[24.6268858,45.4194984],[24.6270736,45.4193631],[24.6272509,45.4192782],[24.6272436,45.4192441],[24.6271925,45.4192435],[24.6269172,45.4193488],[24.6267455,45.4194279],[24.6265685,45.4196199],[24.6263968,45.4198307],[24.6262681,45.4200265],[24.6261512,45.4201348],[24.6259784,45.4202148],[24.6257531,45.4202336],[24.6254741,45.4201847],[24.6250718,45.4200755],[24.6249216,45.4199814],[24.624825,45.4198496],[24.6248197,45.4195483],[24.6249055,45.4193036],[24.6251254,45.4189798],[24.6252649,45.4186597],[24.6253078,45.4184865],[24.62534,45.4181439],[24.6253615,45.4178276],[24.6254634,45.4175],[24.6257423,45.4170895],[24.62615,45.4166904],[24.6265631,45.4162084],[24.6267455,45.4159561],[24.6269172,45.4158394],[24.627062,45.4157641],[24.6271317,45.4156624],[24.6273141,45.4153837],[24.6274911,45.4151201],[24.6275662,45.414962],[24.6276253,45.414898],[24.6277379,45.4148339],[24.6279042,45.4148189],[24.6280705,45.4148302],[24.6282475,45.4148151],[24.628387,45.4146871],[24.6284997,45.4145967],[24.6287786,45.4144348],[24.6289825,45.4143557],[24.6290897,45.4142955],[24.6290844,45.4142164],[24.6289556,45.4141825],[24.6286767,45.4141862],[24.6282261,45.4141034],[24.6280276,45.4139904],[24.6278613,45.4137494],[24.6278613,45.413467],[24.6279364,45.4132034],[24.6280927,45.4127876],[24.6282261,45.412518],[24.6283548,45.4123486],[24.6284343,45.4122077],[24.6284678,45.4120655],[24.628446,45.4119569],[24.6282816,45.4118075],[24.6280866,45.4116933],[24.6278345,45.4115879],[24.6277594,45.4114561],[24.6277755,45.4113242],[24.6278398,45.4112376],[24.6278827,45.4110945],[24.6279418,45.4110041],[24.6279954,45.4109703],[24.6281617,45.41091],[24.6282904,45.4108535],[24.6284138,45.4107556],[24.6284728,45.4106313],[24.6284836,45.4104844],[24.628387,45.4103338],[24.6282958,45.4101493],[24.6283065,45.4099497],[24.6284031,45.4097651],[24.6285426,45.4096936],[24.6288591,45.4096258],[24.6292399,45.4095279],[24.6294653,45.4094413],[24.6296423,45.4093434],[24.6297978,45.4092831],[24.6300339,45.4092643],[24.6303236,45.4092115],[24.630522,45.4091249],[24.6307098,45.4090948],[24.6310799,45.4090571],[24.6313964,45.4089781],[24.6316003,45.4089178],[24.6316808,45.4088161],[24.6316271,45.4087709],[24.6315413,45.4087709],[24.6312945,45.4087559],[24.6311229,45.4086805],[24.6309941,45.4085299],[24.6308815,45.4084395],[24.6306615,45.4083981],[24.630463,45.4083529],[24.6302485,45.408255],[24.6299963,45.4081194],[24.6297335,45.4080817],[24.6295618,45.4080704],[24.6294277,45.4080064],[24.6292614,45.4079725],[24.6291005,45.4079989],[24.6288859,45.4079951],[24.628843,45.4079311],[24.6287518,45.4078558],[24.6286928,45.407788],[24.6286928,45.4077051],[24.6287035,45.4076449],[24.6286338,45.407498],[24.628446,45.4073134],[24.6284299,45.4071515],[24.6283924,45.4069594],[24.6284675,45.4067108],[24.6284514,45.4065075],[24.6284031,45.4063305],[24.6284246,45.4062024],[24.628564,45.4060216],[24.628564,45.4058559],[24.6284728,45.4057203],[24.6282958,45.4055169],[24.6283334,45.4053136],[24.6284621,45.4051968],[24.6285855,45.405178],[24.6287303,45.405114],[24.6289074,45.4050047],[24.628961,45.4048578],[24.6289932,45.4046771],[24.6289449,45.4045151],[24.6287679,45.404323],[24.6286606,45.4040857],[24.6285855,45.4037355],[24.6284782,45.4033438],[24.6284836,45.4031592],[24.6285587,45.402986],[24.6285587,45.4028654],[24.6283709,45.4026922],[24.6281832,45.4024926],[24.6279954,45.4022628],[24.6279739,45.4021121],[24.6278613,45.4019916],[24.6276628,45.4018485],[24.6273624,45.4016715],[24.6269601,45.4015472],[24.626724,45.4014116],[24.6264987,45.4011893],[24.6264504,45.4010274],[24.6265577,45.4008616],[24.6268206,45.4007147],[24.6269064,45.4005942],[24.6268796,45.4003419],[24.6267187,45.4001987],[24.6264129,45.4000518],[24.6262466,45.3999388],[24.626252,45.3998484],[24.6263163,45.3996111],[24.6264022,45.3994605],[24.6266972,45.3993023],[24.6274268,45.3989783],[24.6275394,45.3988201],[24.6275126,45.3987146],[24.6273731,45.398628],[24.6268206,45.3983794],[24.6267509,45.3983191],[24.6267616,45.3982476],[24.626885,45.3981609],[24.6270083,45.3979726],[24.6269869,45.3978408],[24.6268689,45.3976976],[24.6265899,45.3975696],[24.6264719,45.3974076],[24.6263968,45.3971853],[24.6262627,45.3969932],[24.62615,45.3968576],[24.626091,45.3966617],[24.6260535,45.3964772],[24.6259891,45.396172],[24.625973,45.395882],[24.6259516,45.3957163],[24.6259837,45.3956296],[24.6261071,45.3955317],[24.6263593,45.3954827],[24.626547,45.3954752],[24.6270083,45.3954789],[24.6274321,45.3954865],[24.6277325,45.3955128],[24.6281295,45.3955769],[24.6283816,45.3956409],[24.6286445,45.3956447],[24.6289503,45.3956861],[24.6291541,45.3957728],[24.629476,45.3958669],[24.6296262,45.3959686],[24.6298569,45.3960741],[24.6300983,45.3962474],[24.6303021,45.396383],[24.6304684,45.3964734],[24.6308064,45.3966542],[24.6309673,45.3968388],[24.6312033,45.396997],[24.6313911,45.397223],[24.6316808,45.3975093],[24.6320129,45.3977648],[24.6321888,45.3979844],[24.6324103,45.3980931],[24.6326178,45.3981675],[24.6329345,45.398375],[24.6331506,45.3985828],[24.6338104,45.3988653],[24.6341806,45.39908],[24.634304,45.399291],[24.6343898,45.3994831],[24.6345293,45.3995659],[24.6348887,45.3995697],[24.6351175,45.399628],[24.6353822,45.3997317],[24.6357631,45.4000029],[24.636144,45.4003682],[24.6363049,45.4005904],[24.6365511,45.4008906],[24.6367871,45.4011166],[24.6370339,45.4013577],[24.6371841,45.4014632],[24.6373992,45.4015057],[24.6377973,45.401855],[24.6380813,45.4020487],[24.6383553,45.4021337],[24.6386106,45.4022482],[24.6387088,45.4023788],[24.6389549,45.4025754],[24.6391548,45.4026712],[24.6393226,45.4027146],[24.6394963,45.4028322],[24.6396298,45.4029631],[24.6398144,45.4030354],[24.6400074,45.4030698],[24.6401625,45.4031237],[24.6403476,45.4032044],[24.6405659,45.403377],[24.6407725,45.4034566],[24.6409833,45.4035393],[24.6412938,45.4036488],[24.6414898,45.4037349],[24.641626,45.4037986],[24.6417868,45.4039222],[24.6419356,45.4040095],[24.6421226,45.4041524],[24.6422799,45.4042391],[24.642592,45.4043494],[24.6428548,45.4044021],[24.6431964,45.4044048],[24.6437059,45.4043779],[24.6441047,45.4044097],[24.6444642,45.4045151],[24.6447431,45.404613],[24.645006,45.4047223],[24.6452205,45.4049294],[24.6453761,45.4051441],[24.6455639,45.4052985],[24.6457999,45.4053851],[24.6460467,45.405404],[24.6462612,45.4053889],[24.6464007,45.4053701],[24.646508,45.4053362],[24.6465348,45.4052759],[24.6464705,45.4052194],[24.6461754,45.4051102],[24.6459179,45.4049746],[24.6458106,45.4048767],[24.64558,45.4045716],[24.6453386,45.4043645],[24.6450006,45.4041422],[24.6446948,45.4040443],[24.6442657,45.4039426],[24.6438071,45.4038982],[24.6435039,45.4038937],[24.6432035,45.4038937],[24.6428548,45.4038786],[24.6427046,45.4038447],[24.6425169,45.4037016],[24.6424525,45.4035622],[24.6424793,45.4034116],[24.642533,45.4032345],[24.642536,45.4030718],[24.6424418,45.4028843],[24.6422648,45.4027487],[24.6420555,45.402647],[24.6418141,45.4025942],[24.6415566,45.4025905],[24.641326,45.4025264],[24.6412133,45.402421],[24.6411221,45.4023042],[24.640988,45.4021536],[24.6407037,45.4020443],[24.6403657,45.4019426],[24.640119,45.4018786],[24.6399634,45.401792],[24.6398132,45.4016564],[24.639781,45.4015208],[24.6398776,45.4013061],[24.6398025,45.401163],[24.6395289,45.4009483],[24.6392929,45.4008579],[24.6390124,45.4008157],[24.6388056,45.400707],[24.6386176,45.4005714],[24.6384577,45.4004321],[24.6383134,45.4002211],[24.6381946,45.4001081],[24.6380161,45.3999577],[24.6379142,45.3998635],[24.6377533,45.3997354],[24.637469,45.399468],[24.6372222,45.3991478],[24.6371686,45.3990311],[24.6371525,45.3989256],[24.6371256,45.3988276],[24.6370184,45.3987749],[24.6367555,45.3987146],[24.6365516,45.3986393],[24.6364873,45.3985979],[24.6364712,45.3985451],[24.6363693,45.3984999],[24.6361869,45.3984547],[24.636042,45.3983568],[24.6359186,45.39824],[24.6358167,45.3980969],[24.6358006,45.398014],[24.6357953,45.3978935],[24.635806,45.3977843],[24.6358328,45.3976487],[24.6357953,45.3975583],[24.6356826,45.397498],[24.6353876,45.3974226],[24.6351676,45.3973247],[24.6349155,45.397174],[24.6346205,45.3970045],[24.6343898,45.3968463],[24.6339821,45.3965261],[24.6337465,45.3963052],[24.6334586,45.3959959],[24.6329984,45.3954762],[24.6326387,45.3951075],[24.6321945,45.3946611],[24.6318992,45.3943823],[24.6315198,45.3940814],[24.6308975,45.393716],[24.6300822,45.3933468],[24.6294927,45.3930846],[24.6285805,45.3927832],[24.6279096,45.3926386],[24.6274965,45.3925783],[24.6270888,45.3925406],[24.6265312,45.3924735],[24.6261232,45.3924126],[24.6257692,45.3922995],[24.6255439,45.3921865],[24.6254634,45.3920999],[24.6254473,45.3919831],[24.6255009,45.3918663],[24.6256619,45.3917834],[24.6258389,45.3917119],[24.6260052,45.3915762],[24.6260267,45.3914067],[24.6261018,45.3912975],[24.6262573,45.3911656],[24.6265041,45.3910112],[24.6267133,45.3907588],[24.6269118,45.3905968],[24.6270137,45.3903933],[24.6271425,45.3901899],[24.6273088,45.3900467],[24.627518,45.3898697],[24.6276574,45.3896549],[24.6279847,45.3892744],[24.6282475,45.3889655],[24.6282851,45.3888337],[24.6283977,45.3886189],[24.6284192,45.3884758],[24.628446,45.3883326],[24.6285318,45.3882233],[24.6286552,45.3881555],[24.6288644,45.3881367],[24.629197,45.3881292],[24.6294974,45.3880915],[24.6297764,45.3880124],[24.630286,45.3879257],[24.6307795,45.3879295],[24.6312141,45.3880048],[24.6314286,45.388035],[24.6316164,45.3880199],[24.6316915,45.3879709],[24.6316968,45.3878956],[24.6316432,45.3877788],[24.6314447,45.3874925],[24.6309995,45.3869989],[24.6303718,45.3864225],[24.6300071,45.3861437],[24.6298461,45.3860043],[24.6297764,45.3859139],[24.6297603,45.3858385],[24.6298159,45.3856723],[24.6299181,45.3854713],[24.6300074,45.3851291],[24.6300553,45.3847271],[24.6300983,45.384388],[24.6301626,45.3840602],[24.6302869,45.3837431],[24.6303993,45.3834641],[24.6305355,45.3830629],[24.6306525,45.3827159],[24.6308064,45.382376],[24.630978,45.382052],[24.6311389,45.3817468],[24.6312731,45.3815207],[24.6313482,45.3810459],[24.631434,45.3809743],[24.6315896,45.3808688],[24.6317076,45.3808048],[24.6318417,45.3806842],[24.6319061,45.3805222],[24.6320402,45.3804205],[24.6322065,45.3803828],[24.6326378,45.380407],[24.633347,45.3803414],[24.6338936,45.3803343],[24.6342771,45.3803413],[24.6347594,45.3804608],[24.6350282,45.3805184],[24.6351778,45.3805173],[24.6352588,45.3804883],[24.6352696,45.3803903],[24.6351998,45.3802396],[24.6349477,45.3799382],[24.6347546,45.3796706],[24.6345036,45.3792521],[24.6344484,45.378979],[24.6343159,45.3788526],[24.6340932,45.3786036],[24.6339457,45.3784288],[24.6338378,45.3783078],[24.6337917,45.3781597],[24.6338158,45.3779223],[24.6339124,45.3776623],[24.6339928,45.3774098],[24.634025,45.3771385],[24.6340357,45.3769576],[24.6340733,45.3768446],[24.6342879,45.3764753],[24.6344005,45.3762831],[24.634599,45.3760834],[24.6347793,45.3758951],[24.6349874,45.3756878],[24.6353694,45.3754432],[24.6357406,45.3752134],[24.636262,45.3749228],[24.636793,45.3747306],[24.6375923,45.3744743],[24.6379142,45.3743387],[24.6380537,45.3742784],[24.63822,45.3742859],[24.6385901,45.3743575],[24.6390783,45.3744178],[24.6395664,45.3744253],[24.6399205,45.3744291],[24.6402263,45.3744894],[24.6406393,45.374674],[24.6411078,45.3748313],[24.6413873,45.3749368],[24.6415332,45.3749545],[24.6416365,45.3748801],[24.6415996,45.3747607],[24.6414976,45.3745648],[24.6413347,45.3743176],[24.6411789,45.3740615],[24.6411201,45.3739351],[24.6411419,45.3738241],[24.6412616,45.3737056],[24.6413313,45.3735285],[24.6413367,45.3733626],[24.6412509,45.3731177],[24.6412294,45.3728916],[24.6412992,45.3726693],[24.6414815,45.3724545],[24.6417444,45.3722472],[24.6421414,45.3720625],[24.6426456,45.371746],[24.6428709,45.3713917],[24.642937,45.3710445],[24.6430845,45.3708639],[24.6432947,45.3707586],[24.6436488,45.3706418],[24.6439277,45.37054],[24.6440374,45.3704249],[24.6441047,45.3702762],[24.6442603,45.3701862],[24.6444057,45.3701632],[24.6445617,45.3701589],[24.6447699,45.3702009],[24.6449309,45.3703177],[24.6449477,45.3704997],[24.6450491,45.3706149],[24.6452688,45.3707096],[24.6457087,45.3706832],[24.645934,45.3705966],[24.6460628,45.3704986],[24.646111,45.3703516],[24.6461379,45.3702197],[24.6461893,45.3701369],[24.6463095,45.3700652],[24.6465509,45.3700388],[24.6468996,45.3700803],[24.6471142,45.3700636],[24.6473073,45.3700049],[24.6475863,45.3699408],[24.6478652,45.3699107],[24.6480851,45.369922],[24.6483641,45.369971],[24.6488844,45.3701293],[24.6491419,45.3702423],[24.6492921,45.3702687],[24.6495818,45.3702536],[24.6497803,45.370231],[24.6499412,45.3701443],[24.6500861,45.3700765],[24.6503275,45.3700577],[24.6505581,45.3700651],[24.650762,45.3701104],[24.6509927,45.3702046],[24.6513145,45.3702423],[24.6514969,45.3702084],[24.6516096,45.3701293],[24.6519207,45.3701142],[24.652087,45.3702348],[24.6522613,45.3702819],[24.6525966,45.3702838],[24.6528809,45.3703328],[24.6530633,45.3704383],[24.6531035,45.3705513],[24.6532081,45.370638],[24.6533906,45.3706871],[24.6535273,45.3707511],[24.6536373,45.3708378],[24.653691,45.3709169],[24.6538009,45.3709866],[24.6539967,45.3710488],[24.6544903,45.3711958],[24.6548765,45.3712485],[24.6551394,45.3712674],[24.6554169,45.3712857],[24.6557328,45.3713236],[24.6559799,45.3714024],[24.6561612,45.3714992],[24.6563806,45.3716884],[24.6565257,45.3718391],[24.6564483,45.3715915],[24.6563142,45.3713729],[24.6560889,45.3711656],[24.6558904,45.3710563],[24.655662,45.3709621],[24.6554022,45.3708943],[24.655134,45.3708717],[24.6549087,45.3707963],[24.6547853,45.3707209],[24.6547048,45.3706229],[24.6545332,45.3703742],[24.6543508,45.370133],[24.6540879,45.3699144],[24.6537875,45.3697599],[24.6534174,45.3696016],[24.6527254,45.3694094],[24.6521246,45.3693115],[24.6518295,45.36927],[24.6512662,45.3691758],[24.6508317,45.3690966],[24.6505689,45.3690288],[24.650188,45.3689233],[24.649893,45.3688554],[24.6495604,45.3687838],[24.6493458,45.3687122],[24.6490883,45.3686331],[24.6488201,45.3685577],[24.6484821,45.3684522],[24.6482944,45.3683693],[24.6481763,45.3682977],[24.6481066,45.3682185],[24.648112,45.3680489],[24.6481597,45.367901],[24.6482241,45.3677163],[24.648385,45.3673884],[24.6483904,45.3673319],[24.6483314,45.3673206],[24.6482509,45.3673809],[24.6480417,45.367656],[24.6477574,45.367901],[24.6474951,45.3679886],[24.6472161,45.3679999],[24.6466958,45.3679283],[24.6465563,45.3677625],[24.6465456,45.3675326],[24.6465295,45.3673366],[24.6464753,45.3671812],[24.6463519,45.3671284],[24.646154,45.3671482],[24.6458155,45.3671887],[24.6453761,45.367265],[24.6451347,45.3672462],[24.644786,45.3671218],[24.6445715,45.3669447],[24.6445017,45.3668052],[24.6444266,45.3666808],[24.6441208,45.3664434],[24.643858,45.3662738],[24.6436112,45.3661758],[24.6433156,45.366156],[24.6430367,45.3662352],[24.6427792,45.3663972],[24.6424359,45.3666271],[24.6420765,45.3668194],[24.6417551,45.3669635],[24.6412992,45.3670427],[24.6409451,45.3670314],[24.6407037,45.3669597],[24.6404516,45.366858],[24.6402472,45.366646],[24.6400922,45.3665037],[24.6399366,45.3664962],[24.6397167,45.3666168],[24.6395557,45.3668504],[24.639368,45.3670087],[24.6389817,45.3671595],[24.6384989,45.3672085],[24.638,45.3672311],[24.6378123,45.367201],[24.6376674,45.3671067],[24.6375494,45.3669371],[24.6375172,45.3667525],[24.6374743,45.3664924],[24.63741,45.3662813],[24.6373509,45.3659572],[24.6372758,45.3656746],[24.6372168,45.3654296],[24.6371686,45.3653429],[24.637072,45.3652977],[24.6369647,45.365324],[24.6368145,45.3654296],[24.6365485,45.3656845],[24.6363478,45.3659572],[24.6362137,45.366206],[24.6360581,45.3665226],[24.6358871,45.3669005],[24.6357954,45.367158],[24.6357033,45.3671828],[24.6355945,45.3671435],[24.6355441,45.3670913],[24.6355447,45.3669054],[24.6355909,45.366729],[24.6355807,45.3661871],[24.635527,45.3658555],[24.635468,45.3657349],[24.6353768,45.3657085],[24.6352588,45.3657311],[24.6351086,45.3657952],[24.6348264,45.365947],[24.6344381,45.3661984],[24.6342067,45.3665414],[24.6338483,45.3667037],[24.6337013,45.3667622],[24.633487,45.3668572],[24.6333306,45.366944],[24.6332867,45.3669948],[24.6332592,45.3670629],[24.6332259,45.367066],[24.6331673,45.3671382],[24.6331471,45.3671683],[24.6331118,45.3671555],[24.6330874,45.3671305],[24.6330993,45.3670877],[24.6331495,45.3670473],[24.6331715,45.3670077],[24.633178,45.3669328],[24.6331158,45.3668495],[24.6330457,45.3666885],[24.6326996,45.366348],[24.6324881,45.3660812],[24.6322727,45.3660411],[24.6321253,45.3660379],[24.6320123,45.3660991],[24.6318098,45.3662612],[24.6315958,45.3663928],[24.6313838,45.3664934],[24.6311731,45.3665688],[24.6309493,45.3666292],[24.6307556,45.3666549],[24.6305283,45.3666733],[24.6302355,45.3666702],[24.6299617,45.3666352],[24.6296635,45.3665633],[24.6294123,45.3664792],[24.6291512,45.3663635],[24.6291111,45.3664723],[24.6290525,45.3666018],[24.6290318,45.366706],[24.6290536,45.3667997],[24.6291045,45.3669245],[24.6291378,45.3669817],[24.6289964,45.3671153],[24.6289575,45.3671966],[24.6289446,45.3672466],[24.629185,45.3672952],[24.6293344,45.3673347],[24.6294813,45.3673265],[24.6297782,45.3673345],[24.6299803,45.367334],[24.6300651,45.3674257],[24.6302779,45.3674431],[24.6303925,45.3675263],[24.6304945,45.3676583],[24.6305261,45.3677513],[24.6307337,45.3677859],[24.6308225,45.3678692],[24.6307794,45.3680516],[24.6308304,45.3681083],[24.6310241,45.3681592],[24.6310738,45.3683292],[24.6311323,45.3684941],[24.6311651,45.3686455],[24.6311787,45.3687648],[24.6311787,45.3688816],[24.6311251,45.3689608],[24.6310285,45.369006],[24.6308944,45.3690361],[24.630755,45.3690286],[24.6306208,45.3690022],[24.6305565,45.369006],[24.6305028,45.3690399],[24.6304867,45.3690927],[24.6304063,45.3691492],[24.6302829,45.3691982],[24.6302078,45.3692133],[24.6300737,45.3692321],[24.6299503,45.3692773],[24.6297733,45.3693489],[24.6296338,45.3693829],[24.6294997,45.3694281],[24.6292108,45.3695103],[24.6291116,45.3695882],[24.6290276,45.3696881],[24.6288935,45.3697786],[24.628754,45.369805],[24.6286092,45.3698125],[24.6284536,45.3698163],[24.6282981,45.3698879],[24.6280835,45.3699934],[24.6278153,45.3700801],[24.6272895,45.3702044],[24.6270964,45.3702195],[24.6269784,45.3701894],[24.6268818,45.3701969],[24.6268175,45.3702233],[24.6267638,45.3702723],[24.6266458,45.3703062],[24.6265224,45.3702986],[24.626399,45.3702873],[24.6262167,45.3702723],[24.6261094,45.3702798],[24.6260182,45.37031],[24.6258841,45.3703665],[24.6257231,45.3703853],[24.6255407,45.3704079],[24.6253369,45.3704117],[24.6251384,45.370423],[24.6249936,45.3704532],[24.6248702,45.3704795],[24.6245966,45.3705097],[24.6241889,45.3705361],[24.6235184,45.3705775],[24.6233628,45.3705474],[24.6232448,45.3704833],[24.6231804,45.3704042],[24.6231697,45.37031],[24.6231321,45.3702685],[24.6229658,45.3702497],[24.6227673,45.3702459],[24.6225903,45.3702798],[24.6224616,45.3703288],[24.6222309,45.3704946],[24.6219895,45.370683],[24.6218822,45.370717],[24.6217803,45.3707132],[24.6216462,45.3706378],[24.6215764,45.3705511],[24.6214691,45.3704833],[24.6212975,45.3704268],[24.6209542,45.3704456],[24.6204445,45.370472],[24.620069,45.3704871],[24.6198491,45.3704645],[24.6196023,45.3704645],[24.6191088,45.3704871],[24.6186421,45.3705172],[24.6181057,45.3706001],[24.6175478,45.3707057],[24.6172903,45.3707245],[24.6170274,45.370732],[24.6168128,45.3706981],[24.6166251,45.3706755],[24.6163729,45.370683],[24.6160618,45.3707283],[24.6158902,45.3707848],[24.6156005,45.3709129],[24.6153805,45.3709619],[24.6151552,45.3709808],[24.614946,45.3709695],[24.6145061,45.3709318],[24.6138602,45.3708566],[24.613034,45.3707963],[24.6121221,45.3708867],[24.6112316,45.3710676],[24.6108293,45.3711336],[24.6107166,45.3711901],[24.6107569,45.3712749],[24.6108775,45.3713013],[24.6113577,45.3713628],[24.6116506,45.3714144],[24.6121656,45.3713315],[24.6126996,45.3714636],[24.6131199,45.3714596],[24.613527,45.3718035],[24.613939,45.3718533],[24.6145001,45.372105],[24.6154403,45.372239],[24.6158485,45.3724481],[24.6160486,45.3723392],[24.6162583,45.3722976],[24.6164187,45.3724728],[24.616633,45.3724398],[24.6166816,45.3725697],[24.6171646,45.3726948],[24.6173672,45.3730503],[24.617748,45.3730594],[24.6183435,45.3734072],[24.6186541,45.3733897],[24.6193112,45.3735165],[24.6206623,45.3736874],[24.6208661,45.3736497],[24.6219765,45.3737865],[24.6223692,45.3739137],[24.6232677,45.3740638],[24.6232248,45.3743866],[24.6233158,45.3750404],[24.6232326,45.3755295],[24.6230934,45.3758634],[24.6229314,45.3761268],[24.6226479,45.3763757],[24.6226653,45.3765343],[24.622601,45.3767604],[24.622774,45.3770739],[24.6223979,45.3773222],[24.6220978,45.377619],[24.6211451,45.3782268],[24.6208399,45.3783964],[24.6202084,45.3785194],[24.6209374,45.3787033],[24.6212126,45.378733],[24.6219148,45.3789791],[24.6224092,45.3792058],[24.6227557,45.3792645],[24.6228276,45.379376],[24.6229703,45.3794113],[24.6229628,45.3794616],[24.62279,45.3795955],[24.622709,45.379731],[24.6226816,45.3798062],[24.6226578,45.3799457],[24.622561,45.3803043],[24.6224136,45.3805527],[24.622411,45.3808123],[24.6223171,45.3812381],[24.6222233,45.3816148],[24.6220969,45.3820543],[24.6219626,45.3829034],[24.6220393,45.3831239],[24.6220677,45.383593],[24.6220999,45.3843239],[24.6220892,45.3848288],[24.6220355,45.3852432],[24.621939,45.3855898],[24.6216922,45.3861474],[24.6215742,45.3865091],[24.6212309,45.3868426],[24.6209305,45.3870366],[24.6206604,45.3871118],[24.6203528,45.3871493],[24.6200792,45.3871586],[24.6197734,45.3871339],[24.6194606,45.3870366],[24.6193104,45.3870215],[24.6192487,45.3871081],[24.6192836,45.387225],[24.6193533,45.3873531],[24.6193855,45.3876017],[24.6193962,45.387986],[24.6194392,45.388212],[24.6194499,45.3884758],[24.6193855,45.3886943],[24.619246,45.3890635],[24.6189671,45.3894703],[24.6186238,45.3898546],[24.6183877,45.3901334],[24.6180444,45.3904724],[24.6178406,45.3906081],[24.6173604,45.3908473],[24.6166282,45.3911279],[24.61636,45.3913152],[24.6164351,45.3914433],[24.6166282,45.3916015],[24.6167998,45.3917458],[24.6169501,45.3920547],[24.6170359,45.3922882],[24.6168535,45.3926337],[24.6167677,45.3928533],[24.6168642,45.393033],[24.6172397,45.3932741],[24.6175401,45.393441],[24.6175294,45.3935163],[24.6172827,45.3937047],[24.6169501,45.3938478],[24.6168106,45.3939759],[24.616941,45.3941112],[24.6174351,45.3945249],[24.617744,45.3949327],[24.618141,45.3951361],[24.6183314,45.3952812],[24.6184655,45.3954356],[24.618495,45.3956258],[24.6182902,45.3960181],[24.6179501,45.3962878],[24.6176164,45.3964467],[24.6171539,45.3966128],[24.6167033,45.3968614],[24.6165316,45.3970723],[24.6166926,45.3972305],[24.6172076,45.3974038],[24.6174972,45.3974641],[24.617626,45.3976072],[24.6177011,45.3978182],[24.6175616,45.3980592],[24.6174007,45.3983361],[24.6170976,45.3985866],[24.616934,45.3988182],[24.616824,45.3990781],[24.6167382,45.3992721],[24.6165451,45.3995038],[24.6162996,45.3997119],[24.6162151,45.399888],[24.6162258,45.4001347],[24.616199,45.4003193],[24.6158772,45.4005377],[24.6157511,45.4007242],[24.6157377,45.4009369],[24.6156733,45.4010198],[24.6156063,45.4010764],[24.6156519,45.4011837],[24.6157806,45.401276],[24.615963,45.401404],[24.6160113,45.4015038],[24.6159094,45.4015848],[24.6156841,45.4017204],[24.6155339,45.4018409],[24.6154588,45.4020669],[24.6154695,45.4023457],[24.6155339,45.4025264],[24.615845,45.4027449],[24.6160703,45.4028654],[24.6163063,45.4028805],[24.6163814,45.4029634],[24.6163063,45.4030538],[24.6161239,45.4030914],[24.6159416,45.4031517],[24.6156411,45.4032797],[24.6154373,45.4034229],[24.6152442,45.4036714],[24.6150725,45.4038447],[24.6148901,45.404033],[24.6144073,45.4043645],[24.614064,45.404613],[24.6137743,45.4047185],[24.6135168,45.4047863],[24.6135061,45.4048541],[24.6135919,45.4048917],[24.6136241,45.4049445],[24.6136027,45.4050801],[24.6136778,45.4051705],[24.6139031,45.4052533],[24.6143859,45.4052759],[24.615212,45.4052382],[24.6166175,45.4051629],[24.6182268,45.4050876],[24.6185165,45.4050575],[24.618613,45.4051253],[24.6186023,45.405306],[24.6185701,45.4056751],[24.6184521,45.4061421],[24.6183234,45.4064434],[24.6182161,45.4066242],[24.6182697,45.4067673],[24.6184306,45.4068427],[24.6185487,45.4069782],[24.6185379,45.4071364],[24.618377,45.407272],[24.6180873,45.4073172],[24.6178278,45.4074114],[24.6176273,45.4075357],[24.617575,45.4076901],[24.6173873,45.4077983],[24.6173632,45.4078689],[24.6174329,45.4079394],[24.6176823,45.4079977],[24.6179157,45.4079902],[24.6180471,45.4080717],[24.6181543,45.4081928],[24.6182053,45.4083755],[24.6182053,45.4088086],[24.6181839,45.4093961],[24.6180551,45.409735],[24.6177869,45.4100137],[24.6174436,45.4101643],[24.6169608,45.4102623],[24.6166604,45.4103074],[24.6163385,45.4104355],[24.6160167,45.4105937],[24.6156841,45.410684],[24.6157109,45.4107687],[24.6158986,45.410797],[24.6162956,45.4107895],[24.6167248,45.4107066],[24.6167999,45.4107744],[24.6166711,45.4110079],[24.6164432,45.4113524],[24.6164297,45.411505],[24.6164565,45.4115352],[24.6166389,45.4113468],[24.6168642,45.4112188],[24.6170895,45.4111585],[24.6173578,45.411151],[24.6174972,45.4112037],[24.6176474,45.4112489],[24.6181839,45.4112113],[24.6189885,45.4110682],[24.6192675,45.4110757],[24.6194928,45.4111435],[24.6197181,45.4113092],[24.619879,45.4115803],[24.6200078,45.4117686],[24.6201473,45.4119117],[24.6202545,45.4123184],[24.6203189,45.4127854],[24.6202545,45.4134105],[24.6200379,45.4138704],[24.6198244,45.4143607],[24.6196001,45.4145628],[24.6195679,45.4147436],[24.6193104,45.4151879],[24.6192889,45.4156549],[24.6193426,45.4159486],[24.6193319,45.4161971],[24.6191602,45.4163854],[24.6189134,45.4165134],[24.6184306,45.4165887],[24.6180873,45.4164908],[24.6178191,45.4163628],[24.6174436,45.4162197],[24.6172076,45.4160389],[24.6169393,45.4159109],[24.6170466,45.4160389],[24.6171539,45.4161745],[24.6172827,45.4163101],[24.617508,45.4164155],[24.6177225,45.4165812],[24.6179157,45.416777],[24.6180015,45.4169125],[24.61798,45.4170556],[24.6178191,45.4171535],[24.6176045,45.4173719],[24.6174869,45.4174907],[24.6174011,45.4175375],[24.6173035,45.4175466],[24.6171978,45.4175153],[24.6170144,45.4173418],[24.6167784,45.4170632],[24.6166497,45.4169276],[24.6165531,45.417018],[24.6165638,45.4171987],[24.6165746,45.4173569],[24.6165102,45.4175452],[24.6163385,45.4178012],[24.6160918,45.4179744],[24.6158128,45.4180648],[24.6154051,45.4180648],[24.6151798,45.4179443],[24.6149974,45.4178539],[24.6148365,45.4180121],[24.6148043,45.4182003],[24.6147399,45.4182907],[24.6144824,45.4182907],[24.6142357,45.4181928],[24.6139567,45.418125],[24.6138494,45.4182079],[24.6138172,45.4184112],[24.6139245,45.4185995],[24.6139138,45.4187124],[24.613667,45.4187802],[24.613313,45.4187727],[24.6130448,45.4186672],[24.6125512,45.4186522],[24.6120899,45.418494],[24.6118539,45.4182455],[24.6117037,45.4181024],[24.6115427,45.4181401],[24.611532,45.4183133],[24.6115964,45.4184187],[24.6115427,45.4185317],[24.611296,45.4185995],[24.6110385,45.4186296],[24.6108346,45.4186823],[24.6105664,45.4187576],[24.6103196,45.4188329],[24.610148,45.4188405],[24.6097617,45.4188706],[24.6093004,45.4188405],[24.6089785,45.4188254],[24.6086781,45.4189082],[24.609,45.4189082],[24.6092253,45.4189459],[24.6094077,45.4190061],[24.6096223,45.4190061],[24.609869,45.4190212],[24.6101265,45.419089],[24.6103089,45.4191567],[24.6105879,45.4191567],[24.6108775,45.4191191],[24.6111994,45.4191492],[24.6115642,45.4191944],[24.611929,45.4192471],[24.6121865,45.4193751],[24.6122723,45.4195634],[24.612562,45.4198496],[24.6126827,45.4201113],[24.6127122,45.4202186],[24.6126452,45.4203692],[24.6126854,45.4204331],[24.6129267,45.4204219],[24.6132486,45.4203993],[24.6134739,45.420452],[24.6136134,45.4207156],[24.6137207,45.4209942],[24.6138602,45.4211749],[24.6140533,45.4212503],[24.614343,45.4211825],[24.6145897,45.4209867],[24.614933,45.4207307],[24.6154266,45.4205349],[24.6157484,45.420437],[24.616199,45.4204132],[24.6164887,45.4202777],[24.6165424,45.4200981],[24.6166818,45.4199851],[24.6171646,45.4199098],[24.6174329,45.4199023],[24.6175616,45.4199399],[24.6176582,45.4200604],[24.6176367,45.420211],[24.6175401,45.4203993],[24.6174221,45.4206015],[24.6174972,45.4207295],[24.6177333,45.4208124],[24.6180551,45.4208425],[24.6183877,45.4208274],[24.6187418,45.4207532],[24.61901,45.4206252],[24.6191817,45.4206252],[24.6193319,45.4208587],[24.619407,45.42119],[24.6193641,45.4213557],[24.6192138,45.4215138],[24.6189885,45.4216268],[24.6186881,45.421672],[24.6184306,45.4216418],[24.6181088,45.4216644],[24.6176582,45.4217924],[24.6173685,45.4219506],[24.61706,45.4220993],[24.6167408,45.4221859],[24.6163171,45.4221916],[24.615845,45.422297],[24.615448,45.4225455],[24.6150725,45.422937],[24.6146112,45.4234265],[24.6141391,45.4240214],[24.6137421,45.424556],[24.6134417,45.4250982],[24.6132486,45.4255876],[24.6131842,45.4258361],[24.6131199,45.426062],[24.6129804,45.4263933],[24.6128087,45.4267246],[24.6125405,45.4271011],[24.6121865,45.4274776],[24.6119504,45.427696],[24.6117037,45.4277261],[24.6115856,45.4277411],[24.6114998,45.4278842],[24.611532,45.4280047],[24.6116286,45.4281101],[24.6116822,45.4282607],[24.6117037,45.4284338],[24.6116286,45.4286146],[24.6115427,45.42872],[24.6114891,45.4288254],[24.611532,45.4289534],[24.6115105,45.4291115],[24.6113711,45.4292244],[24.6112209,45.4293374],[24.6111779,45.4294051],[24.6111779,45.429503],[24.6111779,45.4296913],[24.6111136,45.4297741],[24.6109526,45.4298569],[24.6108346,45.430015],[24.6107166,45.4303011],[24.6105771,45.4306776],[24.6103411,45.4310164],[24.6102338,45.4311896],[24.6101587,45.4313402],[24.609987,45.4317317],[24.6096974,45.4322963],[24.6092575,45.4329438],[24.6088283,45.4334332],[24.6085816,45.4339903],[24.608131,45.4347056],[24.6079378,45.4349615],[24.6078091,45.4353907],[24.6078413,45.4356692],[24.6079915,45.4359704],[24.6080773,45.4360984],[24.6082382,45.4361962],[24.6082382,45.4362941],[24.60797,45.4363543],[24.6077233,45.4363543],[24.6074336,45.4364823],[24.6071439,45.4366329],[24.6068757,45.4367609],[24.6066289,45.4368738],[24.6063392,45.4369867],[24.6061783,45.4369716],[24.605953,45.4367985],[24.605835,45.4366253],[24.6057277,45.4364748],[24.6057384,45.4366705],[24.6056741,45.4368587],[24.605556,45.4369942],[24.6054917,45.4371147],[24.6055346,45.4372577],[24.6056633,45.4374233],[24.6056633,45.4375363],[24.6055346,45.4376191],[24.6051591,45.4376944],[24.6049123,45.4376718],[24.6046655,45.437461],[24.6044832,45.4373104],[24.6042471,45.4371448],[24.6039789,45.4370846],[24.6035819,45.4368662],[24.6034317,45.4367985],[24.6033888,45.4368662],[24.6035497,45.4370545],[24.6037429,45.4371749],[24.6040433,45.4373782],[24.6043222,45.4376116],[24.6043866,45.4377245],[24.6043115,45.4377471],[24.6040218,45.4376567],[24.6033781,45.4374986],[24.6027451,45.4373932],[24.602273,45.4373179],[24.6019619,45.4373405],[24.6014791,45.4372201],[24.6007817,45.4370168],[24.6003096,45.4369566],[24.5996766,45.4370545],[24.599344,45.4371975],[24.5987861,45.4372502],[24.5981746,45.4372351],[24.5977454,45.4372351],[24.5974129,45.4372201],[24.5971124,45.4371373],[24.5968013,45.4369792],[24.5962434,45.4367985],[24.5958143,45.4366329],[24.5954173,45.436264],[24.595192,45.4358725],[24.5951169,45.4355638],[24.5950389,45.4353208],[24.5949692,45.4351552],[24.5949048,45.4350686],[24.5948267,45.434998],[24.5947194,45.4349868],[24.5946658,45.4350357],[24.5946741,45.4351364],[24.5947439,45.4352606],[24.5947921,45.4353961],[24.5947653,45.435558],[24.5946848,45.435686],[24.5946473,45.4357951],[24.5946366,45.4358892],[24.5946741,45.4359871],[24.5946902,45.4361076],[24.5946527,45.4361753],[24.5946312,45.436228],[24.5946848,45.4362958],[24.594835,45.4363861],[24.5949262,45.4364953],[24.5949638,45.4366007],[24.5949209,45.4367136],[24.5948136,45.4367889],[24.5947063,45.436819],[24.5945156,45.4368576],[24.5944029,45.4369103],[24.5944029,45.436978],[24.594481,45.4370034],[24.5947009,45.436962],[24.594878,45.4369357],[24.5951355,45.4369432],[24.5953876,45.4369997],[24.5958436,45.437154],[24.5960474,45.4372255],[24.5962513,45.4372406],[24.5964283,45.437282],[24.596557,45.4373648],[24.5968038,45.4375078],[24.5970184,45.4375681],[24.5971847,45.437553],[24.5972759,45.4375003],[24.5973831,45.437489],[24.5975924,45.4375417],[24.5977372,45.437617],[24.5978338,45.4376923],[24.5978981,45.4377751],[24.5980001,45.437824],[24.5980966,45.4378316],[24.5983005,45.4378654],[24.5984453,45.4379482],[24.5987779,45.4381252],[24.5991427,45.4382569],[24.5994699,45.4383435],[24.5997649,45.4383811],[24.5999366,45.4384715],[24.6000439,45.438543],[24.6002263,45.4385693],[24.6003872,45.4386521],[24.6005267,45.4387236],[24.6009076,45.4388704],[24.6011221,45.438942],[24.6012616,45.4389533],[24.6014333,45.4389156],[24.6015728,45.4389231],[24.6016693,45.4389758],[24.601723,45.4390586],[24.6018488,45.4391989],[24.6018946,45.4392017],[24.6019054,45.4391339],[24.6019322,45.439006],[24.6019697,45.4389495],[24.6020609,45.4389533],[24.6023291,45.4390511],[24.6025384,45.4390549],[24.6029943,45.4390248],[24.6032572,45.4389871],[24.6036649,45.4388855],[24.6039707,45.4388403],[24.6044105,45.4387989],[24.6047914,45.4388366],[24.6050704,45.438893],[24.6052796,45.4389871],[24.6053493,45.4391113],[24.6052796,45.4392356],[24.6051908,45.4394134],[24.6051586,45.4395339],[24.6051776,45.4395818],[24.6052581,45.4395818],[24.6053922,45.4395179],[24.6055966,45.439461],[24.605717,45.4394484],[24.6059745,45.4396291],[24.6063285,45.4397646],[24.6066611,45.4398474],[24.6070581,45.4399001],[24.6074014,45.4399453],[24.607573,45.4400356],[24.6076267,45.4402389],[24.6075731,45.4405626],[24.607498,45.4407206],[24.6072941,45.4410142],[24.6070581,45.4412551],[24.6068113,45.4417519],[24.6066504,45.4421133],[24.6065753,45.4423843],[24.6065967,45.4426026],[24.6066075,45.4428284],[24.6065109,45.443122],[24.6063392,45.4434155],[24.6061247,45.4437016],[24.6058457,45.4441608],[24.605717,45.4444995],[24.6056526,45.4449511],[24.6056633,45.4455834],[24.6056741,45.4459824],[24.605599,45.4463964],[24.6054809,45.4467501],[24.6053629,45.4471491],[24.6052556,45.4475104],[24.6051162,45.4477813],[24.6049123,45.4479469],[24.604569,45.4481125],[24.6041628,45.4483654],[24.6040366,45.4486011],[24.6040218,45.4489254],[24.6037536,45.4492792],[24.6034746,45.4497458],[24.6032361,45.4502975],[24.6030421,45.4508795],[24.6029918,45.4512361],[24.6029811,45.4515748],[24.6029167,45.4519135],[24.6028416,45.4521769],[24.6027987,45.4524629],[24.6027849,45.4528998],[24.6027956,45.453142],[24.6028019,45.4533554],[24.6027773,45.4536746],[24.6026807,45.453923],[24.602391,45.4542767],[24.6021765,45.4545476],[24.6020906,45.4548637],[24.6021307,45.4551551],[24.6022058,45.4554336],[24.6023452,45.4557647],[24.6023989,45.4560357],[24.6023452,45.4562313],[24.6022165,45.4562614],[24.6020341,45.4562389],[24.6019054,45.4562614],[24.6018195,45.4563743],[24.6017873,45.45657],[24.6018195,45.4568409],[24.6019805,45.4570742],[24.6024633,45.4575559],[24.6027315,45.4578644],[24.6029058,45.4582038],[24.6030452,45.4583083],[24.6032679,45.4583235],[24.6035039,45.4582858],[24.6036005,45.4582482],[24.6036112,45.4581654],[24.6035469,45.45803],[24.6034396,45.4578569],[24.6033108,45.4576988],[24.6031392,45.4574204],[24.6030319,45.4571344],[24.6029675,45.4569011],[24.6029997,45.4566528],[24.6030212,45.4563743],[24.6030212,45.4561486],[24.6029139,45.4559002],[24.6026886,45.4555314],[24.6026778,45.4553358],[24.6026564,45.4550197],[24.6027315,45.4547864],[24.6029139,45.4545004],[24.6030855,45.4543574],[24.6032035,45.4541391],[24.6032894,45.4538832],[24.6032894,45.4536198],[24.6032679,45.4532812],[24.6033001,45.4529876],[24.6033323,45.4524533],[24.6033967,45.4520694],[24.6035147,45.4516479],[24.6036112,45.4515652],[24.6036756,45.4514974],[24.6036649,45.4514297],[24.6035791,45.4513544],[24.6035683,45.4512189],[24.6036756,45.4510007],[24.6039438,45.4506244],[24.6043623,45.4501728],[24.604727,45.4497287],[24.6050382,45.4493674],[24.6051562,45.4492545],[24.6053493,45.4491792],[24.6054459,45.4490964],[24.6054673,45.4489911],[24.6053633,45.448764],[24.605403,45.4486373],[24.6054869,45.4485697],[24.6056303,45.4485044],[24.6057009,45.4484415],[24.6057141,45.4483362],[24.6057785,45.4482083],[24.6059501,45.448118],[24.6060603,45.4479996]]]},"properties":{"name":"Lacul Vidraru","name_ro":"Lacul Vidraru","type":"lake","source":"manual_premap","source_detail":"HOTOSM Waterways HDX snapshot 2026-08-07, water=lake/reservoir name match (2 candidate features, largest polygon selected)","osm_type":"way","osm_id":"way/519227097","geocode_tier":"tier1","confidence":"high"}}]}