{"type":"FeatureCollection","metadata":{"pipeline":"tier1_premap","pipeline_version":"1.0","generated_at":"2026-08-11T10:41:31.236889+00:00"},"features":[{"type":"Feature","id":"lacul-sfanta-ana","geometry":{"type":"Polygon","coordinates":[[[25.8899788,46.1262121],[25.8898887,46.1264065],[25.8896774,46.1266995],[25.8895783,46.1270641],[25.8894827,46.1270826],[25.8894466,46.1272353],[25.8895579,46.1274071],[25.8895831,46.1275821],[25.8895692,46.1277704],[25.8897112,46.1279915],[25.8898606,46.1282121],[25.8898787,46.1283807],[25.8898492,46.1285348],[25.8897274,46.1286391],[25.8896254,46.1286937],[25.889457,46.128676],[25.8893475,46.1286757],[25.889254,46.1286887],[25.8891857,46.128758],[25.8886877,46.1286967],[25.8883602,46.1286689],[25.8880878,46.1286527],[25.8876731,46.128604],[25.8874184,46.128524],[25.8872328,46.1284518],[25.8870322,46.128375],[25.8868541,46.128241],[25.88674,46.1280985],[25.8865184,46.1280115],[25.8863727,46.1279162],[25.8860946,46.1277799],[25.8859534,46.1276234],[25.8857995,46.1275429],[25.8856206,46.1274617],[25.8853601,46.1273674],[25.8851683,46.1272909],[25.8849684,46.1272031],[25.8847207,46.1270355],[25.8845043,46.1269275],[25.8843102,46.1267845],[25.8839557,46.1264315],[25.8838341,46.1260478],[25.8839425,46.1256752],[25.8840695,46.1253644],[25.8841306,46.1251129],[25.8842018,46.1250063],[25.8843367,46.1247763],[25.8845452,46.1245313],[25.8846248,46.1244809],[25.8847651,46.1244293],[25.8848909,46.1243574],[25.8849839,46.1242666],[25.8851581,46.1241725],[25.8853945,46.1240534],[25.8856308,46.124],[25.8861745,46.1239682],[25.8869987,46.1239133],[25.8875953,46.1239248],[25.8880373,46.1240001],[25.8885122,46.1241495],[25.888874,46.1243401],[25.8891828,46.1245625],[25.8893119,46.1248935],[25.8895113,46.1251189],[25.8896842,46.1252221],[25.8898049,46.125362],[25.8899984,46.1254332],[25.8901107,46.125688],[25.8900977,46.1258758],[25.8899788,46.1262121]]]},"properties":{"name":"Lacul Sfânta Ana","name_ro":"Lacul Sfânta Ana","type":"lake","source":"manual_premap","source_detail":"HOTOSM Waterways HDX snapshot 2026-08-07, water=lake/reservoir name match (1 candidate features, largest polygon selected)","osm_type":"way","osm_id":"way/27742482","geocode_tier":"tier1","confidence":"high"}}]}