{"type":"FeatureCollection","metadata":{"pipeline":"tier1_premap","pipeline_version":"1.0","generated_at":"2026-08-11T10:41:31.468759+00:00"},"features":[{"type":"Feature","id":"lacul-tarnita","geometry":{"type":"Polygon","coordinates":[[[23.2664705,46.7182771],[23.2663983,46.7182501],[23.266313,46.7182411],[23.2662146,46.7182546],[23.2660899,46.7182726],[23.2658799,46.718322],[23.2657421,46.718367],[23.2656568,46.7184075],[23.2655387,46.7184525],[23.2654469,46.7184795],[23.2653353,46.718502],[23.265191,46.7185065],[23.2650269,46.718493],[23.2648891,46.7184795],[23.2647579,46.7184525],[23.2646529,46.718421],[23.2645807,46.7183895],[23.264502,46.7183265],[23.2644167,46.7182726],[23.2643314,46.7182231],[23.2642723,46.7181916],[23.2641805,46.7181646],[23.2640755,46.7181556],[23.2639968,46.7181331],[23.2639311,46.7180971],[23.2638786,46.7180476],[23.2637933,46.7179667],[23.2637015,46.7178722],[23.2636227,46.7177957],[23.263544,46.7177057],[23.2635046,46.7176338],[23.2634259,46.7175258],[23.2633668,46.7174358],[23.2632881,46.7173324],[23.2632356,46.7172379],[23.2631766,46.7171344],[23.2631241,46.717031],[23.2630913,46.716941],[23.2630388,46.7168285],[23.2629863,46.7166801],[23.2629535,46.7165451],[23.2629207,46.7164191],[23.262901,46.7163022],[23.2628813,46.7161672],[23.2628813,46.7160772],[23.2628813,46.7159468],[23.262901,46.7158478],[23.2629272,46.7156139],[23.2629469,46.7155194],[23.2629469,46.7154384],[23.2629403,46.7153439],[23.2629272,46.715236],[23.2628944,46.7151325],[23.2628354,46.7149975],[23.2627763,46.7148806],[23.2626976,46.7147186],[23.262632,46.7145972],[23.2625532,46.7144532],[23.2625073,46.7143632],[23.2624745,46.7142777],[23.2624745,46.7141968],[23.2624548,46.7140663],[23.2624482,46.7139718],[23.262422,46.7138863],[23.2623826,46.7138144],[23.2623432,46.7137379],[23.2623104,46.7136704],[23.2622842,46.7135894],[23.2622711,46.7135264],[23.2622776,46.7134409],[23.2623039,46.7133555],[23.2623039,46.7132655],[23.2623039,46.7131935],[23.2622842,46.7131125],[23.2622711,46.7130585],[23.2622317,46.713],[23.2621792,46.7129326],[23.2620939,46.7128291],[23.2620152,46.7127571],[23.2618249,46.7126086],[23.2616412,46.7124647],[23.2614574,46.7123117],[23.261254,46.7121587],[23.2611622,46.7121092],[23.2610441,46.7120778],[23.2609588,46.7120778],[23.2608538,46.7120823],[23.2607619,46.7121002],[23.2606372,46.7121047],[23.2604601,46.7121002],[23.2602501,46.7120913],[23.2601058,46.7120868],[23.2599614,46.7120643],[23.259758,46.7120283],[23.2595808,46.7119878],[23.2594562,46.7119608],[23.2592921,46.7119428],[23.2591675,46.7119473],[23.2590493,46.7119698],[23.2589181,46.7119878],[23.2587803,46.7120193],[23.258636,46.7120373],[23.258531,46.7120373],[23.2583866,46.7120328],[23.2582554,46.7120418],[23.2581307,46.7120598],[23.2579798,46.7120778],[23.2577502,46.7120958],[23.2576058,46.7121137],[23.2574221,46.7121317],[23.2572777,46.7121317],[23.2571071,46.7121272],[23.2569168,46.7121182],[23.25672,46.7121137],[23.25651,46.7121047],[23.2561951,46.7120778],[23.2557029,46.7120148],[23.2555061,46.7119788],[23.2553749,46.7119608],[23.2551977,46.7119383],[23.2549287,46.7119068],[23.2547646,46.7118933],[23.2545481,46.7118573],[23.254371,46.7118483],[23.25422,46.7118483],[23.254056,46.7118708],[23.2539051,46.7118753],[23.2536886,46.7118843],[23.2535311,46.7118843],[23.2533736,46.7118663],[23.2532096,46.7118618],[23.2528946,46.7118708],[23.2525993,46.7118843],[23.2524681,46.7118798],[23.2523369,46.7118618],[23.252186,46.7118753],[23.2520547,46.7119023],[23.2519497,46.7119338],[23.2518907,46.7119653],[23.2518054,46.7119968],[23.2516742,46.7120238],[23.2514904,46.7120328],[23.2513133,46.7120418],[23.2511492,46.7120418],[23.2509524,46.7120328],[23.2508146,46.7120103],[23.2507359,46.7119833],[23.2506374,46.7119473],[23.2505456,46.7119293],[23.2503881,46.7119113],[23.2502503,46.7118888],[23.2501125,46.7118618],[23.2500075,46.7118258],[23.2499353,46.7117943],[23.2497582,46.7117088],[23.2496729,46.7116773],[23.249581,46.7116503],[23.2494892,46.7116234],[23.2493907,46.7116054],[23.2492595,46.7115919],[23.2491283,46.7115784],[23.2490036,46.7115649],[23.2488658,46.7115289],[23.2486362,46.7114344],[23.2484852,46.7113714],[23.248249,46.7112904],[23.2479866,46.7111824],[23.2477635,46.7110925],[23.2475732,46.7110115],[23.2474485,46.71098],[23.2472976,46.710953],[23.2469695,46.710926],[23.2465693,46.710917],[23.2461428,46.710917],[23.24569,46.7109215],[23.2451257,46.7109035],[23.2449158,46.710908],[23.2446927,46.710926],[23.2444958,46.710962],[23.2443055,46.7109935],[23.2441284,46.7110385],[23.2439139,46.7110734],[23.2436633,46.7110925],[23.2434499,46.7111306],[23.2431851,46.7111651],[23.2427849,46.7112236],[23.2425618,46.7112551],[23.2424043,46.7112776],[23.2422009,46.7113271],[23.2420303,46.7113765],[23.2418531,46.711435],[23.241735,46.7114665],[23.2415775,46.711489],[23.2414529,46.711498],[23.2413545,46.71148],[23.2412035,46.7114485],[23.2410264,46.71139],[23.240882,46.711336],[23.2407245,46.7112866],[23.2405408,46.7112236],[23.2404358,46.7111921],[23.240298,46.7111696],[23.2401734,46.7111651],[23.2400684,46.7111786],[23.2399634,46.7111741],[23.2398847,46.7111426],[23.2398322,46.7111021],[23.2397928,46.7110616],[23.2397469,46.7110211],[23.2396681,46.7109851],[23.2395566,46.7109581],[23.2393335,46.7109086],[23.239176,46.7108681],[23.2390185,46.7108456],[23.2388479,46.7108591],[23.2386445,46.7108501],[23.2385002,46.7108142],[23.2383296,46.7107737],[23.2380212,46.7106927],[23.2378375,46.7106522],[23.2377128,46.7106387],[23.2375553,46.7106162],[23.237411,46.7105802],[23.2372535,46.7105352],[23.237096,46.7104812],[23.2369845,46.7104227],[23.2368926,46.7103732],[23.2367876,46.7103417],[23.2366433,46.7103237],[23.2364464,46.7103057],[23.2361511,46.7103057],[23.2360068,46.7103102],[23.2358624,46.7103192],[23.2356984,46.7103462],[23.2355672,46.7103642],[23.2354622,46.7103687],[23.2353572,46.7103597],[23.2352785,46.7103372],[23.2351866,46.7103237],[23.235075,46.7103102],[23.2348782,46.7103012],[23.2347076,46.7103057],[23.2345764,46.7103102],[23.2344779,46.7103237],[23.2343664,46.7103327],[23.2342483,46.7103237],[23.2341367,46.7102923],[23.2340449,46.7102473],[23.2339268,46.7101798],[23.2336446,46.7099683],[23.2333502,46.7097312],[23.2330221,46.7094972],[23.2327794,46.7093128],[23.2325694,46.7091688],[23.2324906,46.7091013],[23.2323857,46.7090338],[23.2322872,46.7089798],[23.2321954,46.7089438],[23.2320248,46.7089213],[23.2318607,46.7089168],[23.231677,46.7089393],[23.2314867,46.7089663],[23.2309881,46.7090608],[23.2305616,46.7091238],[23.2303253,46.7091508],[23.229807,46.7092273],[23.2296364,46.7092453],[23.229492,46.7092768],[23.2293411,46.7093038],[23.2292099,46.7093128],[23.2291114,46.7093038],[23.2288424,46.7092138],[23.2286915,46.7091553],[23.228429,46.7090563],[23.2283044,46.7089933],[23.22816,46.7089258],[23.2280747,46.7088538],[23.2278582,46.7086604],[23.2277073,46.7085209],[23.2275039,46.7083139],[23.2273858,46.7081834],[23.227307,46.708107],[23.2272414,46.7080485],[23.2271561,46.7080035],[23.2270642,46.707954],[23.2269724,46.7079135],[23.226828,46.7078595],[23.2266771,46.7078145],[23.226559,46.7077965],[23.2264409,46.707774],[23.2262965,46.707747],[23.2261587,46.7077335],[23.2260144,46.7077335],[23.2258897,46.707738],[23.2257651,46.7077695],[23.2256404,46.70781],[23.2254895,46.7078775],[23.2252401,46.707999],[23.2250105,46.708098],[23.2248924,46.7081384],[23.2247874,46.7081564],[23.2246496,46.7081789],[23.2245052,46.7081879],[23.2242821,46.7081879],[23.2239081,46.7081654],[23.223731,46.7081429],[23.2234291,46.708089],[23.2232389,46.708053],[23.222937,46.70799],[23.2227533,46.7079495],[23.2226024,46.7079405],[23.2224383,46.7079405],[23.2223399,46.707954],[23.2222153,46.707945],[23.2221037,46.707918],[23.2220053,46.7078775],[23.2217428,46.7077695],[23.2215985,46.7076975],[23.2214738,46.7076345],[23.221231,46.707486],[23.2210473,46.7073781],[23.2209358,46.7073016],[23.2208176,46.7072341],[23.220693,46.7071846],[23.2206142,46.7071621],[23.2205289,46.7071306],[23.2204371,46.7070856],[23.2203124,46.7070361],[23.2201024,46.7069506],[23.2198793,46.7068471],[23.2196103,46.7067346],[23.2194988,46.7066806],[23.2194266,46.7066356],[23.2193544,46.7065726],[23.2192954,46.7065142],[23.2191969,46.7064017],[23.2191182,46.7063027],[23.2190067,46.7062127],[23.2189082,46.7061452],[23.2187836,46.7060912],[23.2186523,46.7060597],[23.2184752,46.7060462],[23.2183046,46.7060507],[23.2180618,46.7060597],[23.2178978,46.7060822],[23.2176681,46.7060957],[23.2174647,46.7061182],[23.2172482,46.7061362],[23.2170185,46.7061452],[23.216802,46.7061542],[23.2166379,46.7061542],[23.2165198,46.7061677],[23.2164345,46.7061902],[23.2163361,46.7062487],[23.2161064,46.7064133],[23.216008,46.7065033],[23.2159227,46.7065708],[23.2157981,46.7066653],[23.2156931,46.7067058],[23.2156143,46.7067373],[23.215529,46.7067373],[23.2154306,46.7067103],[23.2153716,46.7066653],[23.215365,46.7066113],[23.2153978,46.7065618],[23.2154897,46.7065078],[23.2156668,46.7064088],[23.2159358,46.7062333],[23.2160343,46.7061478],[23.2161261,46.7060848],[23.2161983,46.7060263],[23.2162705,46.7059634],[23.2163492,46.7059139],[23.2164739,46.7058779],[23.2165789,46.7058374],[23.2166182,46.7057834],[23.2166642,46.7057429],[23.2167692,46.7057249],[23.2168741,46.7057159],[23.2170776,46.7056979],[23.2173335,46.7056934],[23.2177337,46.7056799],[23.2179765,46.7056709],[23.2183505,46.7056754],[23.2185014,46.7056889],[23.2186589,46.7057249],[23.2188689,46.7057789],[23.2190492,46.7058288],[23.2192001,46.7058603],[23.2193642,46.7059188],[23.2195413,46.7059952],[23.2196529,46.7060492],[23.2197775,46.7061302],[23.2199481,46.7062427],[23.2200466,46.7063147],[23.2202631,46.7064767],[23.2204075,46.7065937],[23.2204665,46.7066477],[23.2205518,46.7067017],[23.2206568,46.7067467],[23.2207533,46.7068007],[23.2208452,46.7068412],[23.2209501,46.7068591],[23.221042,46.7068951],[23.2211142,46.7069356],[23.2212192,46.7069941],[23.2213449,46.7070462],[23.2214958,46.7070912],[23.2216402,46.7071182],[23.221778,46.7071677],[23.2218698,46.7071947],[23.2219617,46.7072127],[23.2220667,46.7072082],[23.222152,46.7071902],[23.222211,46.7071587],[23.2222438,46.7071047],[23.22231,46.7070394],[23.2223691,46.7070035],[23.2224806,46.706981],[23.2225659,46.7069855],[23.222684,46.7070035],[23.2227759,46.7070304],[23.2228809,46.7070754],[23.2229596,46.7071249],[23.2230378,46.7071767],[23.2231034,46.7072577],[23.2231953,46.7073837],[23.2232543,46.7074377],[23.2233396,46.7074871],[23.223438,46.7075276],[23.223589,46.7075726],[23.2237464,46.7076311],[23.2238383,46.7076536],[23.2239433,46.7076581],[23.2240548,46.7076446],[23.2243567,46.7075816],[23.2244945,46.7075366],[23.2247504,46.7074467],[23.2248685,46.7073882],[23.2250391,46.7073072],[23.2252359,46.7072352],[23.2254131,46.7071587],[23.2255574,46.7070867],[23.225728,46.7070102],[23.2258986,46.7069607],[23.2260955,46.7069292],[23.2263186,46.7069067],[23.226417,46.7069112],[23.2265941,46.7069202],[23.2267451,46.7069607],[23.2268632,46.7070147],[23.2269485,46.7070642],[23.2270535,46.7071182],[23.2271584,46.7071587],[23.2272831,46.7071902],[23.2273356,46.7072307],[23.2274143,46.7073072],[23.22748,46.7073927],[23.2275456,46.7074781],[23.2276309,46.7076041],[23.2278146,46.7078381],[23.2279196,46.7079911],[23.2280049,46.7081036],[23.2280836,46.7082025],[23.2281755,46.7082835],[23.2282673,46.708342],[23.2283658,46.7083825],[23.228497,46.708414],[23.2286217,46.708441],[23.2287791,46.7084365],[23.2289891,46.7084095],[23.2293566,46.7083555],[23.2297109,46.7083105],[23.2301833,46.708234],[23.2304983,46.708189],[23.2308657,46.7081351],[23.231266,46.7080811],[23.2314038,46.7080721],[23.2315744,46.7080586],[23.231699,46.7080586],[23.2317778,46.7080631],[23.2318762,46.7080856],[23.2319812,46.7081081],[23.2320927,46.7081576],[23.232231,46.7082236],[23.2323426,46.7082866],[23.2324672,46.7083406],[23.2325919,46.7083766],[23.2327428,46.7084171],[23.2328675,46.7084531],[23.2330446,46.7085116],[23.2331824,46.7085926],[23.233353,46.7086825],[23.2335039,46.708777],[23.2335958,46.7088625],[23.2338386,46.709074],[23.2339567,46.7091685],[23.2341929,46.7093529],[23.2343307,46.7094474],[23.2344554,46.7095059],[23.2345669,46.7095509],[23.2346982,46.7095779],[23.2348425,46.7095914],[23.2350131,46.7095914],[23.235105,46.7095824],[23.2352428,46.7095689],[23.2354724,46.7095374],[23.2356365,46.7095014],[23.2358924,46.7094339],[23.2359777,46.7094159],[23.2360433,46.7093934],[23.2361154,46.7093484],[23.2361876,46.7092945],[23.2362401,46.7092405],[23.236286,46.7091775],[23.2363451,46.709146],[23.236437,46.7091415],[23.2365157,46.7091595],[23.2366076,46.709182],[23.2366863,46.7092045],[23.2368044,46.709236],[23.2369094,46.7092315],[23.2369881,46.709227],[23.2370669,46.7092045],[23.2371719,46.7091325],[23.237244,46.709065],[23.2373162,46.708984],[23.2373884,46.708921],[23.237454,46.7088895],[23.2375393,46.7088895],[23.2376115,46.7089255],[23.2376443,46.708975],[23.2376837,46.7090515],[23.2377362,46.70911],[23.237828,46.7091775],[23.2379658,46.709245],[23.2382348,46.7093664],[23.2383464,46.7094249],[23.2384382,46.7094834],[23.2385039,46.7095509],[23.2385826,46.7096319],[23.2386548,46.7096904],[23.2387598,46.7097444],[23.238996,46.7098254],[23.2393765,46.7099423],[23.2395275,46.7099918],[23.2397046,46.7100458],[23.2398687,46.7100908],[23.2402295,46.7102078],[23.2404395,46.7102798],[23.2408201,46.7103968],[23.240971,46.7104597],[23.2412728,46.7105767],[23.2414237,46.7106352],[23.2415222,46.7106712],[23.2416534,46.7106982],[23.2417649,46.7106847],[23.2418568,46.7106622],[23.2419487,46.7106082],[23.2420537,46.7105407],[23.242139,46.7105137],[23.2422833,46.7104687],[23.2423949,46.7104373],[23.2425458,46.7104013],[23.2426901,46.7103743],[23.2428476,46.7103608],[23.2429592,46.7103338],[23.2430904,46.7103068],[23.2432216,46.7102663],[23.2436219,46.7101538],[23.243799,46.7100998],[23.2441665,46.7100188],[23.2443961,46.7099738],[23.2446192,46.7099378],[23.2447505,46.7099198],[23.2448358,46.7099198],[23.2450326,46.7099288],[23.2451704,46.7099378],[23.2453147,46.7099558],[23.2454591,46.7099738],[23.2456756,46.7100098],[23.2458462,46.7100413],[23.2459906,46.7100593],[23.2461218,46.7100773],[23.2462531,46.7100998],[23.2464368,46.7100998],[23.2466271,46.7101043],[23.2468108,46.7101043],[23.2469355,46.7100998],[23.247047,46.7100998],[23.2472307,46.7100953],[23.2474144,46.7100818],[23.2475719,46.7100683],[23.2476966,46.7100593],[23.2478278,46.7100728],[23.2479394,46.7100593],[23.2480181,46.7100368],[23.2481559,46.7100098],[23.2482609,46.7100143],[23.2483593,46.7100458],[23.2484184,46.7100728],[23.248484,46.7101403],[23.2485627,46.7102123],[23.248648,46.7102798],[23.2487268,46.7103203],[23.2488186,46.7103563],[23.2489433,46.7103833],[23.2490876,46.7104103],[23.2492582,46.7104373],[23.2494026,46.7104507],[23.249501,46.7104507],[23.2496126,46.7104597],[23.2496913,46.7104912],[23.24977,46.7105587],[23.2498422,46.7106307],[23.2498816,46.7106982],[23.2499472,46.7107747],[23.2500259,46.7108197],[23.2501112,46.7108422],[23.2502162,46.7108422],[23.2503475,46.7108242],[23.2504721,46.7108422],[23.2507149,46.7108647],[23.2508658,46.7108782],[23.2510495,46.7108872],[23.2512398,46.7108827],[23.2515679,46.7108917],[23.2519222,46.7109097],[23.25227,46.7109142],[23.2527096,46.7109052],[23.2530049,46.7108917],[23.2535298,46.7108827],[23.2536086,46.7108737],[23.2537004,46.7108332],[23.2538316,46.7108152],[23.2539301,46.7108242],[23.2540416,46.7108422],[23.2541991,46.7108692],[23.2544091,46.7108917],[23.2545797,46.7109052],[23.2547437,46.7109187],[23.2548815,46.7109187],[23.2550259,46.7109142],[23.2551899,46.7109097],[23.2553605,46.7108917],[23.2554983,46.7108827],[23.2556623,46.7108647],[23.2558132,46.7108557],[23.2559576,46.7108737],[23.2561151,46.7108962],[23.256266,46.7109142],[23.2564431,46.7109232],[23.2566597,46.7109502],[23.2568959,46.7109771],[23.257283,46.7109861],[23.2574077,46.7109861],[23.2577161,46.7109322],[23.2578342,46.7109097],[23.2579917,46.7109097],[23.2581623,46.7109097],[23.2585166,46.7109097],[23.258661,46.7109007],[23.2587725,46.7108872],[23.2588578,46.7108647],[23.2588972,46.7108197],[23.2589103,46.7107477],[23.2589037,46.7106667],[23.2589169,46.7105857],[23.25893,46.7104642],[23.2589497,46.7103518],[23.2589431,46.7102483],[23.2589693,46.7101538],[23.2590022,46.7100998],[23.259094,46.7100503],[23.2591859,46.7100323],[23.2592777,46.7100503],[23.2593434,46.7101178],[23.2593893,46.7102078],[23.2594615,46.7103203],[23.2595271,46.7103968],[23.2596189,46.7104642],[23.2596911,46.7105272],[23.2597567,46.7105722],[23.2598748,46.7106127],[23.2600323,46.7106352],[23.2603407,46.7106442],[23.2606425,46.7106487],[23.2610494,46.7106442],[23.261279,46.7106172],[23.2614365,46.7105812],[23.2615218,46.7105497],[23.2615808,46.7105092],[23.2616399,46.7104418],[23.2616924,46.7103788],[23.2617646,46.7103203],[23.261863,46.7102888],[23.262027,46.7102528],[23.2621451,46.7102438],[23.2622698,46.7102483],[23.2623551,46.7102663],[23.2624667,46.7103113],[23.2627882,46.7104597],[23.2631162,46.7106262],[23.2634771,46.7107927],[23.2638511,46.7109771],[23.2639693,46.7110626],[23.2640414,46.7111481],[23.2641005,46.7112606],[23.2641792,46.7114316],[23.2642776,46.711652],[23.2643367,46.7118005],[23.2644154,46.7120794],[23.2644811,46.7123269],[23.2645007,46.7124348],[23.2645598,46.7126418],[23.2646188,46.7127813],[23.2647698,46.7130827],[23.2648813,46.7133256],[23.2649535,46.7135011],[23.2650913,46.713879],[23.2651372,46.7140275],[23.2651438,46.7141264],[23.2651503,46.7142839],[23.2651306,46.7143919],[23.2651306,46.7145178],[23.2651569,46.7145808],[23.2652094,46.7146303],[23.265275,46.7146528],[23.2653537,46.7146528],[23.2654128,46.7146213],[23.265439,46.7145583],[23.2654522,46.7144504],[23.2654784,46.7143289],[23.2655309,46.7142164],[23.2655703,46.7141399],[23.2656096,46.7140725],[23.2656753,46.7139915],[23.2657474,46.71387],[23.2657934,46.7137845],[23.2658459,46.713717],[23.2658983,46.7136811],[23.2659902,46.7136766],[23.2660624,46.713708],[23.2661083,46.713762],[23.266128,46.713816],[23.2661477,46.7138835],[23.2661542,46.7139915],[23.266128,46.7142614],[23.2661149,46.7143964],[23.2660886,46.7147383],[23.2660558,46.7148553],[23.2660165,46.7149542],[23.2659443,46.7150532],[23.2658459,46.7151477],[23.2656753,46.7152511],[23.2655178,46.7153321],[23.2653603,46.7154311],[23.2652881,46.7154896],[23.2652553,46.7155436],[23.2652553,46.7155975],[23.2652881,46.7156515],[23.2653472,46.715719],[23.265439,46.715827],[23.2655112,46.7159035],[23.2656228,46.7159709],[23.265754,46.7160249],[23.2658721,46.7160564],[23.2659902,46.7160564],[23.2661149,46.7160474],[23.2662658,46.7160204],[23.2664364,46.7159709],[23.2665807,46.7159305],[23.2667382,46.715899],[23.2669482,46.715845],[23.2671181,46.7157927],[23.2673412,46.7157343],[23.2675381,46.7157073],[23.2676955,46.7157073],[23.2678924,46.7157073],[23.2680302,46.7157163],[23.268168,46.7157343],[23.2682926,46.7157568],[23.2684632,46.7157882],[23.2686273,46.7158107],[23.2687454,46.7158062],[23.2688438,46.7157792],[23.268916,46.7157208],[23.2690079,46.7156083],[23.2690932,46.7154778],[23.2691785,46.7153699],[23.2692506,46.7153069],[23.269395,46.7152034],[23.2695065,46.7151089],[23.2696509,46.7149695],[23.2697624,46.714857],[23.2698609,46.714758],[23.2699987,46.7146546],[23.2701168,46.7145601],[23.2702086,46.7144971],[23.2703464,46.7144431],[23.2704842,46.7143801],[23.2706745,46.7143351],[23.2708385,46.7143036],[23.2710091,46.7142632],[23.271206,46.7141957],[23.2713963,46.7141282],[23.2715931,46.7140427],[23.2717965,46.7139482],[23.2719671,46.7138853],[23.2721902,46.7137683],[23.2724067,46.7136648],[23.2725445,46.7135793],[23.272702,46.7134938],[23.2727939,46.7134489],[23.272912,46.7134309],[23.2730432,46.7134309],[23.2732204,46.7134489],[23.2734041,46.7134803],[23.2735944,46.7135208],[23.2737256,46.7135658],[23.27387,46.7135973],[23.2740406,46.7136378],[23.2742505,46.7136783],[23.2744605,46.7137053],[23.2746967,46.7137278],[23.2748804,46.7137683],[23.2750839,46.7138313],[23.2752676,46.7138808],[23.2754841,46.7139617],[23.2756613,46.7140382],[23.2760156,46.7141957],[23.27616,46.7142632],[23.2762912,46.7143351],[23.2763896,46.7143891],[23.2765274,46.7144791],[23.276698,46.7145736],[23.2768161,46.7146501],[23.2769277,46.714704],[23.2770983,46.714749],[23.2772623,46.7147805],[23.2773279,46.7148165],[23.2774657,46.7149155],[23.2775969,46.715037],[23.277761,46.7151674],[23.2779184,46.7153474],[23.2780103,46.7154823],[23.2780628,46.7156173],[23.2781415,46.7157882],[23.27824,46.7159907],[23.2783318,46.7161751],[23.2784237,46.7163551],[23.2784827,46.716481],[23.2785418,46.7165845],[23.2786402,46.716679],[23.2787518,46.7167105],[23.2789092,46.7167195],[23.2790733,46.7167195],[23.2792636,46.7166925],[23.2794276,46.716652],[23.2796113,46.71658],[23.2798016,46.7164765],[23.2799263,46.7164181],[23.2800313,46.7163776],[23.2801231,46.7163821],[23.2801691,46.7164226],[23.2801691,46.716499],[23.2801231,46.716607],[23.2800838,46.7166745],[23.2799657,46.7167869],[23.2798541,46.7168769],[23.2797098,46.7169669],[23.2795457,46.7170794],[23.2793423,46.7172098],[23.2791258,46.7173763],[23.278988,46.7174977],[23.2789027,46.7175697],[23.2788436,46.7176282],[23.2788043,46.7177002],[23.2787911,46.7177631],[23.2788043,46.7178576],[23.2788239,46.7179656],[23.2788502,46.7180421],[23.2789092,46.7181275],[23.2789814,46.718195],[23.2790602,46.718258],[23.2791848,46.71833],[23.2792316,46.7183649],[23.279257,46.7183839],[23.2793161,46.7184739],[23.279362,46.7185684],[23.2794014,46.7186538],[23.2794539,46.7187393],[23.2795457,46.7188383],[23.2796835,46.7189552],[23.2797951,46.7190227],[23.2798935,46.7190992],[23.2799985,46.7191892],[23.2801297,46.7193061],[23.2803725,46.7195535],[23.2804709,46.719648],[23.2806743,46.7198639],[23.2807727,46.7199719],[23.2808187,46.7200484],[23.2808449,46.7201338],[23.2808974,46.7202058],[23.2809827,46.7202868],[23.2810811,46.7203587],[23.2811599,46.7204037],[23.2811992,46.7204577],[23.2812255,46.7205072],[23.2812255,46.7206017],[23.2812386,46.7207366],[23.2812648,46.7208491],[23.2813042,46.7209885],[23.2813239,46.72111],[23.2813501,46.7211999],[23.2813501,46.7213079],[23.2813501,46.7213754],[23.2813764,46.7214383],[23.2814354,46.7215193],[23.2815995,46.7217442],[23.2816848,46.7218522],[23.2818357,46.7220321],[23.2819276,46.7221311],[23.28198,46.722176],[23.2820391,46.722203],[23.2821375,46.722257],[23.2822491,46.722311],[23.2823409,46.722365],[23.2824459,46.7224189],[23.2825378,46.7224864],[23.2826362,46.7225674],[23.2827346,46.7226573],[23.2828462,46.7227428],[23.2831218,46.7229452],[23.2832202,46.7230397],[23.2833055,46.7231207],[23.2833973,46.7232556],[23.2834695,46.723377],[23.2835417,46.723485],[23.2837582,46.7237504],[23.2838829,46.7238898],[23.2841979,46.7242047],[23.2843685,46.7243711],[23.2845587,46.724542],[23.2848474,46.7248749],[23.2851165,46.7251718],[23.2853593,46.7254686],[23.2854905,46.7256081],[23.285602,46.725716],[23.2858645,46.7259634],[23.2859695,46.7260533],[23.2860613,46.7261118],[23.2861794,46.7261748],[23.2862976,46.7262108],[23.286501,46.7262467],[23.2866847,46.7262602],[23.2868225,46.7262602],[23.2869471,46.7262512],[23.2870981,46.7262288],[23.287249,46.7262018],[23.2874327,46.7261568],[23.2875967,46.7260983],[23.2878067,46.7260174],[23.2879314,46.7259634],[23.2880298,46.7259139],[23.2881282,46.7259139],[23.2882135,46.7259409],[23.2882595,46.7259994],[23.2883054,46.7260668],[23.288371,46.7261523],[23.2884563,46.7262602],[23.288581,46.7263547],[23.2886925,46.7264087],[23.2888434,46.7264537],[23.2890075,46.7264896],[23.2891978,46.7264941],[23.2893815,46.7264716],[23.2896374,46.7264177],[23.289867,46.7263682],[23.2900114,46.7263097],[23.2901492,46.7262512],[23.2903067,46.7262018],[23.2904182,46.7261658],[23.2905691,46.7261433],[23.2906938,46.7261478],[23.2908053,46.7261748],[23.2909431,46.7262467],[23.2910547,46.7263142],[23.2911531,46.7263637],[23.2912515,46.7264042],[23.2913565,46.7264222],[23.2914484,46.7264177],[23.2915271,46.7264042],[23.2916124,46.7263547],[23.2916977,46.7262962],[23.2918355,46.7262288],[23.2919471,46.7261838],[23.2920914,46.7261613],[23.2922489,46.7261613],[23.2924064,46.7261613],[23.2925901,46.7261658],[23.2927804,46.7261613],[23.2929313,46.7261343],[23.2930756,46.7260983],[23.2932528,46.7260398],[23.2934103,46.7259724],[23.2935349,46.7259094],[23.2936727,46.7258329],[23.2938237,46.7257385],[23.2940163,46.7256297],[23.294141,46.7255397],[23.294246,46.7254497],[23.2943182,46.7253778],[23.294351,46.7253058],[23.2943575,46.7252203],[23.2943378,46.7251079],[23.294305,46.7249865],[23.2942919,46.7248605],[23.2942722,46.7247166],[23.2942591,46.7246086],[23.2942591,46.7244557],[23.2942657,46.7243342],[23.2942788,46.7241858],[23.294305,46.7240464],[23.2943313,46.7239159],[23.2943444,46.7237765],[23.2943444,46.7236415],[23.2943444,46.7235291],[23.2943313,46.7233807],[23.294305,46.7232322],[23.2942853,46.7230523],[23.2942525,46.7229263],[23.294286,46.7227786],[23.2942455,46.7226447],[23.2941785,46.7224803],[23.2940491,46.7223551],[23.2940294,46.7222561],[23.2940294,46.7221662],[23.2940294,46.7220762],[23.2940163,46.7219143],[23.2939901,46.7217703],[23.2939638,46.7216714],[23.2939376,46.7215634],[23.2939245,46.7214644],[23.2939179,46.721379],[23.2939573,46.721334],[23.2940229,46.721307],[23.2941082,46.721307],[23.2941804,46.721352],[23.2942853,46.7214464],[23.2943838,46.7215274],[23.2944559,46.7215589],[23.2945412,46.7215724],[23.2946462,46.7215544],[23.29483,46.7214959],[23.2949743,46.7214734],[23.2950662,46.7214734],[23.2951187,46.7215094],[23.2951121,46.7215724],[23.2950727,46.7216309],[23.2949874,46.7217163],[23.2949021,46.7218063],[23.2948496,46.7218918],[23.2948431,46.7219682],[23.2948759,46.7220762],[23.2949218,46.7221932],[23.2950137,46.7223371],[23.2951843,46.7225125],[23.2953614,46.72267],[23.2954402,46.7227869],[23.2955714,46.7230163],[23.2956961,46.7232277],[23.2957945,46.7234076],[23.295952,46.723637],[23.2960963,46.7238305],[23.2961948,46.7239654],[23.2962604,46.7241048],[23.2962932,46.7242128],[23.2963522,46.7244197],[23.2964113,46.7246131],[23.2964572,46.7247256],[23.2965097,46.724892],[23.2965556,46.7250134],[23.2966344,46.7251664],[23.2967262,46.7252788],[23.2968115,46.7253643],[23.2969231,46.7254362],[23.2970543,46.7254722],[23.2972709,46.7254902],[23.2974743,46.7254947],[23.2976645,46.7254992],[23.2978023,46.7254767],[23.2979467,46.7254677],[23.2980517,46.7254812],[23.2981829,46.7254857],[23.2982879,46.7254722],[23.2983994,46.7254497],[23.298511,46.7254362],[23.2986488,46.7254317],[23.2987997,46.7254542],[23.2990294,46.7255352],[23.2991868,46.7256297],[23.2993246,46.7257061],[23.2994952,46.7257916],[23.2997118,46.7258725],[23.3000136,46.7259805],[23.3002039,46.726039],[23.3004729,46.7261244],[23.3006238,46.7261604],[23.3008075,46.7261829],[23.3010566,46.7262848],[23.3011,46.7264064],[23.3011011,46.7265067],[23.3011149,46.7265761],[23.301112,46.7267049],[23.3011171,46.7267612],[23.3011517,46.7268736],[23.3011083,46.7269038],[23.301071,46.726924],[23.3009962,46.72697],[23.3009383,46.7270107],[23.3008403,46.727078],[23.3007747,46.7270375],[23.3005648,46.7272309],[23.3006435,46.7272624],[23.3005385,46.7274018],[23.3004663,46.7275322],[23.3004073,46.7276852],[23.3003745,46.7278336],[23.3003613,46.727955],[23.3003089,46.7280045],[23.3002301,46.7280405],[23.3001054,46.7280315],[23.2988326,46.7275325],[23.2989384,46.7274296],[23.2989469,46.7274337],[23.2990031,46.7273789],[23.2989253,46.7273414],[23.2988687,46.7273966],[23.2988773,46.7274007],[23.2988222,46.727452],[23.2987398,46.7273483],[23.2986874,46.7272943],[23.2986152,46.7272718],[23.2985036,46.7272538],[23.2984052,46.7272448],[23.2982543,46.7272448],[23.2981099,46.7272493],[23.2980181,46.7272583],[23.2979,46.7272493],[23.2977359,46.7272448],[23.2975194,46.7272313],[23.2973554,46.7272043],[23.2972701,46.7271729],[23.297152,46.7271639],[23.2969748,46.7271729],[23.2968239,46.7271774],[23.2966205,46.7272133],[23.2965089,46.7272493],[23.2963711,46.7273213],[23.2962962,46.7273452],[23.2962218,46.727373],[23.2961271,46.7273869],[23.2960594,46.727424],[23.2960121,46.7274703],[23.2959986,46.7275352],[23.295985,46.7275862],[23.2959298,46.7276199],[23.2958419,46.7276292],[23.2957472,46.727657],[23.2956931,46.727708],[23.2956795,46.7277683],[23.295666,46.7278286],[23.2955848,46.7279028],[23.2953819,46.7280697],[23.295152,46.7282505],[23.2949491,46.7284081],[23.2947597,46.7285843],[23.2946515,46.7286816],[23.2944824,46.7287558],[23.2943066,46.7288068],[23.2940495,46.7288671],[23.2937655,46.7289737],[23.2934746,46.7291081],[23.2932312,46.7292704],[23.2930553,46.7294002],[23.29292,46.7295254],[23.2928321,46.7295949],[23.2927848,46.7296598],[23.2927374,46.7297108],[23.2926495,46.7297525],[23.2924939,46.729785],[23.2922234,46.7298499],[23.2919664,46.7299055],[23.2917635,46.7299519],[23.2915674,46.7299611],[23.2912765,46.7299611],[23.2910736,46.729975],[23.2909181,46.7300029],[23.2908301,46.7300678],[23.2907693,46.7301651],[23.2906611,46.7303923],[23.2906272,46.7304757],[23.2905664,46.7304943],[23.2904784,46.7304804],[23.2903702,46.730434],[23.2902011,46.7303645],[23.2900659,46.7302949],[23.2899441,46.7302671],[23.2898156,46.7302578],[23.2896668,46.73023],[23.289491,46.7301837],[23.2892407,46.7301141],[23.2889229,46.730077],[23.288517,46.730026],[23.2881789,46.729975],[23.2878813,46.729887],[23.2875972,46.729785],[23.2873334,46.7296644],[23.2872252,46.729632],[23.287117,46.7296366],[23.2869682,46.7296552],[23.2868329,46.7297062],[23.2866098,46.7297942],[23.2864136,46.7298823],[23.2862716,46.7299333],[23.2861431,46.7299611],[23.2859943,46.7299936],[23.2858861,46.7300399],[23.285832,46.7301002],[23.2857779,46.7301883],[23.2856629,46.7302764],[23.2854803,46.7304572],[23.2853653,46.7306055],[23.2852976,46.7307678],[23.2852841,46.7309208],[23.2853247,46.7310181],[23.2853788,46.7310923],[23.2855411,46.7312638],[23.2857508,46.7314771],[23.2858455,46.73163],[23.2858996,46.731783],[23.2859334,46.731936],[23.2859469,46.7320983],[23.2859402,46.7323439],[23.2858928,46.7326128],[23.2858387,46.7328446],[23.2857779,46.7330903],[23.2857305,46.7333035],[23.2856856,46.7334806],[23.2856397,46.7336291],[23.2855872,46.733755],[23.2855478,46.7338404],[23.2854953,46.7339304],[23.2854605,46.7339481],[23.2854071,46.733937],[23.2853955,46.7339179],[23.2853824,46.7338099],[23.2853758,46.7336256],[23.2853758,46.7333962],[23.2853561,46.7332433],[23.2853299,46.7331668],[23.2852971,46.7330994],[23.2852774,46.7330004],[23.2852708,46.73287],[23.2852708,46.7326991],[23.2852643,46.7325327],[23.2852577,46.7324293],[23.285238,46.7323258],[23.285179,46.7321909],[23.2851199,46.732065],[23.2851002,46.7319705],[23.2850806,46.7318851],[23.2850478,46.7318131],[23.2849756,46.7317277],[23.2849034,46.7316422],[23.2847984,46.7315163],[23.2847131,46.7314399],[23.2846213,46.7313904],[23.2845294,46.7313274],[23.2844703,46.7312645],[23.284385,46.7311655],[23.2843129,46.7310621],[23.2842604,46.7309766],[23.2841948,46.7309586],[23.2840766,46.7309631],[23.2839651,46.7309856],[23.2838798,46.7309811],[23.2838254,46.730943],[23.2838142,46.7308822],[23.283819,46.7307618],[23.283852,46.7306859],[23.2839192,46.7306303],[23.2840045,46.7305718],[23.2840504,46.7305359],[23.2840832,46.7304864],[23.2840963,46.7304009],[23.284116,46.7302165],[23.2841258,46.7300734],[23.2841389,46.7299429],[23.284152,46.7298215],[23.2841717,46.7297181],[23.2841914,46.7296371],[23.2842176,46.7295517],[23.2842439,46.7294482],[23.2842898,46.7293538],[23.2843423,46.7292773],[23.2844079,46.7291694],[23.2844407,46.7291109],[23.2844604,46.7290479],[23.2844407,46.7289895],[23.2844014,46.728949],[23.2843226,46.728895],[23.2841914,46.7288365],[23.2840733,46.7288006],[23.2839289,46.7287466],[23.2838239,46.7286926],[23.2837452,46.7286341],[23.2836271,46.7285667],[23.2835418,46.7284767],[23.2833712,46.7283418],[23.2832203,46.7282204],[23.2830825,46.7281349],[23.2830234,46.7280584],[23.282925,46.7279775],[23.2828266,46.7279055],[23.2826757,46.7278021],[23.2825969,46.7277391],[23.2824395,46.7276222],[23.2823017,46.7275052],[23.2821901,46.7273793],[23.2820917,46.7272758],[23.2819867,46.7271769],[23.2818948,46.7270959],[23.2817899,46.7270015],[23.2817046,46.7269205],[23.2816193,46.7268261],[23.2815602,46.7267766],[23.281488,46.7267361],[23.2813896,46.7266956],[23.2812781,46.7266462],[23.2811731,46.7266192],[23.281055,46.7266147],[23.2809959,46.7266417],[23.2808975,46.7266866],[23.2807925,46.7267451],[23.2807138,46.7267811],[23.2806153,46.7268081],[23.2804513,46.7268216],[23.2802807,46.7268126],[23.2801363,46.7267991],[23.2800576,46.7267676],[23.2800117,46.7267271],[23.279992,46.7266641],[23.2799526,46.7266102],[23.2798608,46.7265742],[23.2796508,46.7265022],[23.2794277,46.7264213],[23.2792374,46.7263313],[23.2791193,46.7262818],[23.2789618,46.7262503],[23.2787912,46.7262054],[23.2786797,46.7261739],[23.2786141,46.7261334],[23.2785878,46.7260794],[23.2786075,46.7260344],[23.2787191,46.725976],[23.2789553,46.725895],[23.2791915,46.725832],[23.2794408,46.7257916],[23.2795524,46.7257646],[23.279618,46.7257376],[23.2796311,46.7256926],[23.2795852,46.7256566],[23.2794736,46.7256206],[23.279303,46.7255622],[23.2791193,46.7254632],[23.2789487,46.7253193],[23.2788634,46.7252293],[23.2787715,46.7251529],[23.2786928,46.7250629],[23.2786403,46.7249729],[23.2786009,46.7248875],[23.2785288,46.724793],[23.2784697,46.7247345],[23.2783975,46.7247121],[23.278286,46.7247031],[23.2780695,46.7247211],[23.2779185,46.724739],[23.2777414,46.72473],[23.2776233,46.7247166],[23.2775445,46.7246941],[23.277492,46.7246581],[23.277492,46.7246041],[23.2775511,46.7245186],[23.2776626,46.7243927],[23.2777283,46.7243207],[23.2777676,46.7242578],[23.2777611,46.7241948],[23.2777217,46.7241228],[23.2776495,46.7240284],[23.2775052,46.7238619],[23.2773739,46.7237405],[23.2772558,46.7236055],[23.277164,46.7235111],[23.2770655,46.7234211],[23.2769474,46.7233492],[23.2768621,46.7232907],[23.2768162,46.7232232],[23.27679,46.7231242],[23.27679,46.7230568],[23.2767768,46.7229893],[23.2767309,46.7229263],[23.2766784,46.7228544],[23.2766653,46.7227914],[23.2766653,46.7227194],[23.2766456,46.7226519],[23.2766128,46.72258],[23.2765472,46.7225215],[23.2765078,46.7224765],[23.2764684,46.722418],[23.2764159,46.7223236],[23.2763766,46.7222156],[23.2763175,46.7220897],[23.2762519,46.7219772],[23.2761863,46.7218783],[23.2761272,46.7217838],[23.2760682,46.7217028],[23.2759698,46.7216219],[23.2758582,46.7215499],[23.2757401,46.7214779],[23.2756351,46.7214194],[23.2755761,46.721388],[23.2755498,46.721334],[23.2755301,46.721244],[23.2755039,46.7211495],[23.2754711,46.7210686],[23.2754186,46.7210056],[23.2753595,46.7209696],[23.275248,46.7209606],[23.2751299,46.7209786],[23.2750249,46.7209741],[23.2749134,46.7209471],[23.274828,46.7209111],[23.2747756,46.7208617],[23.2747165,46.7207807],[23.2746181,46.7206547],[23.2745262,46.7205243],[23.2744606,46.7204748],[23.2744015,46.7204253],[23.2743491,46.7203758],[23.2743228,46.7203264],[23.2743097,46.7202454],[23.2743228,46.7201689],[23.2743162,46.7201059],[23.2742966,46.719998],[23.2742703,46.7199125],[23.2742244,46.719854],[23.2741588,46.719818],[23.2740932,46.7197686],[23.2740538,46.7197056],[23.2740144,46.7196336],[23.273975,46.7195256],[23.2739488,46.7194132],[23.2739226,46.7193097],[23.2739029,46.7192287],[23.2738438,46.7191478],[23.2737848,46.7190758],[23.2737191,46.7190038],[23.2736732,46.7189408],[23.273647,46.7188689],[23.2736535,46.7188104],[23.2736601,46.7187474],[23.2736601,46.7186799],[23.2736535,46.718599],[23.2736142,46.7184955],[23.2735682,46.718365],[23.2735223,46.7182301],[23.2734829,46.7181131],[23.2734501,46.7180232],[23.2734501,46.7179557],[23.2734895,46.7178837],[23.2735223,46.7178252],[23.2735485,46.7177667],[23.273542,46.7177128],[23.2735223,46.7176453],[23.2734567,46.7174923],[23.2733976,46.7174113],[23.2733451,46.7173304],[23.2732926,46.7172584],[23.2732402,46.7171729],[23.2731614,46.7170875],[23.2730761,46.7170065],[23.272958,46.716903],[23.2728465,46.7168085],[23.2727612,46.7167141],[23.2726693,46.7166466],[23.2726168,46.7166061],[23.2725249,46.7165926],[23.2724593,46.7166196],[23.2724396,46.7166826],[23.2724134,46.716768],[23.272374,46.716867],[23.2723347,46.716966],[23.2722887,46.71702],[23.2722297,46.7170695],[23.2721509,46.7171099],[23.2720394,46.7171324],[23.2719213,46.7171504],[23.2718425,46.7171774],[23.2717769,46.7172314],[23.2717244,46.7172809],[23.2716654,46.7173214],[23.2715998,46.7173439],[23.2714882,46.7173619],[23.2713242,46.7174113],[23.2712126,46.7174608],[23.2711601,46.7174923],[23.2710814,46.7175508],[23.2710355,46.7176003],[23.2709436,46.7176543],[23.2708321,46.7176858],[23.2706943,46.7177038],[23.2705171,46.7177442],[23.2703006,46.7177982],[23.2701103,46.7178567],[23.2699922,46.7178972],[23.269861,46.7179512],[23.2697428,46.7180097],[23.2696641,46.7180546],[23.2696051,46.7181086],[23.2696051,46.7181716],[23.2695985,46.7182481],[23.2696116,46.7183066],[23.2696379,46.718383],[23.2696772,46.7184415],[23.2696772,46.7185045],[23.2696772,46.7185765],[23.2696444,46.7186305],[23.2695788,46.7186979],[23.2695329,46.7187564],[23.2695132,46.7188194],[23.2695132,46.7189408],[23.2695066,46.7190308],[23.2695263,46.7192018],[23.269546,46.7193457],[23.2695788,46.7195481],[23.2695919,46.7196831],[23.2696116,46.719854],[23.2696247,46.720016],[23.2696444,46.7201329],[23.2696838,46.7202499],[23.2697297,46.7203803],[23.2697428,46.7204793],[23.2697822,46.7205783],[23.269815,46.7206547],[23.269861,46.7207222],[23.2698806,46.7207717],[23.2698872,46.7208437],[23.2698741,46.7209201],[23.2698478,46.7210011],[23.2698216,46.7211046],[23.2698085,46.7212035],[23.2698085,46.7212935],[23.2697757,46.7214014],[23.2697297,46.7214869],[23.2696969,46.7215679],[23.2696707,46.7216533],[23.2696247,46.7217253],[23.2695854,46.7217748],[23.2695263,46.7218063],[23.2694213,46.7218288],[23.2693426,46.7218558],[23.2692967,46.7218963],[23.269277,46.7219457],[23.2692967,46.7220042],[23.269336,46.7220492],[23.2693295,46.7220942],[23.2692507,46.7221167],[23.2690867,46.7221212],[23.2689555,46.7221257],[23.268903,46.7221616],[23.2688964,46.7222156],[23.2688833,46.7222651],[23.2688177,46.7223146],[23.2687258,46.7223281],[23.2686208,46.7223236],[23.2684896,46.7223281],[23.268424,46.7223596],[23.2684108,46.722418],[23.2683912,46.722463],[23.2683124,46.722517],[23.2682009,46.7225845],[23.2680696,46.722634],[23.2679515,46.7226429],[23.26784,46.7226519],[23.2677088,46.7226834],[23.2675907,46.7227194],[23.267525,46.7227554],[23.2673479,46.7228049],[23.2671313,46.7228499],[23.2669345,46.7228813],[23.2667967,46.7229128],[23.2666458,46.7229398],[23.2665277,46.7229713],[23.2664424,46.7229983],[23.266403,46.7230433],[23.2664161,46.7230883],[23.2664621,46.7231242],[23.2664883,46.7231647],[23.2664752,46.7232142],[23.2663965,46.7232277],[23.2662915,46.7232412],[23.2661865,46.7232637],[23.2661209,46.7233042],[23.2660881,46.7233581],[23.2660815,46.7234211],[23.2660253,46.7234856],[23.2659728,46.7235531],[23.26594,46.7236385],[23.26594,46.723706],[23.2659269,46.7237915],[23.2659007,46.7238994],[23.2658678,46.7239849],[23.2658285,46.7240614],[23.2657694,46.7241198],[23.2657038,46.7242053],[23.2656644,46.7242818],[23.2655923,46.7243987],[23.2655332,46.7245022],[23.2655004,46.7245966],[23.2654545,46.7246911],[23.2653954,46.7248035],[23.265356,46.72488],[23.2653101,46.7249565],[23.2652576,46.7250464],[23.2651854,46.7251499],[23.2651461,46.7252353],[23.2651133,46.7253388],[23.2651001,46.7254197],[23.265087,46.7254917],[23.2650411,46.7255772],[23.2649755,46.7256941],[23.264923,46.7257526],[23.2648508,46.7258111],[23.2648049,46.7258785],[23.2647852,46.7259505],[23.2647589,46.7260405],[23.2647327,46.7261259],[23.2647196,46.7262249],[23.2646736,46.7262743],[23.2646015,46.7263103],[23.2645424,46.7263913],[23.2644834,46.7264992],[23.2644374,46.7265892],[23.2643981,46.7266567],[23.2643193,46.7267196],[23.2642668,46.7267736],[23.2642275,46.7268411],[23.2641487,46.7269355],[23.2641094,46.727012],[23.2640831,46.7271019],[23.2640634,46.7271964],[23.2640503,46.7272998],[23.2640437,46.7274033],[23.2640437,46.7274888],[23.2640437,46.7275652],[23.2640437,46.7276552],[23.2640503,46.7277451],[23.2640503,46.7278081],[23.2640372,46.727898],[23.2640175,46.7279565],[23.2639847,46.728033],[23.2639322,46.7281004],[23.26386,46.7281859],[23.2637944,46.7282893],[23.2637091,46.7284288],[23.2636369,46.7285412],[23.2635713,46.7286402],[23.2634926,46.7287436],[23.2634007,46.7288471],[23.2633023,46.7289685],[23.263217,46.7290764],[23.2631448,46.7291889],[23.2630792,46.7292968],[23.2630201,46.7293823],[23.2629545,46.7294632],[23.2628955,46.7295577],[23.2628298,46.7296341],[23.262738,46.7297016],[23.2626461,46.729796],[23.2625543,46.7298905],[23.2624558,46.7300029],[23.2623837,46.7300704],[23.2623246,46.7301424],[23.2622984,46.7302053],[23.262259,46.7302818],[23.2621999,46.7303762],[23.2621212,46.7304392],[23.2620293,46.7304932],[23.2618915,46.7305696],[23.2618128,46.7306416],[23.2617078,46.730763],[23.2615832,46.7308934],[23.2615044,46.7309924],[23.2614191,46.7311003],[23.2613601,46.7311813],[23.2612879,46.7312757],[23.2612157,46.7313522],[23.261137,46.7314331],[23.2610648,46.7315006],[23.2609729,46.731577],[23.2608745,46.731649],[23.2607958,46.731712],[23.2606973,46.7317749],[23.2606252,46.7318379],[23.2605136,46.7319503],[23.2604152,46.7320358],[23.2603233,46.7321167],[23.260238,46.7321887],[23.2601396,46.7322561],[23.2600609,46.7323236],[23.2599362,46.7323866],[23.2598378,46.7324585],[23.259759,46.7325305],[23.2596606,46.7326069],[23.2595753,46.7326834],[23.2594835,46.7327464],[23.2593785,46.7327823],[23.2591947,46.7328318],[23.2590963,46.7328678],[23.2589782,46.7329218],[23.2587945,46.7329937],[23.2586436,46.7330657],[23.2584861,46.7331331],[23.2583614,46.7331871],[23.2582105,46.7332276],[23.2580465,46.7332546],[23.2579349,46.733277],[23.2577906,46.7332815],[23.2576134,46.7332815],[23.2574691,46.7332725],[23.2572919,46.733259],[23.2571541,46.7332411],[23.2570426,46.7332366],[23.2569048,46.7332276],[23.2567735,46.7332231],[23.256662,46.7332231],[23.2564903,46.7332235],[23.256346,46.733228],[23.2562016,46.733246],[23.2560704,46.733273],[23.2559392,46.7333045],[23.2558014,46.733345],[23.2556898,46.7333899],[23.2556045,46.7334304],[23.2555061,46.7334754],[23.2554208,46.7335069],[23.2553093,46.7335249],[23.2551583,46.7335428],[23.2549484,46.7335608],[23.2548237,46.7335878],[23.2546793,46.7336013],[23.2544234,46.7336598],[23.2542463,46.7337092],[23.2541413,46.7337497],[23.2540232,46.7337947],[23.2539641,46.7338307],[23.2538788,46.7338756],[23.2537935,46.7339116],[23.2537148,46.7339296],[23.2536033,46.7339386],[23.253518,46.7339206],[23.2534523,46.7338936],[23.2534195,46.7338442],[23.2534392,46.7337902],[23.2535316,46.7337791],[23.2536918,46.7337386],[23.2538296,46.7336807],[23.2540172,46.7335925],[23.254201,46.7335233],[23.2544207,46.7334322],[23.254582,46.7333829],[23.2547875,46.7333224],[23.2549687,46.7332712],[23.2551624,46.7332024],[23.2553144,46.7331542],[23.2554531,46.7331025],[23.2556021,46.7330458],[23.2557358,46.7329852],[23.2558342,46.7329537],[23.255972,46.7328997],[23.256136,46.7328548],[23.2562476,46.7328413],[23.2564641,46.7328323],[23.2566544,46.7328278],[23.2568512,46.7328143],[23.2570021,46.7328008],[23.2572252,46.7327738],[23.2574549,46.7327423],[23.2576255,46.7327109],[23.2577436,46.7326884],[23.2578617,46.7326614],[23.2579864,46.7326209],[23.2581045,46.7325759],[23.258216,46.732531],[23.2583473,46.7324815],[23.2584522,46.732423],[23.2585441,46.7323511],[23.2587081,46.7322341],[23.2588656,46.7321352],[23.2590034,46.7320273],[23.259115,46.7319283],[23.2592003,46.7318474],[23.2592987,46.7317664],[23.2593446,46.7316944],[23.2594168,46.7315955],[23.2594955,46.7315056],[23.2595677,46.7314291],[23.2597514,46.7312492],[23.2598761,46.7311278],[23.2599876,46.7310198],[23.2601123,46.7309209],[23.2602239,46.7308309],[23.2603288,46.7307185],[23.2603813,46.730642],[23.2604404,46.7305566],[23.2604994,46.7304846],[23.2605651,46.7304082],[23.2606569,46.7302867],[23.2607291,46.7302013],[23.2608013,46.7301248],[23.26088,46.7300349],[23.2609916,46.7299],[23.2610965,46.729756],[23.2612081,46.7296121],[23.2613262,46.7294457],[23.2613918,46.7293378],[23.2614837,46.7292073],[23.2615755,46.7290814],[23.2616412,46.7289959],[23.2617002,46.7288835],[23.2617593,46.7287756],[23.2617986,46.7286811],[23.2618577,46.7285687],[23.2619167,46.7284562],[23.2619692,46.7283843],[23.262048,46.7283303],[23.2621267,46.7282808],[23.262212,46.7282313],[23.2622711,46.7281639],[23.2623432,46.7280829],[23.2623957,46.728002],[23.262422,46.727912],[23.2624351,46.7278311],[23.2624417,46.7277411],[23.2624154,46.7276691],[23.2623826,46.7275567],[23.2623498,46.7274577],[23.2623301,46.7273498],[23.2623301,46.7272418],[23.2623301,46.7271384],[23.2623498,46.7270484],[23.2623629,46.7269405],[23.2623892,46.7268236],[23.2624089,46.7267381],[23.2624482,46.7266436],[23.2624942,46.7265537],[23.2625532,46.7264592],[23.2626188,46.7263873],[23.2627173,46.7262928],[23.2627829,46.7262253],[23.2628157,46.7261714],[23.262855,46.7261129],[23.2628747,46.7260364],[23.2628813,46.725933],[23.262901,46.7258475],[23.2629207,46.7257261],[23.2629338,46.7255866],[23.2629338,46.7254652],[23.2629469,46.7253438],[23.2629469,46.7252808],[23.26296,46.7252043],[23.2629863,46.7250514],[23.2630191,46.7249254],[23.2630519,46.724777],[23.2630847,46.7246511],[23.2631175,46.7245521],[23.2631503,46.7244846],[23.2632094,46.7244172],[23.263275,46.7243857],[23.2633668,46.7243587],[23.2634259,46.7243227],[23.2634784,46.7242597],[23.2634981,46.7241968],[23.2635178,46.7241518],[23.2635571,46.7240753],[23.2636227,46.7239494],[23.2637933,46.723675],[23.2638655,46.723567],[23.2639377,46.7234591],[23.2639968,46.7233601],[23.2640558,46.7232837],[23.264128,46.7231892],[23.2641936,46.7230947],[23.2642527,46.7229958],[23.2643051,46.7229238],[23.2643773,46.7227889],[23.2644233,46.7226989],[23.2644626,46.7226134],[23.2645086,46.7225055],[23.2645676,46.722393],[23.2646332,46.7223031],[23.2647251,46.7221771],[23.2647973,46.7220647],[23.2648891,46.7219252],[23.2649613,46.7218263],[23.2650335,46.7217273],[23.2650991,46.7216598],[23.2651844,46.7215969],[23.2652697,46.7215249],[23.2653616,46.7214619],[23.2654797,46.7214034],[23.2655781,46.7213495],[23.2656765,46.7212955],[23.2658209,46.7212505],[23.2659718,46.721201],[23.2660965,46.7211515],[23.2662014,46.7211155],[23.2662999,46.7210751],[23.2663327,46.7210301],[23.2663327,46.7209806],[23.2662867,46.7209221],[23.2662014,46.7208816],[23.2661161,46.7208277],[23.2659915,46.7207287],[23.2658996,46.7206477],[23.2658209,46.7205802],[23.2657356,46.7204813],[23.2656831,46.7203958],[23.2656175,46.7202969],[23.2655584,46.7201889],[23.2655059,46.7200854],[23.2654403,46.719946],[23.2653944,46.71982],[23.2653944,46.7197436],[23.2654272,46.7196941],[23.2654862,46.7196581],[23.265565,46.7196491],[23.2656371,46.7196671],[23.2657093,46.7197121],[23.2658143,46.7197975],[23.2659193,46.719874],[23.2660374,46.7199595],[23.2661489,46.7200314],[23.2662933,46.7200899],[23.266418,46.7201439],[23.2665492,46.7201889],[23.2666673,46.7202114],[23.266792,46.7202339],[23.2668904,46.7202429],[23.266956,46.7202204],[23.2669954,46.7201799],[23.2670151,46.7201214],[23.2669954,46.7200584],[23.2669757,46.7199685],[23.2669429,46.7196896],[23.2669429,46.7195861],[23.2669495,46.7193387],[23.2669495,46.7191902],[23.2669626,46.7190508],[23.2669691,46.7189248],[23.2669691,46.7188484],[23.2669691,46.7187584],[23.2669429,46.7186729],[23.2668773,46.7185875],[23.266792,46.71852],[23.2666673,46.7184165],[23.2665558,46.7183355],[23.2664705,46.7182771]]]},"properties":{"name":"Lacul Tarnița","name_ro":"Lacul Tarnița","type":"lake","source":"manual_premap","source_detail":"HOTOSM Waterways HDX snapshot 2026-08-07, water=lake/reservoir name match (1 candidate features, largest polygon selected)","osm_type":"way","osm_id":"relation/9062864","geocode_tier":"tier1","confidence":"high"}}]}