{"type":"FeatureCollection","metadata":{"pipeline":"tier1_premap","pipeline_version":"1.0","generated_at":"2026-08-11T10:41:31.374579+00:00"},"features":[{"type":"Feature","id":"lacul-bucura","geometry":{"type":"Polygon","coordinates":[[[22.8732094,45.3624548],[22.8733344,45.3625678],[22.8734167,45.362599],[22.8734903,45.3626987],[22.8736803,45.362751],[22.8739244,45.3627477],[22.8740438,45.3627112],[22.87418,45.3627374],[22.8742784,45.3627989],[22.8743837,45.362835],[22.8745162,45.3628756],[22.8746057,45.3628193],[22.8747881,45.3628231],[22.8748793,45.362744],[22.8749747,45.3625128],[22.8750099,45.3623409],[22.8750211,45.3622165],[22.8750121,45.3621174],[22.8750035,45.3620618],[22.8749463,45.3619776],[22.8749475,45.361772],[22.8750663,45.3617263],[22.8752288,45.3616258],[22.8753547,45.3615629],[22.8754135,45.3614539],[22.8753787,45.3612403],[22.8754289,45.3610767],[22.8755703,45.3609602],[22.8756124,45.3607745],[22.8757396,45.3606361],[22.8757632,45.3605491],[22.8757523,45.3604536],[22.8758824,45.3602299],[22.8760074,45.3601498],[22.876136,45.3601272],[22.8762525,45.3600377],[22.8764081,45.3599887],[22.8764188,45.3598756],[22.8766656,45.3596645],[22.8765905,45.3594496],[22.8764406,45.3593082],[22.8764312,45.3592686],[22.8764038,45.3591532],[22.8764314,45.3589672],[22.8765115,45.3587651],[22.8765348,45.3586403],[22.8765097,45.3585249],[22.876412,45.3584444],[22.8762822,45.3583989],[22.8761595,45.3582893],[22.8759593,45.3582233],[22.8757646,45.3582143],[22.8754582,45.3581601],[22.8752948,45.3581096],[22.8750155,45.3580838],[22.8746515,45.358028],[22.8745455,45.3580078],[22.8744179,45.358006],[22.8741953,45.358121],[22.8739691,45.3582241],[22.8737867,45.358398],[22.8736615,45.3584885],[22.8735676,45.3586015],[22.8735248,45.3587071],[22.8735113,45.3587674],[22.8735355,45.3589596],[22.8735757,45.3590991],[22.8736294,45.3592404],[22.8735435,45.3594534],[22.8735125,45.3596073],[22.8734121,45.3598417],[22.8736025,45.3603732],[22.8736267,45.3605183],[22.8735437,45.3607637],[22.8735489,45.3609687],[22.8735757,45.3611081],[22.8734362,45.3612777],[22.8733749,45.3616412],[22.8733439,45.3619129],[22.8732773,45.3620344],[22.8733616,45.3621507],[22.8732916,45.3621928],[22.8732171,45.3623461],[22.8732094,45.3624548]]]},"properties":{"name":"Lacul Bucura","name_ro":"Lacul Bucura","type":"lake","source":"manual_premap","source_detail":"HOTOSM Waterways HDX snapshot 2026-08-07, water=lake/reservoir name match (1 candidate features, largest polygon selected)","osm_type":"way","osm_id":"way/169861014","geocode_tier":"tier1","confidence":"high"}}]}