{"type":"FeatureCollection","metadata":{"pipeline":"tier1_premap","pipeline_version":"1.0","generated_at":"2026-08-11T10:41:31.192346+00:00"},"features":[{"type":"Feature","id":"lacul-rosu","geometry":{"type":"Polygon","coordinates":[[[25.7844025,46.7836239],[25.7843851,46.7836744],[25.7843877,46.7837267],[25.7844172,46.7837681],[25.7845044,46.7838112],[25.7845674,46.7838608],[25.7846425,46.7839435],[25.7847096,46.7840518],[25.7848035,46.7842336],[25.7849577,46.7845661],[25.7851079,46.7848856],[25.785242,46.7852107],[25.7852554,46.7853595],[25.785234,46.785534],[25.7852313,46.785657],[25.7852715,46.785714],[25.785352,46.7857525],[25.7853788,46.7858058],[25.785352,46.7858792],[25.7852501,46.785938],[25.7852367,46.7859711],[25.7852635,46.7860152],[25.7855129,46.7861455],[25.7856175,46.7862172],[25.7857436,46.7863806],[25.7859018,46.7865863],[25.7859904,46.7866763],[25.7860494,46.7867332],[25.7860789,46.7867957],[25.7860842,46.786871],[25.7860306,46.787073],[25.7860225,46.7872383],[25.7860762,46.7874532],[25.7861459,46.7877158],[25.7861808,46.7879472],[25.7862237,46.7882006],[25.7862237,46.788489],[25.786154,46.7887644],[25.7859716,46.7891813],[25.785816,46.789758],[25.7857811,46.7900316],[25.7858241,46.7902501],[25.7859662,46.7905164],[25.7862613,46.79088],[25.7864892,46.7911904],[25.7865657,46.791273],[25.7865804,46.7913162],[25.7865751,46.7913722],[25.7865308,46.7914236],[25.786331,46.7915503],[25.7861727,46.7916467],[25.7859126,46.791778],[25.7856444,46.7919828],[25.7854834,46.7921343],[25.7853466,46.7923207],[25.7852675,46.7924015],[25.7851535,46.7924731],[25.7850301,46.7925162],[25.7849161,46.7925217],[25.7847404,46.7925025],[25.7844307,46.7924492],[25.7842255,46.7924308],[25.7839908,46.7924244],[25.7838084,46.7924207],[25.783677,46.79244],[25.7834865,46.7924832],[25.7832693,46.7925328],[25.7831097,46.7925576],[25.7825088,46.7925869],[25.7824565,46.7926292],[25.7824458,46.7926723],[25.7824686,46.7927155],[25.782533,46.7927384],[25.782773,46.7927917],[25.7830265,46.7928348],[25.7832223,46.7928532],[25.7833779,46.7928486],[25.7835147,46.7928541],[25.7837816,46.7928725],[25.784326,46.7929248],[25.7845621,46.7929285],[25.7847244,46.7929211],[25.7849255,46.7929009],[25.7851495,46.792867],[25.7855558,46.7927706],[25.7857248,46.7927164],[25.7859018,46.7926374],[25.7860078,46.792564],[25.7861929,46.7923987],[25.7863055,46.792294],[25.7864638,46.7921995],[25.7866247,46.7921269],[25.7868487,46.7920369],[25.7870646,46.7919635],[25.787247,46.7919304],[25.7875742,46.7918992],[25.787888,46.791862],[25.788,46.79184],[25.7880644,46.7918221],[25.7881351,46.7917916],[25.7881724,46.791754],[25.7881884,46.791717],[25.7881911,46.7916008],[25.7882005,46.7915411],[25.7881871,46.7914952],[25.7881361,46.7914493],[25.788049,46.7913396],[25.788041,46.7913113],[25.7880027,46.7911761],[25.7880067,46.7911426],[25.7880278,46.7911184],[25.7880488,46.7911052],[25.7881002,46.7910676],[25.7881355,46.7910412],[25.7881542,46.7910242],[25.7881709,46.7909845],[25.7881737,46.790961],[25.7881773,46.7909302],[25.7882456,46.7908998],[25.7882052,46.7908496],[25.7881997,46.7908428],[25.7881074,46.7907283],[25.7880899,46.7907065],[25.7881039,46.7906192],[25.7880107,46.7905511],[25.7876439,46.7903438],[25.7875206,46.7902813],[25.7874696,46.7902189],[25.7874535,46.7901629],[25.7874361,46.7900509],[25.7874104,46.7898597],[25.7873462,46.7895697],[25.78731,46.789421],[25.7872722,46.7893256],[25.7872577,46.7892897],[25.7872497,46.7892382],[25.7872751,46.7891694],[25.7873476,46.7890619],[25.7874025,46.7889821],[25.787432,46.7888719],[25.787432,46.7887323],[25.7874535,46.7886368],[25.7875188,46.7885452],[25.7875313,46.7885119],[25.7875179,46.7884688],[25.787487,46.7884219],[25.7874307,46.7883723],[25.7874079,46.7883402],[25.7873999,46.7882622],[25.7874173,46.7881566],[25.7874213,46.7879858],[25.7873811,46.7876056],[25.7873449,46.7873035],[25.7872993,46.7870776],[25.7871866,46.7868398],[25.786972,46.7864991],[25.7868674,46.78632],[25.7867829,46.7861529],[25.7866395,46.7859178],[25.7866073,46.7858214],[25.7866059,46.7857222],[25.7866555,46.7856139],[25.7866582,46.7855266],[25.7866167,46.7854127],[25.7865724,46.7853338],[25.7864852,46.7852419],[25.786339,46.7850913],[25.7862505,46.7849784],[25.786221,46.7848719],[25.7861996,46.7846928],[25.7862277,46.7844559],[25.7862277,46.7843512],[25.786213,46.7842906],[25.7861406,46.7842483],[25.7859984,46.7842107],[25.7857463,46.7841455],[25.7855156,46.7840784],[25.7851911,46.7840215],[25.785132,46.7840013],[25.7851025,46.7839673],[25.7850543,46.7838957],[25.7849054,46.7836909],[25.7847834,46.7835697],[25.7846117,46.7833805],[25.7845715,46.7833631],[25.7845299,46.7833631],[25.7845071,46.7833787],[25.7844749,46.783465],[25.784432,46.7835706],[25.7844025,46.7836239]]]},"properties":{"name":"Lacul Roșu","name_ro":"Lacul Roșu","type":"lake","source":"manual_premap","source_detail":"HOTOSM Waterways HDX snapshot 2026-08-07, water=lake/reservoir name match (1 candidate features, largest polygon selected)","osm_type":"way","osm_id":"way/53045907","geocode_tier":"tier1","confidence":"high"}}]}