{"type":"FeatureCollection","metadata":{"pipeline":"tier1_premap","pipeline_version":"1.0","generated_at":"2026-08-11T10:41:31.328919+00:00"},"features":[{"type":"Feature","id":"lacul-siutghiol","geometry":{"type":"Polygon","coordinates":[[[28.6073782,44.2254299],[28.6073571,44.2254542],[28.6073658,44.2254898],[28.6074135,44.2255419],[28.6074546,44.2255737],[28.607621,44.2257023],[28.6077209,44.226635],[28.6084214,44.226545],[28.6083606,44.2263407],[28.6083476,44.2262969],[28.6083902,44.2262894],[28.6084131,44.2263619],[28.6084687,44.2265389],[28.6085244,44.2265317],[28.6085527,44.2265281],[28.608745,44.2264962],[28.6088308,44.226458],[28.6088737,44.226328],[28.6088745,44.2262852],[28.6088109,44.2262443],[28.6087712,44.2261707],[28.6088176,44.226111],[28.6088992,44.2260812],[28.6089904,44.2260739],[28.6090625,44.2261178],[28.6091039,44.2261682],[28.6090604,44.2262415],[28.6089465,44.226294],[28.6089082,44.2265066],[28.608828,44.226552],[28.6086101,44.2265899],[28.6086231,44.2266621],[28.6087287,44.2267583],[28.6088213,44.2269071],[28.6088597,44.2271431],[28.6089425,44.2272744],[28.6089919,44.2273173],[28.6093561,44.2272759],[28.6097664,44.2272667],[28.6098335,44.2272792],[28.6098114,44.2273139],[28.6096253,44.2273332],[28.6093731,44.2273448],[28.6090241,44.2273828],[28.6088921,44.2274114],[28.608798,44.2274092],[28.6086766,44.227315],[28.6085966,44.2272147],[28.6084953,44.2270874],[28.6084011,44.2269707],[28.6082832,44.226864],[28.6082174,44.2268218],[28.6081409,44.2268144],[28.6076781,44.2268631],[28.6076957,44.2269026],[28.6081401,44.2268645],[28.6082161,44.2268806],[28.6083663,44.2270632],[28.6084731,44.2272071],[28.6085818,44.2273234],[28.6087212,44.2274688],[28.6088396,44.2276051],[28.6088987,44.2276535],[28.608967,44.2276604],[28.6090139,44.2277593],[28.6090677,44.2278729],[28.6090859,44.2278922],[28.609072,44.2279352],[28.6091143,44.2279625],[28.6092083,44.2279754],[28.6092749,44.2280139],[28.6093256,44.2280806],[28.6094583,44.2281455],[28.6095684,44.2281774],[28.6097067,44.2282576],[28.6097616,44.2283785],[28.6097677,44.2284644],[28.6098131,44.2285484],[28.609845,44.2286669],[28.6100432,44.2288205],[28.6110705,44.2290756],[28.6112485,44.2290557],[28.6113585,44.2290738],[28.6113828,44.2291216],[28.6113706,44.2291802],[28.6112979,44.2292106],[28.61121,44.2292302],[28.6111373,44.2292975],[28.6111555,44.2293539],[28.6112464,44.2294039],[28.6114434,44.2294451],[28.6115403,44.2294907],[28.6115615,44.2295428],[28.6114131,44.2298294],[28.611491,44.2298545],[28.6116131,44.2296058],[28.6116827,44.2295732],[28.6117312,44.2295797],[28.6117949,44.2295971],[28.6118494,44.2296319],[28.6118849,44.2297188],[28.6118979,44.2298229],[28.6118429,44.2299324],[28.6119443,44.2299573],[28.6121237,44.2300013],[28.6122686,44.2299166],[28.6123888,44.2297324],[28.6124467,44.2294935],[28.612516,44.2293455],[28.6126089,44.2292222],[28.6127987,44.2290989],[28.6129363,44.2290987],[28.6129691,44.2293605],[28.6132506,44.22938],[28.6132965,44.2288246],[28.6134662,44.2288114],[28.6137155,44.2286617],[28.6139541,44.2285504],[28.6141495,44.2285419],[28.6143484,44.2285978],[28.61441,44.2286966],[28.6143854,44.2288551],[28.6143455,44.2289194],[28.6143289,44.2290112],[28.6143103,44.229129],[28.6142594,44.2291854],[28.6142375,44.2292483],[28.6142853,44.2293319],[28.6143196,44.2294084],[28.6143333,44.2294615],[28.6143056,44.2295302],[28.614309,44.229582],[28.6143228,44.2297031],[28.6143024,44.2298572],[28.6143338,44.2299416],[28.6143217,44.2300037],[28.6142949,44.2300471],[28.6142989,44.2301408],[28.614287,44.2302496],[28.6141955,44.2303659],[28.6142011,44.2305217],[28.6143724,44.2305569],[28.6143566,44.2305757],[28.6143237,44.230615],[28.614109,44.230768],[28.6140645,44.2308359],[28.6140062,44.2312512],[28.6139519,44.2313573],[28.613871,44.2314952],[28.6138961,44.2315528],[28.6138562,44.2315985],[28.6137973,44.2316403],[28.6135387,44.2319944],[28.6129721,44.2321962],[28.6127019,44.2322476],[28.6122642,44.232385],[28.6119891,44.2324479],[28.6114162,44.2325507],[28.6112091,44.2326153],[28.611183,44.232623],[28.6108769,44.2327549],[28.6105765,44.2328862],[28.6103636,44.2329994],[28.6102951,44.2330324],[28.6098923,44.2332208],[28.6097203,44.2332879],[28.6094957,44.2333351],[28.6090174,44.2333782],[28.6085675,44.2335035],[28.6085375,44.2335119],[28.6083045,44.2335281],[28.6082341,44.2335386],[28.6074845,44.2335683],[28.6066944,44.2335359],[28.6066604,44.233535],[28.6059969,44.2335111],[28.6057601,44.2335025],[28.6051194,44.2334417],[28.6044958,44.2333928],[28.6039453,44.2333626],[28.6033956,44.2334139],[28.6028395,44.2335393],[28.6023571,44.233551],[28.6005843,44.2338631],[28.6005116,44.2339825],[28.5998298,44.234074],[28.5996234,44.234116],[28.5992179,44.2342929],[28.5989109,44.2344643],[28.5986951,44.234563],[28.598598,44.2346425],[28.5984091,44.2347243],[28.5982355,44.2347732],[28.5980322,44.2348992],[28.5978604,44.2349611],[28.5975485,44.2350525],[28.5968776,44.235275],[28.596619,44.235394],[28.5962307,44.2355481],[28.5946875,44.2361821],[28.5944018,44.2363452],[28.5940957,44.2365558],[28.5938553,44.2367941],[28.593607,44.2370569],[28.5933281,44.2374038],[28.5933235,44.2374554],[28.5932129,44.237577],[28.5930826,44.2377818],[28.5930287,44.2378352],[28.5929785,44.2379217],[28.592878,44.2380578],[28.5927671,44.2381777],[28.592713,44.2382017],[28.5925607,44.238384],[28.5923939,44.2385],[28.5915111,44.2393794],[28.5912262,44.2395682],[28.5911097,44.2396876],[28.5910791,44.2397625],[28.5909443,44.2398783],[28.5909243,44.2399246],[28.59092,44.2399698],[28.590767,44.2400961],[28.5906858,44.2401368],[28.5906048,44.2401537],[28.590555,44.2402041],[28.5903611,44.2402784],[28.5901493,44.2403325],[28.5900815,44.2403356],[28.5899963,44.2403396],[28.5896391,44.2403048],[28.5893686,44.2402298],[28.5891106,44.2401918],[28.5889183,44.2401131],[28.588814,44.2400886],[28.5887624,44.2400598],[28.5886739,44.2399458],[28.5884576,44.2398548],[28.5883542,44.2397405],[28.58832,44.2397116],[28.5881158,44.2396374],[28.5879978,44.239569],[28.5879371,44.2395253],[28.5878351,44.2394239],[28.5877913,44.2393501],[28.5877082,44.2392201],[28.5876277,44.2390619],[28.5875522,44.2390129],[28.5874421,44.2389789],[28.5873756,44.2389386],[28.5872801,44.2387951],[28.5872491,44.2386726],[28.5871377,44.2385207],[28.587093,44.2384433],[28.5870564,44.2383978],[28.5870107,44.2383746],[28.5867741,44.2381806],[28.5866656,44.2380335],[28.5866585,44.2380239],[28.5866153,44.2379108],[28.5866048,44.2378836],[28.5866247,44.2378508],[28.5866019,44.237808],[28.5865958,44.2377945],[28.5866005,44.2377844],[28.5866148,44.237759],[28.5866159,44.2377344],[28.5865884,44.2377023],[28.5865368,44.2376811],[28.5865142,44.2376851],[28.5864859,44.237702],[28.5864669,44.2376845],[28.5864555,44.2376823],[28.5864344,44.237689],[28.586418,44.2376773],[28.5863971,44.2376527],[28.5863762,44.2376565],[28.586369,44.2376812],[28.5863549,44.2376822],[28.5863367,44.2376568],[28.5863177,44.2376645],[28.5862748,44.2376713],[28.5862544,44.237678],[28.5862327,44.237668],[28.5862044,44.2376517],[28.5861745,44.2376527],[28.5861365,44.2376565],[28.5860584,44.2376196],[28.5860326,44.2375877],[28.5860001,44.2375762],[28.5859579,44.2375867],[28.5858555,44.23758],[28.5857269,44.2375894],[28.5856572,44.2375769],[28.5855879,44.2375431],[28.5855458,44.2375046],[28.5855126,44.2374666],[28.5854075,44.2374354],[28.5852197,44.2374255],[28.5852155,44.237405],[28.5852632,44.2373572],[28.5852644,44.2373438],[28.585111,44.2372505],[28.5850382,44.2372387],[28.5849958,44.2372495],[28.5849663,44.2372791],[28.5849316,44.237283],[28.5848534,44.2373277],[28.5847577,44.2373502],[28.5846638,44.2373513],[28.5846131,44.2373612],[28.5845758,44.2373575],[28.5845596,44.237383],[28.584542,44.2373893],[28.5845083,44.2374012],[28.5844529,44.237409],[28.5844133,44.2374307],[28.5843455,44.2374376],[28.584258,44.237423],[28.5840395,44.2374587],[28.583975,44.2374858],[28.5836445,44.237546],[28.5834106,44.2375975],[28.5833778,44.2376045],[28.5830062,44.237684],[28.5826669,44.2377207],[28.582449,44.2377189],[28.582092,44.2377987],[28.5816156,44.2379969],[28.581011,44.2382575],[28.580659,44.238437],[28.5803135,44.2386732],[28.5800667,44.2388063],[28.579836,44.239029],[28.5793841,44.2394681],[28.5790535,44.2403425],[28.5788446,44.2413937],[28.5787695,44.2417936],[28.578645,44.242456],[28.5785971,44.2427401],[28.5785655,44.2429477],[28.5783154,44.2439464],[28.5781754,44.2446385],[28.5784234,44.2454751],[28.5788858,44.2461943],[28.579208,44.2470434],[28.578417,44.2476801],[28.5769769,44.248029],[28.5755956,44.2484256],[28.5746783,44.248934],[28.5742534,44.2488083],[28.5733379,44.2498035],[28.5728857,44.2503485],[28.5725057,44.2508718],[28.5722666,44.2512962],[28.5720666,44.2517217],[28.57189,44.252498],[28.5720411,44.2531972],[28.572488,44.2536758],[28.5729407,44.2540344],[28.5738522,44.2547862],[28.5744235,44.2555005],[28.5747968,44.2556634],[28.5750238,44.255844],[28.5751031,44.2559865],[28.5750124,44.2561114],[28.5748591,44.2562097],[28.5746359,44.2562616],[28.5743887,44.256285],[28.5740174,44.2561506],[28.5736864,44.2560994],[28.573356,44.2561525],[28.5730459,44.2560933],[28.5728082,44.2559635],[28.572462,44.25591],[28.5718942,44.2557675],[28.5714936,44.2557338],[28.5710831,44.2558098],[28.5707115,44.2560427],[28.5703422,44.2565037],[28.5703975,44.2572254],[28.570508,44.2578585],[28.5699734,44.2583451],[28.5694092,44.2588067],[28.5684969,44.2594728],[28.5681868,44.2597538],[28.5681278,44.2603457],[28.5682064,44.2611965],[28.5680948,44.2614608],[28.5677172,44.2616022],[28.5669361,44.2625857],[28.5658528,44.2633196],[28.5646605,44.2638989],[28.5646399,44.2642973],[28.5652954,44.2645378],[28.5662658,44.2645736],[28.5712434,44.2648021],[28.5731656,44.2649843],[28.5756165,44.2654841],[28.5760283,44.2651596],[28.5768269,44.264806],[28.578699,44.265035],[28.5792377,44.2651019],[28.5800116,44.2653769],[28.5805578,44.2655824],[28.5811214,44.2657684],[28.5819849,44.2656592],[28.5825884,44.2655727],[28.5831656,44.2655127],[28.5836975,44.2656196],[28.5845354,44.2661761],[28.5848286,44.2663676],[28.5853478,44.2667283],[28.5861734,44.2677402],[28.5868986,44.2686434],[28.5878571,44.269395],[28.5884445,44.2702236],[28.5897421,44.2711213],[28.5903178,44.2713538],[28.59094,44.2715864],[28.5914995,44.2721098],[28.5920451,44.2727537],[28.5927333,44.2738649],[28.5932381,44.2746381],[28.5939296,44.2755645],[28.5952278,44.2762716],[28.5959825,44.2771069],[28.5961429,44.2775968],[28.5960101,44.2785234],[28.5969703,44.2791902],[28.6004025,44.281632],[28.6013949,44.2815997],[28.6023379,44.2810068],[28.6030459,44.2805645],[28.6033681,44.2803441],[28.6037002,44.2801343],[28.6040607,44.2799149],[28.60459,44.2796055],[28.6054711,44.2796445],[28.6061806,44.2797023],[28.6070745,44.279798],[28.6076815,44.2798545],[28.6081626,44.2799037],[28.608693,44.279974],[28.609161,44.280138],[28.609612,44.280366],[28.610075,44.280593],[28.610495,44.280821],[28.610946,44.281067],[28.611335,44.281336],[28.6117152,44.2816361],[28.6120948,44.2819251],[28.6125138,44.2822357],[28.6129214,44.2826109],[28.6131498,44.2829164],[28.6132817,44.2831568],[28.6133666,44.2833347],[28.6136136,44.2834295],[28.6136742,44.2833839],[28.6137681,44.2832773],[28.6139129,44.2829777],[28.6141221,44.282778],[28.6142241,44.2826628],[28.6144152,44.2825978],[28.6147335,44.2825541],[28.6150915,44.2826282],[28.6153402,44.2825206],[28.6156159,44.2825039],[28.6156718,44.2823983],[28.6162276,44.2822827],[28.6163479,44.2821098],[28.6162851,44.2819682],[28.6164742,44.2819244],[28.6165432,44.2820542],[28.6167473,44.2821393],[28.6170469,44.2821981],[28.6172518,44.2820508],[28.6170848,44.2815023],[28.6169767,44.2811215],[28.6167396,44.2811441],[28.616679,44.2811017],[28.616643,44.2809861],[28.6166728,44.2809079],[28.6168992,44.2808809],[28.6167943,44.280695],[28.6162756,44.2782625],[28.616233,44.2780457],[28.6161717,44.2779588],[28.6160516,44.2779005],[28.6160476,44.2778671],[28.6160574,44.2778303],[28.6161877,44.2778184],[28.6162584,44.2777935],[28.6162875,44.2777405],[28.6163165,44.2774187],[28.6163869,44.2773234],[28.6164444,44.2771391],[28.6164482,44.2769163],[28.6164017,44.2766564],[28.6164296,44.2763484],[28.6165432,44.2761594],[28.6166933,44.2754045],[28.616844,44.2745908],[28.6168566,44.272803],[28.6168568,44.2727693],[28.6168459,44.2726968],[28.6168857,44.2726409],[28.6168869,44.2726035],[28.6168122,44.2724249],[28.6167636,44.2722653],[28.6167652,44.272002],[28.6169298,44.270861],[28.617013,44.2708218],[28.6170615,44.2707417],[28.6170515,44.2706429],[28.6169503,44.2705605],[28.6169024,44.2705081],[28.6169392,44.2703944],[28.6169716,44.2702898],[28.6170085,44.2701897],[28.6170315,44.2700367],[28.6170498,44.2699178],[28.6170066,44.2698583],[28.6170089,44.2697988],[28.6170813,44.2697593],[28.6171061,44.2696792],[28.6170761,44.2695729],[28.6171179,44.269432],[28.617064,44.2693206],[28.6170792,44.2692251],[28.6171517,44.2690859],[28.6171135,44.2687927],[28.6170265,44.2686953],[28.6170007,44.2686238],[28.6168271,44.2677679],[28.6167954,44.2676706],[28.616791,44.2675897],[28.6168008,44.2674275],[28.6169192,44.267308],[28.6169598,44.2667658],[28.6169268,44.2666922],[28.6169663,44.2666236],[28.61697,44.2664622],[28.6168559,44.2661491],[28.6168042,44.266095],[28.6167167,44.2660192],[28.6166948,44.2659346],[28.6167007,44.2658676],[28.616751,44.2657626],[28.6167345,44.2657144],[28.6166411,44.2656956],[28.6166299,44.2656581],[28.6164476,44.2650485],[28.6163811,44.2642626],[28.6163162,44.2641141],[28.6163202,44.2640695],[28.616404,44.2640139],[28.6165024,44.2640094],[28.6165734,44.2640342],[28.6166736,44.2641255],[28.6167716,44.2641726],[28.6169158,44.2641856],[28.6170392,44.2641588],[28.6171534,44.2641027],[28.6172175,44.264023],[28.6172391,44.2639388],[28.6172279,44.2637862],[28.6171612,44.2635956],[28.6170406,44.2635097],[28.6168435,44.263401],[28.6167453,44.2633686],[28.6166572,44.2633684],[28.6165743,44.2634149],[28.6165473,44.2634551],[28.6165443,44.2635068],[28.6165601,44.2636292],[28.6165825,44.263801],[28.6165349,44.2638427],[28.6164421,44.2638675],[28.6163696,44.2638551],[28.6162991,44.2637971],[28.6162724,44.2636776],[28.6162891,44.2634612],[28.6163777,44.2630933],[28.6164261,44.2628437],[28.6164994,44.2624533],[28.6165548,44.2623779],[28.6165966,44.2622405],[28.6168583,44.2615433],[28.6170024,44.2616116],[28.6170817,44.2616002],[28.6172267,44.2614981],[28.6173123,44.2613598],[28.6173346,44.2612269],[28.6173249,44.2611267],[28.6172288,44.2609396],[28.6170237,44.260939],[28.6171165,44.260508],[28.6170113,44.2604877],[28.6169223,44.2604239],[28.6169476,44.2603962],[28.617157,44.2603425],[28.617278,44.2593024],[28.617429,44.2575798],[28.6174893,44.2562588],[28.6174296,44.2562262],[28.6173937,44.2561837],[28.617395,44.2561554],[28.6174239,44.2561038],[28.6174216,44.2560582],[28.6174227,44.2560178],[28.6174487,44.2559814],[28.6174725,44.2559641],[28.6174777,44.2559461],[28.6174858,44.2559299],[28.6175244,44.2559212],[28.6175381,44.2558651],[28.6174952,44.2553763],[28.6174186,44.2548757],[28.6175297,44.2544642],[28.6176833,44.2541494],[28.6178558,44.2539172],[28.6179217,44.2538039],[28.6179517,44.2537162],[28.6179678,44.2535889],[28.617988,44.2534005],[28.6179783,44.25268],[28.6177754,44.2515709],[28.6177714,44.2513989],[28.6178396,44.2509368],[28.6179732,44.2504748],[28.618063,44.2502128],[28.6180912,44.2501467],[28.6183567,44.2495248],[28.6183528,44.2494718],[28.6183362,44.2494283],[28.6183109,44.2494093],[28.6182847,44.249397],[28.6182291,44.2494087],[28.6182005,44.2494015],[28.618177,44.2493628],[28.6181944,44.2493204],[28.6182522,44.2493066],[28.6183281,44.2493411],[28.6183799,44.249369],[28.6183822,44.2493407],[28.6184582,44.2493369],[28.6189253,44.2493542],[28.6189991,44.2493244],[28.6190821,44.2485621],[28.6187653,44.2485359],[28.6186495,44.2485264],[28.6187348,44.248321],[28.6186987,44.2481935],[28.6185173,44.2480112],[28.6182799,44.2476649],[28.6182114,44.2475095],[28.6182011,44.2473812],[28.6182583,44.2472388],[28.6183987,44.2469199],[28.6184347,44.2467673],[28.618458,44.2466914],[28.6184529,44.2465783],[28.618423,44.2465377],[28.6184291,44.2465084],[28.618483,44.2464782],[28.6184996,44.2464251],[28.6185026,44.2463721],[28.6185152,44.2460253],[28.6185109,44.2454219],[28.6185182,44.2452835],[28.6184653,44.2452235],[28.6184827,44.2451921],[28.6185002,44.2451606],[28.6188797,44.2451398],[28.6189495,44.2451212],[28.6190172,44.2450881],[28.61907,44.2450517],[28.6191697,44.2449562],[28.6191498,44.2448866],[28.6191312,44.2448191],[28.6191399,44.244775],[28.6191794,44.2447225],[28.6192258,44.2446364],[28.619175,44.2446118],[28.6191961,44.2445895],[28.6192002,44.2445573],[28.619219,44.2444867],[28.619165,44.2444861],[28.6191724,44.2444418],[28.6191793,44.2444182],[28.6192184,44.2442845],[28.61921,44.2441383],[28.6191836,44.244031],[28.6190833,44.2438165],[28.6190954,44.2437802],[28.6191325,44.2437443],[28.6191765,44.2437363],[28.619222,44.2437464],[28.619274,44.2436988],[28.6193177,44.2436746],[28.6193542,44.2436642],[28.6193969,44.2436626],[28.6194493,44.2436715],[28.6195184,44.2436517],[28.6195454,44.2435888],[28.6197832,44.2428755],[28.619908,44.2425802],[28.61997,44.2424921],[28.6201041,44.24231],[28.620242,44.242132],[28.6202485,44.2421237],[28.6205102,44.2418024],[28.6206679,44.2416106],[28.6206976,44.2414018],[28.6206838,44.241237],[28.620623,44.241033],[28.6205639,44.2409557],[28.6205153,44.2408922],[28.6203454,44.2407642],[28.620564,44.2400155],[28.6206541,44.2397071],[28.620604,44.2396591],[28.6208629,44.2389052],[28.6201216,44.2387931],[28.6206851,44.236968],[28.6207467,44.2367683],[28.6210502,44.2364895],[28.6211993,44.2365328],[28.6210619,44.2367895],[28.6215988,44.2369345],[28.6218019,44.2365765],[28.6219263,44.2363574],[28.6217864,44.2362936],[28.6216579,44.2362514],[28.6216014,44.2362359],[28.6216637,44.2361098],[28.6217943,44.2361444],[28.6220298,44.2357206],[28.6219077,44.2356853],[28.621973,44.2355698],[28.6221187,44.2356101],[28.6222773,44.2353125],[28.6223425,44.2353308],[28.6222501,44.2355018],[28.622482,44.2355731],[28.6226746,44.2352517],[28.6226932,44.2352072],[28.6230786,44.2353156],[28.6234428,44.2347785],[28.6233766,44.2347194],[28.62336,44.2346641],[28.6233869,44.2346255],[28.6234414,44.2346023],[28.6234783,44.234587],[28.6237907,44.234118],[28.6237517,44.2340408],[28.6238818,44.2338161],[28.623913,44.2337087],[28.6239189,44.2336125],[28.6238393,44.2334412],[28.6237248,44.2333603],[28.6235289,44.2333245],[28.6233771,44.2333525],[28.6232499,44.2334295],[28.6231665,44.2334853],[28.6231226,44.2334601],[28.6231409,44.2333799],[28.6231363,44.2333481],[28.6231472,44.2332784],[28.6232067,44.2330612],[28.6232188,44.2328206],[28.6231777,44.2328158],[28.623174,44.2327951],[28.6231571,44.2327004],[28.6230728,44.2326436],[28.6230594,44.2325836],[28.6229615,44.2325133],[28.6229626,44.2324891],[28.6229653,44.2324323],[28.6230102,44.2323775],[28.6231384,44.232406],[28.6231996,44.2323767],[28.6233065,44.2322721],[28.6232902,44.2319695],[28.6235721,44.2315808],[28.6236078,44.231584],[28.6236132,44.2315614],[28.6236433,44.2315637],[28.6236468,44.2315437],[28.6236849,44.2315472],[28.6236802,44.2316251],[28.6236799,44.2316654],[28.6237108,44.2317058],[28.6237642,44.2317416],[28.6238185,44.2317447],[28.6238398,44.2317686],[28.6239072,44.2317778],[28.6239784,44.2317674],[28.6240476,44.2317256],[28.6240564,44.2316685],[28.6240377,44.231603],[28.6239731,44.23157],[28.6239016,44.2315643],[28.6238664,44.2315549],[28.6238308,44.2315826],[28.6237815,44.2315556],[28.6238901,44.2314596],[28.6239158,44.2314722],[28.6241839,44.2312764],[28.6242622,44.2309733],[28.6242311,44.2308991],[28.6242263,44.2308632],[28.6242583,44.2308588],[28.6241805,44.2307647],[28.6241645,44.2307062],[28.6241405,44.2305891],[28.6242133,44.2305763],[28.6242397,44.2306999],[28.6243064,44.2307793],[28.62431,44.2307985],[28.6243802,44.2308798],[28.6243598,44.2308845],[28.6244483,44.230984],[28.6244287,44.2310501],[28.6244521,44.2311161],[28.6244833,44.231139],[28.6245379,44.231151],[28.6245582,44.2311751],[28.6246377,44.2311731],[28.6246819,44.2311487],[28.6247039,44.2311559],[28.6247633,44.2311115],[28.6247555,44.231073],[28.6248014,44.2309733],[28.624691,44.2308542],[28.6247458,44.2308307],[28.6247098,44.2307762],[28.6247297,44.2307698],[28.6246149,44.2306131],[28.6244282,44.2306508],[28.6243968,44.2306095],[28.6245026,44.2305314],[28.6245083,44.2304426],[28.6243616,44.2303048],[28.6243866,44.2302402],[28.6244605,44.2301959],[28.6245199,44.2301417],[28.6245467,44.2300967],[28.6245414,44.2300488],[28.6245064,44.230017],[28.6244704,44.2299912],[28.6244769,44.2299048],[28.6245569,44.2298256],[28.6246511,44.2296364],[28.6248327,44.2296625],[28.6249939,44.229225],[28.6248875,44.2291205],[28.6249158,44.22909],[28.6247299,44.2289974],[28.6245144,44.2289763],[28.6244138,44.2289093],[28.6242218,44.2287013],[28.6241898,44.2286285],[28.6241926,44.2285741],[28.6242006,44.228422],[28.6242415,44.2281888],[28.6243474,44.2280531],[28.6244877,44.2279745],[28.6246608,44.2279338],[28.626024,44.2277746],[28.6262162,44.2277049],[28.6260701,44.2274837],[28.6262827,44.2273532],[28.6262311,44.2272827],[28.6264831,44.2271649],[28.6266358,44.227341],[28.6267041,44.2271672],[28.62674,44.2270083],[28.6267431,44.2268184],[28.6267207,44.226653],[28.6267122,44.2266349],[28.6265825,44.2263574],[28.6262892,44.2260128],[28.6262905,44.2259627],[28.6263365,44.2258966],[28.6264137,44.2258552],[28.6264882,44.225848],[28.6265992,44.2258824],[28.6268176,44.2260087],[28.6270106,44.2260522],[28.6271812,44.2260302],[28.6272318,44.2260081],[28.6272878,44.2259836],[28.6274114,44.2259008],[28.6274534,44.2258422],[28.6276969,44.2254041],[28.6279902,44.2248108],[28.6281903,44.2242411],[28.6282483,44.2238182],[28.628271,44.2234152],[28.6282764,44.2229038],[28.6282399,44.2225622],[28.6281508,44.2222154],[28.6281578,44.2221529],[28.6281958,44.2221042],[28.628383,44.2219672],[28.6283435,44.2219366],[28.6283352,44.2218885],[28.6283568,44.2217779],[28.6284273,44.2217026],[28.6284719,44.2216221],[28.6284625,44.2215138],[28.628427,44.2214856],[28.6283316,44.2213532],[28.6281087,44.2211988],[28.6278831,44.2211557],[28.6277424,44.2211524],[28.6275919,44.221171],[28.6274478,44.2211225],[28.627385,44.2211126],[28.6268319,44.2207745],[28.6268422,44.2207111],[28.6269003,44.2206528],[28.6269434,44.2205993],[28.6269434,44.2205723],[28.6270222,44.2205188],[28.627104,44.2205441],[28.62725,44.2204979],[28.6274527,44.220471],[28.6276182,44.2205088],[28.6277998,44.2205544],[28.6278756,44.2206026],[28.6279117,44.2206882],[28.6279142,44.2207764],[28.6279709,44.2208644],[28.6280258,44.2208802],[28.628087,44.2209092],[28.6280918,44.2209647],[28.6283311,44.2209474],[28.628467,44.2209045],[28.6285303,44.2205567],[28.628558,44.2205008],[28.6285657,44.2204037],[28.6285491,44.2203084],[28.6284653,44.2202157],[28.6282894,44.2201532],[28.6282306,44.2201512],[28.6282102,44.2201866],[28.6277411,44.2200815],[28.6277671,44.2200211],[28.6279234,44.2196599],[28.6280952,44.2192714],[28.6280559,44.2192603],[28.6280035,44.21934],[28.6279715,44.2193312],[28.6283624,44.2186414],[28.6283438,44.2186137],[28.6283217,44.2185808],[28.6283045,44.218559],[28.6282529,44.2184647],[28.6281408,44.2184802],[28.6279025,44.2184599],[28.6276147,44.2183801],[28.6271632,44.2182034],[28.6270719,44.2181363],[28.6270653,44.2180616],[28.6269768,44.2180188],[28.6269885,44.2179842],[28.6266239,44.2180068],[28.6267098,44.2183044],[28.6267392,44.2183003],[28.6267447,44.2183228],[28.6266007,44.2183446],[28.6265945,44.2183229],[28.6266702,44.2183115],[28.6265923,44.2180059],[28.626427,44.2180243],[28.6264024,44.2180657],[28.6262854,44.2180897],[28.6261045,44.2181432],[28.6258694,44.2182627],[28.6260644,44.2184364],[28.6260892,44.2184205],[28.6261189,44.2184405],[28.6260717,44.2184735],[28.6258465,44.2182761],[28.6257858,44.2183034],[28.6258049,44.2183316],[28.6258331,44.2183235],[28.6258846,44.2183673],[28.6257969,44.2186236],[28.6257743,44.218637],[28.6256152,44.2187086],[28.6255711,44.2187155],[28.6255107,44.2186692],[28.6254642,44.2187198],[28.6255151,44.218761],[28.6255194,44.2187837],[28.6254445,44.2188255],[28.6255314,44.2188993],[28.6255057,44.2189171],[28.6254216,44.2188362],[28.6253923,44.2188622],[28.6252419,44.2189959],[28.6251364,44.2189293],[28.6250554,44.2190024],[28.6251583,44.2190655],[28.6250761,44.219135],[28.6251879,44.2192041],[28.6252375,44.219196],[28.6252391,44.219213],[28.6251644,44.2192337],[28.6250412,44.2191613],[28.6248483,44.2191987],[28.6247273,44.2192936],[28.6246803,44.2192703],[28.6245142,44.2194283],[28.6245847,44.2194717],[28.6243902,44.2196262],[28.6244195,44.219643],[28.6243006,44.2197434],[28.6242193,44.2197008],[28.6241868,44.2197319],[28.624268,44.2197758],[28.6239812,44.2200363],[28.6237804,44.2202187],[28.623795,44.2202353],[28.623686,44.2203094],[28.6235832,44.2203806],[28.62338,44.2205199],[28.6234062,44.2205482],[28.6234726,44.2205116],[28.6234938,44.2205249],[28.6233187,44.2206181],[28.6226779,44.2207523],[28.6223778,44.2208987],[28.6223471,44.2208687],[28.6223089,44.2208885],[28.6223347,44.2209183],[28.6221309,44.2210144],[28.6220251,44.2210235],[28.622041,44.2210749],[28.621785,44.2210947],[28.6217831,44.221047],[28.6215068,44.2210721],[28.6208272,44.2209612],[28.6205493,44.2210732],[28.6205184,44.2210378],[28.6207661,44.2209312],[28.6207421,44.2208945],[28.6206455,44.2209342],[28.6202513,44.2204513],[28.6201775,44.2204809],[28.6201602,44.220456],[28.6203451,44.2203817],[28.6200814,44.2200874],[28.6199408,44.2200377],[28.6199568,44.2200148],[28.6200956,44.2200423],[28.6202738,44.2199647],[28.6202365,44.2198132],[28.6200453,44.2198327],[28.6200419,44.2197518],[28.6200345,44.2195723],[28.6201609,44.2195566],[28.6201117,44.2192951],[28.6200984,44.2192246],[28.6199478,44.2192478],[28.6199362,44.2192062],[28.6200391,44.2191911],[28.6199686,44.2189516],[28.6197635,44.2189802],[28.6197539,44.2189336],[28.6198896,44.218916],[28.6198397,44.2187844],[28.6197202,44.2187051],[28.6196389,44.2186957],[28.6195613,44.2187073],[28.6195546,44.2186659],[28.6194934,44.2186058],[28.6197531,44.218577],[28.6195892,44.2179493],[28.6193779,44.2173823],[28.6193127,44.217342],[28.6191342,44.2173383],[28.6186948,44.217432],[28.6185363,44.2174568],[28.6184761,44.2174497],[28.618394,44.2174119],[28.6183501,44.217334],[28.6183374,44.2172786],[28.6183629,44.2172387],[28.6183934,44.2172179],[28.6183882,44.2171966],[28.6184255,44.2171907],[28.6184328,44.2172194],[28.6185549,44.2172071],[28.6186537,44.217103],[28.6185992,44.2169881],[28.6185773,44.2169766],[28.6185463,44.2169923],[28.6184776,44.2169489],[28.6184482,44.2169487],[28.6184138,44.2169429],[28.6183957,44.2169265],[28.6183784,44.216893],[28.6183464,44.2168804],[28.6182955,44.2168751],[28.6182579,44.2168571],[28.6182432,44.2168186],[28.6182402,44.2167837],[28.6182824,44.2167401],[28.6183108,44.216734],[28.6183425,44.2167414],[28.6183642,44.216744],[28.6184165,44.2167321],[28.6184711,44.216701],[28.6184952,44.2166625],[28.6184932,44.2165979],[28.6184151,44.2163562],[28.618375,44.2163233],[28.6182806,44.2163005],[28.6181949,44.2162862],[28.618027,44.2162042],[28.6180194,44.2161599],[28.6182135,44.2161261],[28.6186321,44.2160532],[28.6185888,44.2158947],[28.6186531,44.2157684],[28.6186517,44.2157167],[28.6185505,44.2157201],[28.618544,44.2156661],[28.6182029,44.2156639],[28.6181508,44.2155987],[28.6181164,44.215541],[28.6181178,44.2155196],[28.618121,44.2154693],[28.6181744,44.2154262],[28.6182666,44.2154005],[28.6184396,44.215375],[28.6186033,44.2153686],[28.6186618,44.215256],[28.6187969,44.2150913],[28.6187507,44.2147438],[28.618537,44.2143009],[28.6184471,44.2141433],[28.6183894,44.2139732],[28.6182543,44.2138247],[28.6181158,44.2137317],[28.6179284,44.2136841],[28.6177417,44.2136938],[28.617344,44.2137799],[28.6173123,44.2138317],[28.6173162,44.2138899],[28.6174173,44.214051],[28.6174625,44.2140774],[28.617464,44.2140975],[28.6174384,44.2141348],[28.617427,44.2141746],[28.6174114,44.2142963],[28.6173374,44.2143409],[28.6172413,44.2143536],[28.6171929,44.2143559],[28.6171407,44.2143775],[28.6170879,44.2144197],[28.6167397,44.2146081],[28.6163185,44.2147062],[28.6155655,44.2147216],[28.6148771,44.2148425],[28.6145047,44.2149065],[28.6140316,44.2149744],[28.6140914,44.2151512],[28.6143323,44.2151419],[28.6144689,44.2151363],[28.6145405,44.2151669],[28.6145772,44.2151999],[28.6145607,44.2152241],[28.6145099,44.2152468],[28.6140537,44.2153815],[28.6138579,44.2153647],[28.6137407,44.2152417],[28.6126154,44.2150845],[28.6125441,44.2151935],[28.6124117,44.2153958],[28.612085,44.2158146],[28.6119316,44.2159306],[28.6120059,44.2159688],[28.6120158,44.2160006],[28.6118832,44.2161187],[28.6118882,44.2161762],[28.6118407,44.2162629],[28.6117734,44.2163857],[28.6117559,44.2164752],[28.6117237,44.2165417],[28.6117185,44.2166844],[28.6117479,44.2168147],[28.6117235,44.2168866],[28.6116333,44.2170105],[28.6116538,44.2171045],[28.6116949,44.2171485],[28.6116175,44.2172861],[28.6116014,44.2174073],[28.6115967,44.2175737],[28.6116382,44.2176642],[28.6116609,44.2176813],[28.6116501,44.2177186],[28.6115977,44.2177766],[28.61159,44.2178633],[28.6115884,44.218209],[28.6115881,44.2182726],[28.6115733,44.2186373],[28.6114026,44.2191497],[28.6113351,44.2192187],[28.6113283,44.2196266],[28.6111713,44.2199434],[28.6111311,44.2203612],[28.611246,44.2208832],[28.6113626,44.2214397],[28.6114066,44.2218412],[28.6113547,44.2219802],[28.6112322,44.2222552],[28.6111983,44.2222951],[28.6111019,44.2224082],[28.6110973,44.2224639],[28.6110188,44.2225211],[28.6109314,44.2225245],[28.6108629,44.2225412],[28.6107234,44.2226079],[28.6106205,44.2226325],[28.6105016,44.2226072],[28.6104448,44.222556],[28.6102846,44.2224895],[28.6101546,44.2224921],[28.6100401,44.2224388],[28.6099346,44.2222871],[28.6098032,44.2222328],[28.6096919,44.2222202],[28.6096144,44.222265],[28.6095206,44.2223218],[28.6093549,44.2223892],[28.6092547,44.2224543],[28.6092475,44.2226293],[28.6091022,44.2228451],[28.6089487,44.2229907],[28.6089474,44.2231748],[28.6090321,44.2232569],[28.6090792,44.2233063],[28.6089679,44.2233421],[28.6088797,44.2233359],[28.6088046,44.2233244],[28.6087234,44.2232999],[28.6086713,44.2232679],[28.6079143,44.2227554],[28.607795,44.2227178],[28.6077546,44.2227433],[28.6077876,44.2227852],[28.6085793,44.2233266],[28.6088026,44.2234703],[28.6088489,44.2235473],[28.6088734,44.223631],[28.6089535,44.2236552],[28.6089869,44.2237195],[28.6090707,44.2237558],[28.6091028,44.2238012],[28.609099,44.2238608],[28.6090772,44.2238802],[28.6090428,44.2239107],[28.6089359,44.2238848],[28.6087187,44.223828],[28.6084666,44.2237434],[28.6083325,44.2237049],[28.6082306,44.2236973],[28.6081716,44.2237242],[28.6081716,44.2237626],[28.6082467,44.2237895],[28.6084639,44.2238695],[28.6086137,44.2238923],[28.6086417,44.2239315],[28.6085607,44.2239398],[28.6084292,44.2239887],[28.6083161,44.2240059],[28.6082535,44.224079],[28.6082469,44.2242014],[28.6081292,44.2243776],[28.6078819,44.2244892],[28.607627,44.2244599],[28.6075386,44.2245084],[28.6075141,44.2245265],[28.6074051,44.2246161],[28.6074095,44.2246225],[28.6074233,44.224642],[28.6074791,44.224663],[28.6075701,44.2246958],[28.6076027,44.224696],[28.6077132,44.2246943],[28.6078073,44.2246681],[28.607938,44.2246884],[28.6081999,44.2247099],[28.6083515,44.2248053],[28.6084307,44.2250167],[28.6084425,44.2251748],[28.6085657,44.22518],[28.6085855,44.2252277],[28.6073782,44.2254299]],[[28.6079314,44.226225],[28.6079391,44.2262136],[28.6079514,44.2262046],[28.607967,44.2261988],[28.6079845,44.2261969],[28.6080028,44.2261993],[28.6080189,44.2262059],[28.6080309,44.2262161],[28.6080376,44.2262285],[28.6080381,44.2262418],[28.6080323,44.2262545],[28.608021,44.226265],[28.6080053,44.2262722],[28.6079882,44.2262752],[28.6079707,44.2262742],[28.6079545,44.2262692],[28.6079413,44.2262608],[28.6079326,44.2262499],[28.6079292,44.2262375],[28.6079314,44.226225]],[[28.5809031,44.2511254],[28.5806991,44.2509805],[28.5806795,44.2507959],[28.5806273,44.2506389],[28.5806859,44.2505829],[28.5808267,44.2505897],[28.58085,44.2504616],[28.5808549,44.250425],[28.5807674,44.2504068],[28.5806996,44.2503068],[28.5807395,44.2502009],[28.5807786,44.2500922],[28.5807883,44.2500572],[28.5806826,44.2500295],[28.5806387,44.249997],[28.580623,44.2499395],[28.5807128,44.2498929],[28.5807899,44.2498421],[28.5808291,44.2497153],[28.5807596,44.2496451],[28.5806472,44.2495979],[28.5804677,44.2495622],[28.5804211,44.2495228],[28.580427,44.2494697],[28.5805403,44.2494061],[28.5805446,44.249269],[28.5805901,44.2490072],[28.5805697,44.2488406],[28.5804387,44.2486949],[28.5803369,44.2484351],[28.5804066,44.2484278],[28.5806592,44.2486821],[28.5808011,44.2487313],[28.5811792,44.2487979],[28.5812792,44.2487888],[28.5813874,44.2488718],[28.5814645,44.2490873],[28.5816809,44.2491565],[28.5818855,44.2492999],[28.5820806,44.2496109],[28.5823279,44.2499011],[28.5824595,44.2500278],[28.5824487,44.2500628],[28.5823654,44.250112],[28.5823867,44.2501886],[28.5825949,44.2501947],[28.5826643,44.2502162],[28.5828268,44.2503656],[28.5830306,44.2507114],[28.5830379,44.2508849],[28.5830811,44.2510096],[28.5830884,44.2510759],[28.5832189,44.2512082],[28.5832344,44.2512801],[28.5831142,44.2512863],[28.5829202,44.2512647],[28.5826612,44.2511385],[28.5822953,44.251079],[28.5819376,44.2510606],[28.5817182,44.2511058],[28.5815964,44.2511463],[28.5813461,44.2511303],[28.5811652,44.2511736],[28.5809031,44.2511254]]]},"properties":{"name":"Lacul Siutghiol","name_ro":"Lacul Siutghiol","type":"lake","source":"manual_premap","source_detail":"HOTOSM Waterways HDX snapshot 2026-08-07, water=lake/reservoir name match (1 candidate features, largest polygon selected)","osm_type":"way","osm_id":"relation/3078767","geocode_tier":"tier1","confidence":"high"}}]}