{"type":"FeatureCollection","metadata":{"pipeline":"tier1_premap","pipeline_version":"1.0","generated_at":"2026-08-11T10:41:31.571193+00:00"},"features":[{"type":"Feature","id":"lacul-iezer","geometry":{"type":"Polygon","coordinates":[[[23.7992116,45.5861017],[23.7992116,45.5866419],[23.7994202,45.5869924],[23.7999209,45.5872844],[23.8007764,45.5875618],[23.8012145,45.5877078],[23.8017987,45.5877662],[23.8020908,45.5877224],[23.8022899,45.587659],[23.8023083,45.5873751],[23.8022458,45.5873073],[23.8020282,45.5870216],[23.8016318,45.5867442],[23.8014649,45.5863353],[23.8012145,45.5861601],[23.8006303,45.5859995],[23.8001713,45.5859557],[23.7996497,45.5859849],[23.7992116,45.5861017]]]},"properties":{"name":"Lacul Iezer (Iezerul Mare)","name_ro":"Lacul Iezer","type":"lake","source":"manual_premap","source_detail":"HOTOSM Waterways HDX snapshot 2026-08-07, water=lake/reservoir name match (1 candidate features, largest polygon selected)","osm_type":"way","osm_id":"way/38834592","geocode_tier":"tier1","confidence":"high"}}]}