{"type":"FeatureCollection","metadata":{"pipeline":"tier1_premap","pipeline_version":"1.0","generated_at":"2026-08-11T10:41:03.396575+00:00"},"features":[{"type":"Feature","id":"tarnava-mare","geometry":{"type":"MultiLineString","coordinates":[[[25.4011846,46.4608723],[25.4004297,46.4605093],[25.4003643,46.4604267],[25.4001492,46.4601443],[25.4000579,46.4595361],[25.4001894,46.4571791],[25.4003176,46.4563975],[25.4004169,46.4557918],[25.3987392,46.4533119],[25.397456,46.4520804],[25.3971339,46.4519396],[25.3966316,46.4518638],[25.3962158,46.4518754],[25.3957048,46.4520186],[25.3951845,46.4522135],[25.3945492,46.4523627],[25.3941518,46.452354],[25.3935912,46.4522745],[25.3934303,46.4522209],[25.3932935,46.4520324],[25.3932532,46.4517816],[25.3927464,46.4513329],[25.3925453,46.4510407],[25.3921321,46.4507222],[25.3919322,46.4505203],[25.391593,46.4503305],[25.390687,46.4500909],[25.3903511,46.449836],[25.3895697,46.4488448],[25.3879265,46.447763],[25.3877463,46.4475688],[25.3875504,46.4471969],[25.387236,46.4467553],[25.3867755,46.4464819],[25.3865028,46.4460143],[25.3861349,46.4456401],[25.3857014,46.4451931],[25.3855725,46.4448862],[25.3856079,46.4446898],[25.3860611,46.4439938],[25.3860892,46.4437874],[25.385665,46.4426673],[25.3856112,46.442362],[25.3858207,46.4417838],[25.3861969,46.4411076],[25.3865714,46.4408244],[25.3868504,46.4404583],[25.3870335,46.4398655],[25.3870658,46.4390261],[25.3874199,46.4372784],[25.387436,46.4368891],[25.3871144,46.436147],[25.3868134,46.4350781],[25.3869595,46.4346664],[25.3872673,46.4342652],[25.3875109,46.4340583],[25.3876273,46.4336698],[25.3882622,46.4332446],[25.3893388,46.4325817],[25.3894479,46.4324196],[25.3894387,46.432197],[25.3891843,46.4319871],[25.3888641,46.4318445],[25.3887552,46.4317437],[25.3887077,46.4314896],[25.3887824,46.4313451],[25.3893441,46.4308369],[25.3894479,46.4302496],[25.3904775,46.4288224],[25.3912611,46.4282087],[25.3908058,46.4272416],[25.3891937,46.4264753],[25.3890824,46.4264224],[25.3882346,46.4259934],[25.3877878,46.4253656],[25.3875918,46.4238638],[25.3877191,46.423019],[25.3875884,46.4222632],[25.3874624,46.4219933],[25.3871378,46.4215662],[25.387162,46.421226],[25.3873444,46.4210207],[25.3873846,46.4207212],[25.3874704,46.4205659],[25.3876448,46.4202386],[25.3876555,46.4200019],[25.3875294,46.4197911],[25.3873444,46.4197301],[25.3872317,46.4196395],[25.387229,46.4195249],[25.387339,46.4190552],[25.3872585,46.4186688],[25.3872639,46.4183951],[25.3873363,46.4180641],[25.3872505,46.4176074],[25.3870334,46.4170964],[25.3865236,46.4165275],[25.3864378,46.4163278],[25.3864056,46.4161262],[25.3865075,46.4160245],[25.3867677,46.4159635],[25.3871405,46.4160005],[25.3877172,46.4159339],[25.3880256,46.41581],[25.3883132,46.4156838],[25.3884391,46.4154363],[25.388318,46.4149113],[25.388208,46.4147209],[25.3880471,46.4146173],[25.3874892,46.4145581],[25.3873926,46.4144065],[25.3873336,46.4141624],[25.3877897,46.413643],[25.3877199,46.4133968],[25.3874455,46.4130823],[25.387427,46.4130634],[25.3872072,46.4128396],[25.3870582,46.4125867],[25.3872514,46.411256],[25.3870602,46.4100471],[25.3866677,46.4092879],[25.3866232,46.4083561],[25.3868133,46.407662],[25.3868294,46.4073957],[25.3868508,46.4072644],[25.3867623,46.4069943],[25.386606,46.4067912],[25.3863439,46.4066836],[25.3859335,46.4066281],[25.3853139,46.4066059],[25.3851745,46.4065357],[25.384984,46.4063045],[25.3849465,46.4060104],[25.3848848,46.4056091],[25.3847587,46.4053742],[25.384265,46.4049258],[25.3839755,46.4047453],[25.3836241,46.4044846],[25.383313,46.4040499],[25.3832218,46.403569],[25.3830891,46.4034291],[25.3813473,46.4030562],[25.379915,46.4014626],[25.3795891,46.3997034],[25.3791891,46.3988532],[25.3788186,46.3984063],[25.3785023,46.3981963],[25.3782451,46.3977198],[25.3781442,46.3970998],[25.3780304,46.3967403],[25.3776396,46.3963116],[25.3768922,46.3958513],[25.3766291,46.3955547],[25.3764196,46.3948547],[25.3759362,46.3943606],[25.3752593,46.3936147],[25.3750795,46.3926083],[25.3739386,46.3910834],[25.3731661,46.3907398],[25.3728765,46.3907022],[25.3727299,46.3907404],[25.3726018,46.3908852],[25.3725215,46.3909093],[25.3722315,46.3907252],[25.3711823,46.3898011],[25.3710875,46.3895141],[25.3709829,46.3890257],[25.3709131,46.3887925],[25.3707522,46.3885335],[25.3706771,46.3883374],[25.3705564,46.3877953],[25.3704169,46.387429],[25.3702801,46.3871459],[25.3699717,46.3867593],[25.3697008,46.3864244],[25.3696015,46.3862394],[25.3695747,46.3859989],[25.3695989,46.3854993],[25.3695828,46.3853272],[25.3694943,46.3852014],[25.3693548,46.3851237],[25.3691134,46.3850867],[25.3675076,46.3850152],[25.3666112,46.3847039],[25.3662697,46.3845578],[25.3660816,46.3844263],[25.3655728,46.3836405],[25.3656028,46.3834269],[25.3657063,46.3832548],[25.3658999,46.3830949],[25.3659598,46.3829318],[25.3659687,46.3827663],[25.3654097,46.3825271],[25.3648463,46.3821407],[25.3640934,46.3818428],[25.3632925,46.3814288],[25.3625665,46.380907],[25.3622982,46.380604],[25.3621747,46.3804454],[25.3620887,46.380374],[25.3620458,46.3802112],[25.3620726,46.3798633],[25.3623186,46.3787438],[25.3623679,46.3784395],[25.3620678,46.3776833],[25.3615092,46.3769675],[25.360081,46.3755263],[25.3598719,46.3752058],[25.3598538,46.3749395],[25.3599744,46.3744486],[25.3599243,46.3741403],[25.3596917,46.3737325],[25.3581177,46.3721503],[25.357904,46.3718666],[25.3577853,46.3713975],[25.3577917,46.3708439],[25.3580652,46.3699305],[25.3580755,46.3696043],[25.3579815,46.3690623],[25.3579738,46.3679298],[25.358281,46.3674748],[25.3577028,46.3660216],[25.35769,46.3657067],[25.3575595,46.3652327],[25.3571399,46.3648308],[25.3567927,46.364672],[25.3563981,46.3645734],[25.3554192,46.3644366],[25.3550684,46.3642841],[25.3543302,46.3635884],[25.3538998,46.3634016],[25.353654,46.363202],[25.3534327,46.3627774],[25.3534032,46.3619852],[25.3532704,46.3615478],[25.3532234,46.3610159],[25.3528124,46.3599668],[25.3526899,46.3596796],[25.35252,46.359488],[25.3522689,46.3593703],[25.3518665,46.3590153],[25.3516302,46.3586249],[25.3515029,46.3582123],[25.3515144,46.3580279],[25.3515993,46.3578865],[25.3517366,46.3576985],[25.3518106,46.3574832],[25.3513028,46.3560606],[25.351115,46.3550965],[25.350665,46.354733],[25.3499243,46.3543641],[25.3492658,46.3541104],[25.3485251,46.3539325],[25.3478895,46.3538722],[25.3470128,46.3539136],[25.3467251,46.3540154],[25.346147,46.3544175],[25.3458193,46.3544682],[25.3455052,46.3544531],[25.3449013,46.3542973],[25.3444009,46.3540612],[25.3441364,46.3538843],[25.3439914,46.353646],[25.3439271,46.353429],[25.3437959,46.3519211],[25.3437077,46.3514255],[25.3436172,46.3512962],[25.3434713,46.3512236],[25.342585,46.3509917],[25.3421106,46.3508315],[25.3418378,46.350689],[25.341785,46.3504618],[25.3418877,46.3494866],[25.3415949,46.3482636],[25.3414298,46.3479952],[25.3411801,46.3469357],[25.3408776,46.3459437],[25.3399774,46.3447131],[25.3395357,46.3441026],[25.3394505,46.3439341],[25.3395557,46.3433366],[25.3397045,46.3429903],[25.3398712,46.3424182],[25.3397259,46.3419842],[25.3393679,46.3416622],[25.339051,46.3413812],[25.3383292,46.3411807],[25.3380162,46.3410845],[25.3377998,46.3409579],[25.3375954,46.3407733],[25.337366,46.3405374],[25.3366675,46.3392363],[25.3354241,46.3380496],[25.335095,46.3370711],[25.3348061,46.3366567],[25.3345967,46.3364845],[25.3338913,46.3360765],[25.3333719,46.3356602],[25.3331468,46.3354231],[25.3330047,46.3350511],[25.3329876,46.334727],[25.3331252,46.3344494],[25.3334771,46.3341533],[25.3337523,46.3340234],[25.3338462,46.3338672],[25.3338196,46.3336184],[25.3335879,46.3330571],[25.3332758,46.3325882],[25.3331536,46.3324779],[25.3328927,46.3322424],[25.3322318,46.3317978],[25.3315441,46.3314827],[25.3308384,46.3312964],[25.3298204,46.3310219],[25.3286149,46.3308014],[25.3269675,46.3306642],[25.325885,46.330579],[25.3252961,46.3303881],[25.3247929,46.3301855],[25.3244758,46.3299546],[25.3241977,46.3297212],[25.3234151,46.3288294],[25.3232568,46.3285307],[25.323225,46.3282885],[25.3234632,46.3272964],[25.3234089,46.3269691],[25.3232518,46.3266991],[25.3227017,46.3262611],[25.3222584,46.3260635],[25.3218425,46.3259699],[25.3210682,46.3254872],[25.3207883,46.3252352],[25.3205134,46.3249771],[25.320003,46.3246409],[25.3192037,46.3243018],[25.3188468,46.3241261],[25.3183701,46.3231585],[25.3179888,46.3227347],[25.3173712,46.3222917],[25.3169144,46.322034],[25.3160925,46.3216846],[25.3156901,46.3215483],[25.3148576,46.3215494],[25.3141021,46.3216425],[25.3132825,46.3218545],[25.3123812,46.3222359],[25.3118753,46.3226387],[25.3115307,46.32284],[25.3110911,46.3229072],[25.3107355,46.3228736],[25.3103688,46.3222969],[25.3096685,46.3212473],[25.3094918,46.3206584],[25.3095316,46.3202359],[25.3098806,46.319742],[25.3101081,46.3190992],[25.3100389,46.3188213],[25.3097115,46.3185474],[25.3095257,46.3184443],[25.3093725,46.3184081],[25.3089146,46.3183313],[25.3083178,46.3183665],[25.3077318,46.3185319],[25.3070916,46.3186228],[25.3066804,46.3185775],[25.3060327,46.318384],[25.3034814,46.3164823],[25.3027549,46.3159558],[25.3024121,46.3156636],[25.3022903,46.3154699],[25.3021343,46.3148685],[25.3020801,46.3142772],[25.3019355,46.3138285],[25.3018233,46.3136496],[25.3016203,46.3134428],[25.3010067,46.3129766],[25.3006486,46.312777],[25.3002468,46.3126276],[25.2998362,46.3125299],[25.2994444,46.3124803],[25.2988737,46.3123626],[25.2983976,46.3121896],[25.2979694,46.3119541],[25.2965444,46.3109182],[25.2961734,46.3106793],[25.294847,46.3088163],[25.2945275,46.308556],[25.2939429,46.3082352],[25.2930593,46.3077237],[25.2926829,46.307236],[25.2915772,46.3061172],[25.2912373,46.3054677],[25.2910887,46.3047713],[25.2909429,46.3045066],[25.2907263,46.3043065],[25.290425,46.3041588],[25.2900945,46.3040614],[25.2893418,46.303992],[25.2883916,46.3040472],[25.2876104,46.3039073],[25.2870564,46.3034959],[25.2867193,46.3030488],[25.2865319,46.302645],[25.2864947,46.3023022],[25.2867185,46.301329],[25.287201,46.3000551],[25.2870984,46.299558],[25.2864772,46.298985],[25.2856774,46.2983362],[25.2852767,46.2977295],[25.2850777,46.2975008],[25.2848803,46.2973064],[25.284479,46.2970824],[25.2835974,46.2966489],[25.2828523,46.2961478],[25.2826985,46.2959738],[25.2825956,46.2957627],[25.2825197,46.2954752],[25.2825671,46.2952581],[25.2826441,46.294807],[25.2826785,46.2944553],[25.283653,46.292302]],[[25.2701377,46.2733606],[25.2705794,46.273161],[25.2707323,46.2730504],[25.2706376,46.2728441],[25.2704048,46.2727385],[25.2702083,46.2727133],[25.2699061,46.2727178]],[[25.2696562,46.2720239],[25.2701741,46.2719258],[25.2703124,46.2717799],[25.2702905,46.2715585],[25.2701959,46.2713775],[25.2700577,46.271297],[25.2698248,46.2712618],[25.2692225,46.2712744]],[[25.2651551,46.2617813],[25.2652182,46.2613358],[25.2650799,46.2611496],[25.2648398,46.2609685],[25.264374,46.2608427],[25.2640247,46.2606666],[25.263666,46.2606809]],[[25.2076194,46.2591173],[25.2077408,46.2588674],[25.2078397,46.2587115]],[[25.2075567,46.2592512],[25.2077962,46.2594224],[25.2079465,46.2594907],[25.2080493,46.2594825],[25.2081481,46.2594251],[25.2082074,46.2593349],[25.208247,46.2592365],[25.2082035,46.2591381],[25.2080769,46.2590424],[25.2079662,46.2588838],[25.2078397,46.2587115],[25.2077685,46.2586432],[25.2076064,46.2585748],[25.2073138,46.2585038],[25.2070963,46.2584682],[25.2068748,46.2583807],[25.2067364,46.2582714],[25.2066613,46.2581183],[25.2065704,46.258028],[25.2064596,46.2579788],[25.2063212,46.2579542],[25.2060879,46.257957],[25.2059456,46.2579925],[25.2058388,46.2580472],[25.2057874,46.2581265],[25.2057834,46.2582058],[25.2058072,46.2583178],[25.2058979,46.2584035]],[[25.2070963,46.2584682],[25.2067479,46.2586672]],[[24.6167854,46.2266954],[24.6159492,46.2266811],[24.6153878,46.2266354],[24.614695,46.2265449],[24.6139471,46.226456],[24.6132604,46.2263224],[24.6127722,46.2261721],[24.6123163,46.2260107],[24.6113507,46.2255431],[24.610546,46.2251423],[24.6099774,46.2249122],[24.6088187,46.2243035],[24.6082884,46.2240199],[24.6079818,46.2238062],[24.6077243,46.2234944],[24.6074776,46.2232421],[24.6071394,46.2230416],[24.6069096,46.2229681],[24.6065712,46.2228946],[24.6062459,46.2227688],[24.6058962,46.2225905],[24.605078,46.2221387],[24.6048123,46.2220372],[24.6044455,46.2219383],[24.6040863,46.2218661],[24.6036803,46.2218463],[24.6032761,46.2218685],[24.6027998,46.2219282],[24.6021944,46.2220046],[24.6016303,46.2220445],[24.6009544,46.222047],[24.6003536,46.2219876],[24.599918,46.2218865],[24.5995898,46.2217254],[24.5993988,46.2215719],[24.5991592,46.2214183],[24.5989414,46.221322],[24.5987399,46.2212994],[24.5985291,46.2213142],[24.5983474,46.2214058],[24.598213,46.2215383],[24.5981328,46.2216758],[24.5979367,46.2219888],[24.5977815,46.2221849],[24.5974531,46.2224683],[24.5973953,46.2226158],[24.5974116,46.2227644],[24.5974676,46.2229229],[24.5975856,46.2232049],[24.5976178,46.2234573],[24.5975212,46.2236503],[24.5972603,46.2237986],[24.5968775,46.2238433],[24.5966195,46.2237952],[24.5964373,46.2237146],[24.5962659,46.2235093],[24.5959977,46.2231084],[24.5957939,46.2229748],[24.5955471,46.2229229],[24.5950429,46.2229377],[24.5944635,46.2230194],[24.5937876,46.2230194],[24.5931331,46.2229006],[24.592704,46.2226408],[24.5925623,46.2224665],[24.5925216,46.2222622],[24.5925177,46.2221088],[24.5925859,46.2219653],[24.5927126,46.2218082],[24.5928971,46.221661],[24.5931472,46.2214926],[24.593455,46.2213641],[24.5939807,46.2212379],[24.5942724,46.2211723],[24.5945064,46.2210968],[24.5950648,46.2206737],[24.5955364,46.2202358],[24.5956254,46.219962],[24.5955793,46.219731],[24.5954291,46.2195603],[24.5949463,46.2194192],[24.5940343,46.2192485],[24.593337,46.2190332],[24.5928434,46.2188031],[24.5923392,46.2183948],[24.5919744,46.2182241],[24.5916525,46.2181647],[24.5912234,46.2181795],[24.590011,46.2183503],[24.5888523,46.2185804],[24.5884035,46.2186341],[24.5879239,46.2186295],[24.587519,46.2185696],[24.5871142,46.2184616],[24.5861808,46.2181572],[24.585344,46.217942],[24.5846252,46.2178306],[24.5839814,46.2178009],[24.5834664,46.2178306],[24.582933,46.2179165],[24.5821127,46.2181103],[24.5817286,46.2181882],[24.5812134,46.2182463],[24.5806109,46.2182417],[24.5797592,46.2181778],[24.5790729,46.2180795],[24.5783702,46.2179642],[24.5773882,46.2176957],[24.5757327,46.2172432],[24.5753681,46.2171854],[24.5746288,46.2171499],[24.5741425,46.2172063],[24.5726098,46.2175284],[24.572184,46.217555],[24.5717486,46.2174993],[24.5698762,46.2171211],[24.5686784,46.2171105],[24.5680605,46.2171586],[24.5675441,46.2172309],[24.5672794,46.2173173],[24.5664792,46.2175829],[24.5660156,46.2176831],[24.5654785,46.2177494],[24.5647752,46.2177512],[24.5641921,46.2176623],[24.5637255,46.2175599],[24.5629352,46.2172987],[24.56212,46.2171122],[24.5608275,46.2169676],[24.5600903,46.2169575],[24.5594501,46.2169743],[24.5581126,46.2172085],[24.5580586,46.217216],[24.556821,46.2173885],[24.555998,46.2177173],[24.5554795,46.2180065],[24.554664,46.2180817],[24.552701,46.2180172],[24.5514223,46.2180281],[24.549729,46.2182421],[24.5491331,46.218285],[24.547856,46.2181886],[24.5473277,46.2182193],[24.546788,46.2183974],[24.5463936,46.2184419],[24.5455457,46.2183277],[24.5448731,46.2180265],[24.5437599,46.2171128],[24.5432046,46.2163496],[24.5426107,46.215846],[24.5415479,46.2153758],[24.5406613,46.2147837],[24.5400307,46.2142728],[24.5391002,46.2139768],[24.5384082,46.2139256],[24.5376746,46.2140651],[24.5370818,46.2140962],[24.5347407,46.2140962],[24.5345424,46.2140711],[24.533345,46.2139197],[24.532637,46.2138392],[24.5318313,46.2138908],[24.5305663,46.2138912],[24.5295417,46.214036],[24.5268469,46.2139377],[24.5255861,46.2139475],[24.5249091,46.2138688],[24.5241921,46.213709],[24.5236519,46.2134634],[24.5231327,46.2133674],[24.5227054,46.2134919],[24.5221095,46.213912],[24.5216727,46.2143142],[24.5214662,46.2147575],[24.5214163,46.2152406],[24.5215111,46.2161493],[24.5213814,46.2165692],[24.5208716,46.2170352],[24.5204416,46.2171964],[24.5199049,46.2171997],[24.5192978,46.2169616],[24.518904,46.2166678],[24.5187493,46.2160354],[24.5187082,46.2156087],[24.5183963,46.2152557],[24.5177823,46.2150117],[24.517098,46.2149964],[24.516617,46.215296],[24.5161915,46.2159317],[24.5159869,46.2164708],[24.5159884,46.2169689],[24.5159348,46.2174021],[24.5154517,46.2177852],[24.5147412,46.217954],[24.5139528,46.2178655],[24.5133199,46.2175979],[24.5128037,46.2172223],[24.5124923,46.2167473],[24.5124923,46.2162336],[24.5128468,46.215746],[24.5131868,46.2153166],[24.5132826,46.2147643],[24.5131883,46.2141122],[24.5125607,46.2129036],[24.5121171,46.2124221],[24.5107361,46.2113284],[24.5103478,46.2111398],[24.507732,46.2104458],[24.5072508,46.2101474],[24.5070203,46.2098511],[24.5067239,46.2090465],[24.5067568,46.2086431],[24.5069791,46.2082841],[24.5073034,46.2078848],[24.507399,46.2075263],[24.5077127,46.2061751],[24.5076399,46.205794],[24.5074505,46.2054336],[24.5072109,46.2051515],[24.5069404,46.2049935],[24.5054805,46.2046372],[24.5045264,46.2045285],[24.5035253,46.2047232],[24.5028731,46.2049693],[24.5025588,46.2051508],[24.502294,46.2053837],[24.5021667,46.2056041],[24.5020827,46.2058887],[24.5021308,46.2064255],[24.5021047,46.2066373],[24.5017918,46.2071445],[24.5010048,46.2078185],[24.5004167,46.2081246],[24.499999,46.2082312],[24.4995813,46.2082864],[24.4986794,46.2081417],[24.496328,46.2076688],[24.4952125,46.2072703],[24.4945625,46.2068539],[24.494159,46.2064379],[24.4937173,46.2055549],[24.4933908,46.2051765],[24.4930027,46.2050021],[24.4924811,46.2049767],[24.4916996,46.2050894],[24.4909076,46.2053097],[24.4902223,46.2056588],[24.4896458,46.2062448],[24.4892798,46.2071737],[24.4892442,46.2076584],[24.4893919,46.2078614],[24.4894548,46.208239],[24.4893971,46.208383],[24.4891294,46.2088006],[24.4887316,46.2091686],[24.488459,46.2092771],[24.4880504,46.2092658],[24.4875123,46.2091276],[24.4865888,46.2088501],[24.4850312,46.2082001],[24.4847713,46.2079766],[24.4846598,46.2077744],[24.4846262,46.2076134],[24.4846669,46.2074152],[24.4846383,46.207263],[24.484561,46.2071088],[24.4844306,46.2069234],[24.4842391,46.206851],[24.4840354,46.2068082],[24.4837204,46.2068192],[24.4834602,46.2068682],[24.4831236,46.2069908],[24.4827962,46.2071535],[24.4819057,46.2074134],[24.4813605,46.2075612],[24.4810346,46.207671],[24.4807973,46.207764],[24.4805304,46.20784],[24.4802544,46.207876],[24.4799875,46.2078834],[24.4797876,46.2078951],[24.479299,46.2079713],[24.4789196,46.2079995],[24.4784032,46.2079392],[24.4780682,46.2078166],[24.4777697,46.2076138],[24.4776745,46.2073539],[24.477628,46.2070981],[24.4776517,46.2068565],[24.4778775,46.206523],[24.47873,46.2056499],[24.4794278,46.2047186],[24.4799638,46.2038307],[24.4801193,46.203181],[24.4796155,46.2020418],[24.4793147,46.2016699],[24.4785047,46.2011056],[24.4778667,46.2007757],[24.4775857,46.2006797],[24.4773138,46.2006155],[24.4766647,46.2005598],[24.4759302,46.2006197],[24.475463,46.2007269],[24.4750822,46.2008976],[24.4748994,46.2010509],[24.4747677,46.2013137],[24.4747339,46.2016631],[24.4746653,46.201851],[24.4745408,46.2020195],[24.4743861,46.2021496],[24.4741756,46.2022603],[24.4738135,46.2023306],[24.4734514,46.2023494],[24.4728559,46.2021711],[24.4716225,46.2021346],[24.4699538,46.202134],[24.4694638,46.2020544],[24.468918,46.2018781],[24.468044,46.2014471],[24.4676507,46.2012887],[24.4672882,46.2012003],[24.4668762,46.2011177],[24.4665244,46.2010766],[24.4662148,46.2010684],[24.4657644,46.2011058],[24.465314,46.2011767],[24.464998,46.2012933],[24.4647235,46.2014434],[24.4643175,46.201837],[24.4641607,46.2019527],[24.4624758,46.2022862],[24.4609849,46.2024428],[24.4589786,46.2028103],[24.4576371,46.2029583],[24.4564939,46.2027854],[24.4558637,46.2023985],[24.4555771,46.2017739],[24.4554917,46.201147],[24.4554001,46.2001922],[24.4551051,46.1993271],[24.4546817,46.1984105],[24.4542499,46.1981414],[24.4539253,46.1980282],[24.4536249,46.1980226],[24.4532709,46.1980912],[24.4519458,46.1987447],[24.4513124,46.1990486],[24.4504438,46.1989749],[24.4496334,46.1987553],[24.4489256,46.1983623],[24.4485444,46.1978678],[24.4477183,46.1973777],[24.4467209,46.197226],[24.4459967,46.1972744],[24.4451755,46.1974223],[24.4446808,46.1974124],[24.4443386,46.1973106],[24.4440705,46.1972032],[24.4438666,46.1969061],[24.4437759,46.196179],[24.4438992,46.1956257],[24.4437325,46.1948119],[24.4435286,46.1940544],[24.443647,46.1933494],[24.4439256,46.1928624],[24.4443601,46.192413],[24.4450258,46.1920535],[24.4456208,46.1914104],[24.4456261,46.1908868],[24.4452296,46.1905012],[24.444505,46.1900995],[24.4438777,46.1900815],[24.443293,46.1903824],[24.4422577,46.1913813],[24.4411576,46.1915367],[24.4400583,46.1915447],[24.4392317,46.1912841],[24.4383359,46.1908014],[24.43744,46.190482],[24.4363569,46.1899739],[24.4352356,46.189855],[24.4338888,46.1897059],[24.4328213,46.1895462],[24.432178,46.1892052],[24.4319575,46.1890407],[24.4312978,46.1884952],[24.4311616,46.1882684],[24.43111,46.1880087],[24.4313089,46.1873408],[24.4318449,46.1863783],[24.4321672,46.1854802],[24.4321293,46.1848891],[24.4318261,46.1846207],[24.4316023,46.1845044],[24.431237,46.1844313],[24.4308665,46.1844223],[24.4302682,46.1844886],[24.4300049,46.1846195],[24.4292972,46.1851496],[24.4284922,46.1858844],[24.4280956,46.1868803],[24.4276929,46.1875074],[24.4271462,46.1880984],[24.4265556,46.1884284],[24.4259494,46.1885212],[24.4252955,46.1884401],[24.4243938,46.188135],[24.4238523,46.1877197],[24.4234174,46.186902],[24.4232458,46.1861295],[24.423375,46.185183],[24.4234335,46.1845622],[24.4236481,46.1839234],[24.4241111,46.1834519],[24.4247804,46.1829695],[24.4271301,46.1822489],[24.4279182,46.1822224],[24.428836,46.1823678],[24.4297957,46.1829949],[24.4309817,46.1834227],[24.4314693,46.183487],[24.4319093,46.1834926],[24.4324424,46.1834315],[24.4328432,46.1833302],[24.4340926,46.1824564],[24.4342025,46.1822932],[24.4342225,46.182031],[24.433908,46.1813305],[24.4337815,46.1807367],[24.4330777,46.1798516],[24.4328332,46.1796494],[24.4325357,46.1794802],[24.4320852,46.1793477],[24.4315024,46.1792921],[24.4299996,46.1792175],[24.4283666,46.1788137],[24.4275856,46.1784932],[24.426303,46.1781687],[24.4258405,46.1779318],[24.4255632,46.1777169],[24.4252574,46.1771635],[24.4248387,46.1767337],[24.4225791,46.1757732],[24.4206988,46.175134],[24.4199906,46.1750833],[24.419319,46.1751799],[24.4185791,46.1754858],[24.4162787,46.1763448],[24.4149309,46.1770186],[24.4142121,46.1775646],[24.4131236,46.1780369],[24.4123024,46.1780884],[24.4118357,46.1779769],[24.411482,46.1777472],[24.4106451,46.1763283],[24.4101356,46.176046],[24.4091646,46.1761909],[24.4083166,46.1768292],[24.408081,46.1773684],[24.407056,46.1776946],[24.405842,46.1776565],[24.4058262,46.1776599],[24.4056298,46.1777023],[24.4053554,46.1777615],[24.4048887,46.1779769],[24.4044274,46.1782555],[24.4040791,46.178713],[24.403915,46.1791692],[24.4036706,46.1798486],[24.4033974,46.180551],[24.4029509,46.1812484],[24.4024569,46.1818162],[24.4017345,46.1822001],[24.400487,46.1823067],[24.3998998,46.1822224],[24.3993366,46.1820998],[24.3988109,46.1817767],[24.3981564,46.1811898],[24.3972252,46.1805859],[24.3961358,46.1801144],[24.3957156,46.1799307],[24.3941871,46.1793853],[24.3935537,46.1787607],[24.3927383,46.1781887],[24.3918107,46.1779404],[24.3909202,46.1780519],[24.3901098,46.1785973],[24.3898201,46.1794441],[24.3903408,46.180481],[24.3915152,46.1814053],[24.3924115,46.1823901],[24.3928406,46.1835266],[24.3927387,46.1840318],[24.3925828,46.18428],[24.3923042,46.1844477],[24.3918961,46.1847182],[24.3917191,46.1850302],[24.3912041,46.1858435],[24.3907646,46.1860796],[24.3900078,46.1861332],[24.3891925,46.1859698],[24.3883878,46.1854536],[24.3874919,46.1849188],[24.3870095,46.1841506],[24.3869077,46.1834301],[24.3871272,46.1823301],[24.386698,46.1819958],[24.385824,46.1818107],[24.3848423,46.1820224],[24.3838817,46.1826161],[24.383587,46.1833186],[24.3831311,46.1836455],[24.3825781,46.1836337],[24.3815482,46.1834517],[24.3802625,46.1830749],[24.3790453,46.1816113],[24.3779698,46.181009],[24.3772264,46.1807406],[24.3768468,46.180653],[24.3765304,46.1804668],[24.376226,46.1800417],[24.3759816,46.1796809],[24.3754241,46.1790905],[24.3747993,46.1783462],[24.3747114,46.1767541],[24.3746753,46.1758542],[24.3740246,46.1750752],[24.3733512,46.1746895],[24.3725287,46.1745362],[24.3709627,46.1745815],[24.3703638,46.1747682],[24.3697843,46.1748896],[24.368952,46.1748603],[24.3685368,46.1747886],[24.3681394,46.1745581],[24.3677519,46.1739393],[24.3670005,46.1732766],[24.3661148,46.1719568],[24.3652607,46.1714091],[24.3642035,46.1710815],[24.3622357,46.1711455],[24.3613711,46.1714096],[24.3604105,46.1716746],[24.3595861,46.171815],[24.3592794,46.1718509],[24.3590452,46.1718369],[24.3586545,46.1717021],[24.3578325,46.1712565],[24.3569668,46.1709025],[24.355525,46.1707948],[24.3545001,46.1709521],[24.3535824,46.1712158],[24.3527117,46.1713836],[24.3515951,46.171545],[24.3509656,46.1716272],[24.3501278,46.171816],[24.3493536,46.1719733],[24.3487339,46.1719997],[24.3482356,46.171955],[24.347675,46.1717308],[24.3471798,46.1714937],[24.3464535,46.1706604],[24.3452345,46.1697317],[24.3445908,46.1689515],[24.3440116,46.1679532],[24.3436252,46.1672872],[24.3431531,46.1664029],[24.3428741,46.165541],[24.3427239,46.1641143],[24.3427132,46.1633787],[24.3425094,46.1626727],[24.3417047,46.1620114],[24.3408357,46.1614466],[24.3400525,46.160867],[24.3393014,46.160057],[24.3387865,46.1593213],[24.3379389,46.1588308],[24.3362866,46.1585633],[24.3346344,46.1586376],[24.3335186,46.158593],[24.3324779,46.1583255],[24.3314801,46.1580356],[24.3304931,46.1579688],[24.3284863,46.1581345],[24.3272744,46.157835],[24.3262753,46.1573307],[24.3254085,46.156958],[24.3244141,46.1569663],[24.3234956,46.1570414],[24.3227013,46.1571],[24.3213541,46.1568245],[24.3210052,46.1567489],[24.3206109,46.1566634],[24.3199562,46.1563899],[24.3194805,46.155739],[24.3194139,46.1552588],[24.3196517,46.1541678],[24.3198155,46.1534166],[24.3195238,46.1528367],[24.3192444,46.1526432],[24.318692,46.1522606],[24.3183421,46.1520182],[24.3173624,46.1516263],[24.3165887,46.1516145],[24.3157154,46.151422],[24.3146805,46.1511466],[24.3137088,46.1512259],[24.3117362,46.1515208],[24.311196,46.1513088],[24.3109946,46.151076],[24.3106628,46.1499478],[24.3100207,46.1494543],[24.3087372,46.1490112],[24.3072622,46.1481621],[24.3064037,46.1472005],[24.3061455,46.1466425],[24.3061403,46.1458565],[24.3062555,46.1452419],[24.3059085,46.1443306],[24.3051423,46.1433442],[24.3047819,46.1424853],[24.3043175,46.141698],[24.3032405,46.1409708],[24.3020684,46.1396193],[24.301509,46.1383826],[24.3003893,46.1375911],[24.2991982,46.1369984],[24.298151,46.1357121],[24.2953078,46.1331986],[24.295286,46.1319145],[24.295661,46.1309139],[24.2952937,46.1304967],[24.2933532,46.1295506],[24.2913038,46.1288169],[24.2891472,46.128457],[24.2872292,46.1284222],[24.2857896,46.127908],[24.2850208,46.1274821],[24.2847848,46.1272218],[24.2845058,46.1266455],[24.2842483,46.1264225],[24.2839801,46.1262775],[24.2835349,46.1261325],[24.2827892,46.1258648],[24.2818665,46.1254707],[24.2807561,46.1252364],[24.2796135,46.1248907],[24.2788732,46.1247903],[24.2782241,46.1247757],[24.2774731,46.1249167],[24.2769206,46.1250654],[24.2765772,46.1253182],[24.2764163,46.1255227],[24.2763573,46.1258202],[24.2765075,46.1261734],[24.2765611,46.1265452],[24.2766523,46.1268649],[24.2765643,46.1271406],[24.2763627,46.1272516],[24.2759864,46.1273162],[24.2756385,46.1273333],[24.2747988,46.1272666],[24.2740774,46.1271177],[24.2733812,46.1267524],[24.2728865,46.1264708],[24.2722509,46.1262749],[24.2714542,46.1262068],[24.2711323,46.1261325],[24.2708212,46.1259912],[24.2704779,46.1257384],[24.2697537,46.1250431],[24.2692172,46.1246341],[24.2686527,46.1243477],[24.2680696,46.1242158],[24.2676777,46.1242846],[24.2673933,46.1244185],[24.2669535,46.1248646],[24.2668462,46.1251584],[24.2667657,46.1255859],[24.2666568,46.1258637],[24.2664009,46.1262031],[24.2661327,46.1264076],[24.2658859,46.126534],[24.2656016,46.1265563],[24.2651188,46.1264559],[24.2645271,46.1261545],[24.2632788,46.1256008],[24.262324,46.1253294],[24.2619914,46.1252364],[24.2611062,46.1250989],[24.2607307,46.1250096],[24.2602748,46.1248014],[24.2600816,46.1246081],[24.2599422,46.1243515],[24.2599261,46.1240206],[24.2597759,46.1234964],[24.2596274,46.1232392],[24.2593735,46.1230428],[24.2588586,46.1229089],[24.2580378,46.1226895],[24.2572814,46.1226152],[24.2564768,46.1226263],[24.2553663,46.1228308],[24.254626,46.1229275],[24.2539394,46.1230911],[24.2534888,46.123132],[24.2530274,46.1231171],[24.2527485,46.1230614],[24.2520954,46.122755],[24.2518955,46.1226672],[24.2516863,46.1225111],[24.25152,46.122288],[24.2512035,46.1217935],[24.2504847,46.1210721],[24.2499536,46.1206222],[24.2493689,46.1203842],[24.2486608,46.1201351],[24.2482477,46.1200459],[24.2478186,46.1200533],[24.2471963,46.1200793],[24.2467296,46.1200422],[24.2464238,46.1200496],[24.2453885,46.1202169],[24.2443585,46.1203805],[24.243747,46.1205069],[24.2426044,46.1208044],[24.2411345,46.1209978],[24.2397129,46.1210349],[24.2391765,46.1209494],[24.2382377,46.1207114],[24.2377549,46.1205553],[24.2370897,46.1202467],[24.2359739,46.1201054],[24.2346275,46.1198376],[24.2338335,46.1197819],[24.2330557,46.1196108],[24.2323047,46.1195588],[24.2311352,46.1195885],[24.2304271,46.1195141],[24.2299819,46.1195104],[24.2296278,46.1196294],[24.229145,46.11986],[24.228732,46.1200793],[24.2281258,46.1203805],[24.2275894,46.1205255],[24.2270207,46.1205032],[24.2262322,46.1203917],[24.2253025,46.1204571],[24.2236242,46.1204707],[24.223265,46.1203501],[24.2229486,46.1202927],[24.2226471,46.1202798],[24.2222865,46.1203335],[24.2219701,46.1204045],[24.2216735,46.1204379],[24.221091,46.1203078],[24.2204332,46.1203333],[24.2199375,46.1202345],[24.2192709,46.1201304],[24.2184762,46.1201025],[24.2178377,46.1201516],[24.2167415,46.1203841],[24.2160318,46.1203921],[24.215426,46.1204378],[24.2149721,46.1204555],[24.2141939,46.1204016],[24.213812,46.1202516],[24.2132274,46.1200125],[24.2122615,46.1196945],[24.2112956,46.1192704],[24.210725,46.1188422],[24.2088831,46.1181415],[24.208506,46.1180907],[24.2080166,46.1178902],[24.20707,46.1172939],[24.2057646,46.1162796],[24.2052894,46.1160601],[24.2045771,46.1158582],[24.2037801,46.115613],[24.2031463,46.1155631],[24.2023429,46.1156159],[24.2019324,46.1157788],[24.201449,46.1161346],[24.2007469,46.1168821],[24.1997113,46.1178219],[24.1984899,46.1186018],[24.1977922,46.1194309],[24.1969858,46.1200613],[24.1947542,46.1201803],[24.1885744,46.1176815],[24.1872011,46.1162536],[24.1854845,46.1155396],[24.1829095,46.1158966],[24.1798196,46.1150637],[24.1755124,46.1156887],[24.1735647,46.1151892],[24.1703411,46.1139767],[24.1678042,46.1116466],[24.1659126,46.1105508],[24.1640569,46.1101098],[24.1618726,46.1101387],[24.1603804,46.1099276],[24.1592219,46.1092053],[24.1602071,46.1074287],[24.1605931,46.1067478],[24.1608324,46.1059952],[24.1614636,46.1053408],[24.1621552,46.1049036],[24.1629823,46.104295],[24.1634644,46.1037302],[24.1637973,46.1032134],[24.1637806,46.1026183],[24.1637825,46.1022569],[24.1632673,46.1016601],[24.162737,46.1017322],[24.1624405,46.1017514],[24.1621894,46.1015276],[24.1620037,46.1010962],[24.1610958,46.1005252],[24.1603429,46.1000337],[24.1598959,46.0997936],[24.1591854,46.0995673],[24.1549252,46.097723],[24.1537976,46.096793],[24.1501222,46.0960207],[24.147719,46.096973],[24.1434283,46.0991742],[24.1423016,46.0990151],[24.1394068,46.0986062],[24.13866,46.0981711],[24.1377663,46.0973717],[24.1368454,46.0968403],[24.1358834,46.0960608],[24.136046,46.0951874],[24.1372476,46.0942351],[24.1393076,46.0931637],[24.1394109,46.092147],[24.1382987,46.0911823],[24.1376438,46.0904036],[24.1364032,46.0892328],[24.1339861,46.0887589],[24.1307245,46.0895922],[24.1296945,46.0906637],[24.1298662,46.0934018],[24.1288362,46.0943541],[24.1278868,46.0947112],[24.1272847,46.094506],[24.1269232,46.0941669],[24.1265134,46.0939441],[24.1256135,46.0932018],[24.1248188,46.0927516],[24.1241276,46.0926251],[24.1236434,46.0923478],[24.1226856,46.0920516],[24.121586,46.0918539],[24.1208218,46.091326],[24.1194062,46.0900069],[24.119073,46.0896964],[24.1181016,46.0887546],[24.1157578,46.0874046],[24.1144216,46.0857409],[24.1140519,46.0847853],[24.1139495,46.0828015],[24.1146044,46.0808002],[24.1146205,46.0789136],[24.1132955,46.0780504],[24.1116701,46.0782811],[24.1108118,46.0798291],[24.1096101,46.0819723],[24.1070352,46.0836393],[24.1040284,46.0849155],[24.0931306,46.0832821],[24.0910707,46.0835202],[24.0866075,46.0832821],[24.0805994,46.083163],[24.0781961,46.0839965],[24.0733896,46.0847109],[24.0670381,46.0874493],[24.0646349,46.0894732],[24.0624033,46.0925685],[24.0603433,46.0935208],[24.0577684,46.0951874],[24.0550218,46.0967349],[24.0522752,46.0973301],[24.0484987,46.0998298],[24.0460954,46.1011392],[24.0427694,46.1020201],[24.0381622,46.101784],[24.0354524,46.1020914],[24.0344225,46.1038767],[24.0339075,46.1078043],[24.0333925,46.1106606],[24.0316759,46.1120886],[24.0299593,46.1133977],[24.029101,46.1144687],[24.027556,46.1157776],[24.0246378,46.1166106],[24.0222345,46.1160156],[24.0208612,46.1142307],[24.0193163,46.1145877],[24.0184579,46.1155396],[24.0170847,46.1176815],[24.0168489,46.1192253],[24.0173468,46.1204757],[24.0175279,46.1209901],[24.0174849,46.1214311],[24.0171082,46.12213],[24.0167705,46.122665],[24.0164701,46.1228289],[24.0148495,46.1228418],[24.0139014,46.1227253],[24.0121541,46.122524],[24.0110439,46.1222394],[24.0103872,46.1222413],[24.0098438,46.122542],[24.0091797,46.1232109],[24.0060983,46.1257724],[24.0055833,46.1277949],[24.0069566,46.1302933],[24.0066133,46.1329104],[24.0045684,46.1341095],[24.0043817,46.134219],[24.0014635,46.1337431],[23.9983736,46.1313639],[23.995627,46.1308881],[23.9928804,46.1317208],[23.9903055,46.1331484],[23.9892755,46.1349327],[23.9891039,46.1375496],[23.9887605,46.1395717],[23.9872156,46.1407612],[23.9848123,46.1407612],[23.9820657,46.1395717],[23.9806924,46.1376686],[23.9789758,46.1361222],[23.9769159,46.1362412],[23.9751993,46.1374307],[23.974341,46.1405233],[23.9729412,46.1432381],[23.9726741,46.145212],[23.9721687,46.1459702],[23.9695096,46.146337],[23.964827,46.1471937],[23.9611314,46.1480834],[23.9593177,46.147934],[23.9581412,46.1473024],[23.9567865,46.146483],[23.9553815,46.1462216],[23.9541151,46.146706],[23.9534845,46.1474855],[23.9539521,46.1496554],[23.9532266,46.1514649],[23.9513383,46.1521785],[23.9480768,46.152773],[23.9473901,46.1539622],[23.9460922,46.1563027],[23.9434419,46.1587185],[23.9396792,46.1607597],[23.9390851,46.1613335],[23.9383843,46.1614864],[23.9375927,46.1621316],[23.9370636,46.1629836],[23.9369792,46.1641436],[23.9364038,46.1654956],[23.9354247,46.1666579],[23.9343439,46.1673978],[23.9332105,46.1682023],[23.9317843,46.1689153],[23.9292485,46.1698766],[23.9273296,46.1702671],[23.9244174,46.1704875],[23.9224136,46.1707869],[23.9206128,46.171026],[23.9194455,46.1713148],[23.9177172,46.1718924],[23.9158044,46.1727474],[23.9150986,46.1730763],[23.9144754,46.17329],[23.9138903,46.1733869],[23.9133829,46.1735778],[23.9127077,46.1738641],[23.9122466,46.173836],[23.9118662,46.1736262],[23.9112941,46.1735933],[23.9099712,46.1734539],[23.9094037,46.1733274],[23.9071938,46.1724573],[23.9046419,46.1715902],[23.8998909,46.1708534],[23.8955141,46.1707702],[23.8913292,46.1705661]],[[24.8052575,46.2244603],[24.8050868,46.2242065],[24.8048702,46.223912],[24.8046556,46.2237384],[24.8043945,46.2236014],[24.8040959,46.223447],[24.8037731,46.2233059],[24.8031406,46.2230794],[24.8024912,46.222895],[24.8013898,46.2225882],[24.8001879,46.2221844],[24.7996941,46.2219752],[24.7984733,46.2213955],[24.7980294,46.2212443],[24.7977052,46.2211662],[24.7973782,46.2211204],[24.7970008,46.221093],[24.7967093,46.2210952],[24.7964049,46.2211215],[24.7961219,46.2211664],[24.795822,46.2212451],[24.7955677,46.2213331],[24.7953073,46.2214416],[24.7949338,46.2216452],[24.7946494,46.2218078],[24.7941942,46.2220875],[24.7937566,46.2223671],[24.7912,46.2237473],[24.7909561,46.2238596],[24.7906841,46.2239719],[24.790418,46.2240743],[24.7901764,46.2241403],[24.7898142,46.224188],[24.7894474,46.2241946],[24.7890237,46.224166],[24.7887116,46.2241],[24.7883907,46.2239711],[24.7871909,46.2233364],[24.7865536,46.2230469],[24.785805,46.2227871],[24.7854012,46.2227316],[24.7849067,46.2227389],[24.7845277,46.2227802],[24.784065,46.2229064],[24.7829547,46.223346],[24.7823519,46.2235619],[24.7814127,46.223831],[24.7811037,46.2239535],[24.7807726,46.2241661],[24.7805307,46.224371],[24.7803349,46.2245677],[24.7801831,46.2248079],[24.7800814,46.2251021],[24.7799955,46.2254818],[24.7800262,46.2257413],[24.7801238,46.2260471],[24.7803409,46.2266535],[24.7804701,46.2274135],[24.7805793,46.2277434],[24.780935,46.228298],[24.7810119,46.2284745],[24.7810334,46.2287869],[24.7809656,46.2291224],[24.7808006,46.229486],[24.7805297,46.2299036],[24.7802972,46.2301565],[24.779981,46.2304094],[24.7786713,46.2312088],[24.7784097,46.2312859],[24.7781147,46.2313398],[24.7776694,46.2313785],[24.7769502,46.2313781],[24.7763824,46.2313326],[24.7756918,46.2312284],[24.7748573,46.2309861],[24.7743192,46.2307547],[24.7721638,46.229528],[24.7712111,46.2290354],[24.7688977,46.2280952],[24.767037,46.2274927],[24.7661646,46.2270788],[24.7651223,46.2267178],[24.7648287,46.2265586],[24.7642896,46.2262066],[24.7639254,46.2260812],[24.7633968,46.226058],[24.7629129,46.2261429],[24.7623519,46.2264356],[24.7619767,46.2267247],[24.7617129,46.2269984],[24.7616281,46.2272745],[24.7616326,46.2275584],[24.7618375,46.2278174],[24.7619085,46.228007],[24.7618554,46.2283395],[24.7618915,46.2285099],[24.7620537,46.2287695],[24.7630525,46.2299009],[24.7632731,46.2304917],[24.7634157,46.2310593],[24.7634149,46.2323655],[24.7630655,46.2342843],[24.7626535,46.235012],[24.7626204,46.2354221],[24.762874,46.2356694],[24.7633226,46.2357897],[24.7637394,46.2356658],[24.7641291,46.2356328],[24.7643849,46.2356616],[24.764693,46.235761],[24.7649008,46.2357678],[24.765197,46.2356617],[24.7658279,46.2354321],[24.7659933,46.2353324],[24.7661587,46.2352867],[24.7663353,46.2353081],[24.7664201,46.2354089],[24.7663871,46.2355693],[24.7661936,46.2358487],[24.766208,46.2360823],[24.7664554,46.2365213],[24.7665579,46.2367058],[24.7666091,46.2370017],[24.7665686,46.2373532],[24.766231,46.2377439],[24.7656577,46.2382306],[24.764706,46.2388918],[24.7640059,46.2392541],[24.7631051,46.2397156],[24.7628715,46.2399236],[24.7628226,46.2401407],[24.7629053,46.2403878],[24.7630995,46.2406388],[24.7633155,46.2408846],[24.7634179,46.2410953],[24.7633531,46.2412366],[24.7631221,46.2414441],[24.7627182,46.2415783],[24.7615374,46.2419679],[24.7610481,46.2420798],[24.7604387,46.2420843],[24.7596843,46.2420039],[24.7585751,46.2416942],[24.757569,46.2411704],[24.7571312,46.2408127],[24.7568496,46.2406942],[24.7564006,46.2406975],[24.7557796,46.2408713],[24.7547095,46.2414647],[24.7542207,46.2416761],[24.7538061,46.2417194],[24.7532018,46.2416702],[24.7529136,46.2417441],[24.7524581,46.241926],[24.7521694,46.2419499],[24.7521231,46.2419448],[24.7520842,46.24193],[24.751906,46.2418325],[24.7514812,46.2415054],[24.7509837,46.241368],[24.7504248,46.241354],[24.7491403,46.2416195],[24.7484352,46.2416951],[24.7478192,46.2417013],[24.7472782,46.2415927],[24.7452558,46.240684],[24.7445343,46.2404024],[24.7435549,46.2401248],[24.7427426,46.2400455],[24.7419848,46.2401798],[24.7407912,46.2406393],[24.7403078,46.2406124],[24.7398644,46.2403633],[24.7393791,46.239778],[24.7386727,46.2387198],[24.738436,46.2380887],[24.7384507,46.2375654],[24.7386431,46.2371134],[24.7388509,46.2366499],[24.7389249,46.2363176],[24.7387618,46.2358567],[24.738476,46.2353417],[24.7378207,46.2346117],[24.7375888,46.2343014],[24.7374796,46.2339602],[24.7374879,46.2336766],[24.7375742,46.2334238],[24.7379225,46.2329461],[24.7380266,46.2327438],[24.7380917,46.2324876],[24.7380541,46.2322709],[24.7379228,46.2320908],[24.7376539,46.23199],[24.7372778,46.2319597],[24.7367856,46.2321661],[24.7351525,46.2329952],[24.7347385,46.2330947],[24.7342213,46.232984],[24.7334733,46.232723],[24.7320934,46.2325956],[24.7315667,46.2324746],[24.7312693,46.2321632],[24.7309612,46.2312628],[24.7300023,46.2301412],[24.7295565,46.2300215],[24.7290419,46.2300922],[24.7286205,46.2302732],[24.7279854,46.2309472],[24.7272815,46.2316252],[24.726944,46.2321165],[24.7265491,46.2327466],[24.7257451,46.2334304],[24.7254078,46.2336085],[24.7250836,46.2337141],[24.7247349,46.2337507],[24.724347,46.2337238],[24.72402,46.2336133],[24.7236669,46.2334484],[24.7234004,46.2332637],[24.7230292,46.2329612],[24.7227724,46.2322671],[24.7215581,46.2310574],[24.7207796,46.2300366],[24.7202718,46.2292798],[24.7196509,46.2289906],[24.7191046,46.2288839],[24.7186625,46.2288524],[24.7166093,46.2289399],[24.7151037,46.2286898],[24.7144869,46.2288125],[24.714069,46.22905],[24.7137085,46.2296206],[24.7131136,46.2298813],[24.7126115,46.2300078],[24.7107104,46.2302375],[24.7099914,46.2305561],[24.7096622,46.2311047],[24.7097421,46.2315121],[24.709908,46.2320028],[24.7100576,46.2323393],[24.7100237,46.2326124],[24.7096588,46.2328509],[24.7090875,46.2329545],[24.7082659,46.2329158],[24.7074829,46.2326957],[24.7071596,46.2327389],[24.7067905,46.2330319],[24.7061242,46.2335274],[24.705045,46.2341741],[24.704313,46.2346113],[24.7039428,46.2348693],[24.7036816,46.2348951],[24.7034465,46.2348457],[24.7030158,46.2346319],[24.7025671,46.234141],[24.7023249,46.2337055],[24.7022949,46.2330718],[24.7024756,46.2322168],[24.7023027,46.2314608],[24.7016998,46.2307048],[24.7011532,46.2301543],[24.7000075,46.229227],[24.6993275,46.2287894],[24.6986574,46.2284035],[24.6980332,46.2281565],[24.6971536,46.2277085],[24.6966811,46.2276221],[24.6961523,46.2275954],[24.6956899,46.2276147],[24.6951735,46.2276864],[24.6942664,46.2279595],[24.6932009,46.2283375],[24.6928498,46.2285437],[24.6919832,46.229279],[24.691211,46.229961],[24.6905884,46.2302864],[24.6903625,46.2303421],[24.6898347,46.2304721],[24.6890401,46.2306201],[24.6884736,46.2307259],[24.6880184,46.2307588],[24.6866231,46.2306616],[24.6859584,46.2307964],[24.6856478,46.23095],[24.6844231,46.2312514],[24.6838803,46.2313398],[24.6833209,46.2313362],[24.6825403,46.2311043],[24.6820139,46.2307529],[24.681787,46.2303449],[24.6817674,46.2300347],[24.6819657,46.2297246],[24.6826265,46.2290005],[24.6827499,46.2286734],[24.68273,46.2282],[24.6826072,46.2276128],[24.682559,46.2273184],[24.6822394,46.2269879],[24.68171,46.2268813],[24.6812244,46.2269333],[24.6809319,46.2271406],[24.6802216,46.2273458],[24.6797803,46.2273401],[24.6793093,46.227164],[24.678953,46.2270312],[24.6783857,46.227041],[24.6778359,46.2272408],[24.6772705,46.2275489],[24.6770001,46.2277481],[24.676782,46.2281237],[24.676741,46.2284295],[24.6769384,46.2286468],[24.6772774,46.2289432],[24.6773553,46.2290626],[24.6771795,46.2299792],[24.6775719,46.2308434],[24.6782447,46.2313509],[24.6784682,46.2317359],[24.6782678,46.2321901],[24.6776045,46.2325125],[24.6767189,46.2325765],[24.6762147,46.2325933],[24.6756411,46.2323123],[24.6750539,46.2319183],[24.6747696,46.231573],[24.6745036,46.2312498],[24.6734629,46.2306567],[24.6729614,46.2298661],[24.6727843,46.2290706],[24.6723931,46.2287107],[24.671321,46.2285014],[24.6701774,46.2282038],[24.6694151,46.2282077],[24.6682886,46.2283709],[24.6676127,46.2284155],[24.6661643,46.2284897],[24.6649305,46.2284971],[24.6641044,46.2286604],[24.6637503,46.2289795],[24.6636538,46.2294397],[24.6639113,46.2297811],[24.6640185,46.2301299],[24.6641366,46.2307163],[24.6645228,46.2311022],[24.6651236,46.2313026],[24.6657244,46.23131],[24.6666042,46.231117],[24.6670226,46.2311764],[24.6674089,46.2316143],[24.6675054,46.2322971],[24.6672908,46.2328017],[24.6670655,46.2329353],[24.6664969,46.2330392],[24.6659283,46.2332173],[24.6654455,46.23344],[24.6652953,46.2337368],[24.6651773,46.2340411],[24.6646408,46.2343602],[24.6638683,46.2345457],[24.6634499,46.2344938],[24.6629349,46.2342118],[24.6622805,46.2339224],[24.6613149,46.233722],[24.6607784,46.2335587],[24.6601776,46.2332841],[24.6596626,46.2331505],[24.659212,46.2331951],[24.6583108,46.2335513],[24.6571414,46.234004],[24.6567015,46.2343305],[24.6565727,46.2347684],[24.6566049,46.2353324],[24.6567873,46.2360151],[24.6567873,46.2364975],[24.6566693,46.2369947],[24.6565191,46.2372544],[24.6562401,46.2374251],[24.6558217,46.2374399],[24.6551458,46.2373286],[24.6546308,46.2368982],[24.6540944,46.2363862],[24.6537189,46.2360448],[24.6533433,46.2358222],[24.6529786,46.2355105],[24.6525172,46.2349984],[24.6520344,46.2345606],[24.6516589,46.2343008],[24.6513907,46.2339966],[24.6511439,46.2334029],[24.6509723,46.2328982],[24.6505753,46.2320967],[24.6504036,46.2315178],[24.6503929,46.2310725],[24.6503178,46.2305901],[24.6500925,46.2304268],[24.6496741,46.2303377],[24.649202,46.2303006],[24.6487621,46.230219],[24.648333,46.230078],[24.6477107,46.2299073],[24.6472494,46.2298405],[24.6467022,46.2298034],[24.6463374,46.2298405],[24.6458439,46.2299815],[24.6453074,46.2303303],[24.6445457,46.230976],[24.6443311,46.2313545],[24.644256,46.2317404],[24.6443204,46.2320818],[24.6444813,46.2323564],[24.6448247,46.2325568],[24.6452323,46.2326681],[24.6454577,46.232824],[24.6455864,46.233158],[24.6456186,46.233722],[24.6455971,46.2339891],[24.645404,46.2342044],[24.6449856,46.2343676],[24.6445779,46.2344122],[24.6441917,46.2343825],[24.6438054,46.2342192],[24.6431939,46.2339001],[24.6424536,46.2335884],[24.6418206,46.233388],[24.6412627,46.2333212],[24.6408764,46.2331951],[24.6406082,46.2330095],[24.6401683,46.2327349],[24.638956,46.2321635],[24.6379582,46.2316811],[24.6366385,46.2311616],[24.6353404,46.2306569],[24.6346323,46.230412],[24.6341709,46.2301967],[24.6337954,46.2300038],[24.6334628,46.2297737],[24.6332375,46.2295288],[24.633098,46.2293061],[24.63298,46.2290315],[24.632862,46.228512],[24.6328727,46.2281186],[24.6329586,46.2277623],[24.6331409,46.2273838],[24.6332375,46.2270721],[24.6332375,46.226842],[24.6330873,46.2265599],[24.6328727,46.2263298],[24.6323148,46.226122],[24.6317247,46.2259216],[24.6312956,46.2258251],[24.6308772,46.2257657],[24.6305768,46.2256692],[24.6304158,46.2255653],[24.6303836,46.2254169],[24.6305338,46.2251868],[24.6310381,46.2249196],[24.6317891,46.2246153],[24.6322505,46.2245039],[24.6327654,46.2245188],[24.6330658,46.224452],[24.6332697,46.2243258],[24.6334414,46.2240066],[24.6334199,46.2237765],[24.6332053,46.2235909],[24.6327869,46.2233311],[24.6324114,46.2229748],[24.6321539,46.2226408],[24.6320739,46.2224563],[24.631993,46.2222697],[24.6317033,46.2218763],[24.6313921,46.2216833],[24.6310166,46.2216239],[24.6306733,46.2216461],[24.6303085,46.2217723],[24.6300296,46.221995],[24.6298257,46.2224181],[24.6295468,46.2228932],[24.6292464,46.2232049],[24.6289996,46.2235241],[24.6287636,46.2238804],[24.6284632,46.2241402],[24.6278516,46.224452],[24.6269504,46.2248676],[24.62665,46.2249418],[24.6264247,46.2249418],[24.6259848,46.2248676],[24.6255771,46.2248676],[24.6252874,46.224927],[24.6251372,46.2250606],[24.6250729,46.225261],[24.6251158,46.2255282],[24.6253733,46.2260478],[24.6254881,46.2262554],[24.6255171,46.2263816],[24.625497,46.2264709],[24.6254502,46.2265611],[24.6253707,46.226637],[24.6252002,46.2267362],[24.624751,46.2269459],[24.624236,46.2270795],[24.623603,46.2271389],[24.6231631,46.2271389],[24.6228413,46.2270869],[24.6224945,46.2269557],[24.622101,46.2267232],[24.6214572,46.2263595],[24.6209744,46.2261369],[24.6206204,46.2260329],[24.6202342,46.2259958],[24.6198157,46.2260107],[24.6193437,46.2260923],[24.6187429,46.2263001],[24.6182194,46.2264931],[24.6179807,46.2265715],[24.6176914,46.2266416],[24.6174931,46.226668],[24.6172301,46.2266861],[24.6167854,46.2266954]],[[25.0334904,46.2795455],[25.0322083,46.2794565],[25.027106,46.2799463],[25.0261695,46.2798689],[25.0257549,46.2797535],[25.0253311,46.2794426],[25.0250629,46.2788577],[25.0236681,46.2778511],[25.0219515,46.2769501],[25.0212219,46.2769872],[25.020487,46.2770169],[25.0199452,46.2763643],[25.0195268,46.2761566],[25.0189045,46.2760973],[25.0184968,46.2762604],[25.0165871,46.2775804],[25.0156658,46.2777167],[25.01468,46.2773932],[25.0130734,46.2771614],[25.0127783,46.276876],[25.0124779,46.2760454],[25.0104609,46.2748292],[25.0065235,46.2738874],[25.0008562,46.2735188],[25.000207,46.2706484],[24.9991676,46.2702254],[24.998391,46.2671385],[24.9970036,46.2659047],[24.9961113,46.265564],[24.9956002,46.2655418],[24.9952107,46.2656254],[24.9946515,46.2659075],[24.994442,46.2659073],[24.9938852,46.265595],[24.9938375,46.265348],[24.9937438,46.265265],[24.9934536,46.2651211],[24.9931341,46.264871],[24.9931068,46.2642269],[24.9936558,46.2636475],[24.9934765,46.2630379],[24.9928842,46.2626238],[24.9925179,46.2626461],[24.9921634,46.2628296],[24.9919179,46.2628838],[24.9908744,46.2626415],[24.990306,46.2627437],[24.9898567,46.2627368],[24.9894975,46.262798],[24.9892024,46.2630274],[24.9890473,46.26338],[24.9892635,46.2642991],[24.9893388,46.2646871],[24.9892013,46.2649552],[24.9891052,46.2651043],[24.9889871,46.2652278],[24.9887905,46.2652649],[24.9885644,46.2652764],[24.9883071,46.2652682],[24.9880428,46.2651938],[24.9878972,46.2651326],[24.9878388,46.265108],[24.9875978,46.2649098],[24.9867402,46.2639996],[24.9857292,46.2639237],[24.9850317,46.2638061],[24.9844525,46.2636676],[24.9840605,46.263501],[24.9838133,46.2633027],[24.9835661,46.2629804],[24.983547,46.2627785],[24.9836369,46.2624044],[24.9835677,46.2622507],[24.9834518,46.2621293],[24.983034,46.2619372],[24.9827698,46.2617982],[24.9822619,46.2618146],[24.9819589,46.2619194],[24.9816857,46.2621292],[24.9813441,46.2626017],[24.9808913,46.2628388],[24.9805492,46.2628703],[24.9800786,46.262817],[24.9778412,46.2619759],[24.9764136,46.2611079],[24.9754722,46.2601988],[24.9753209,46.259998],[24.975317,46.2598004],[24.9753944,46.259537],[24.9755019,46.2593583],[24.9757938,46.2591471],[24.976654,46.2588219],[24.9768617,46.2586432],[24.976881,46.2582694],[24.9765468,46.2576984],[24.9764771,46.2573713],[24.976267,46.2570721],[24.9760569,46.2566998],[24.9758326,46.2565885],[24.9751945,46.2564133],[24.9749195,46.2563892],[24.9737426,46.2562352],[24.9726509,46.2561451],[24.9725088,46.2560907],[24.9724,46.2559826],[24.972391,46.2558771],[24.9723422,46.2558023],[24.9723959,46.2556873],[24.9725461,46.2554611],[24.9728143,46.2553275],[24.9730933,46.2552422],[24.973796,46.2548194],[24.9739516,46.2545226],[24.9740374,46.2541517],[24.9735546,46.2534358],[24.9730235,46.2530055],[24.9723476,46.252642],[24.9713069,46.2524565],[24.9707168,46.2523823],[24.9703574,46.2519261],[24.9701858,46.2514476],[24.9702233,46.2509802],[24.9700409,46.2508355],[24.9690914,46.2509505],[24.9684048,46.251481],[24.9676591,46.2515514],[24.967128,46.2514327],[24.9665379,46.2511434],[24.9662536,46.2508207],[24.966259,46.250535],[24.9662375,46.2500157],[24.9665487,46.2496855],[24.9665111,46.249348],[24.9661249,46.2491551],[24.9654543,46.2490623],[24.9646175,46.2491328],[24.9642688,46.2492367],[24.9633729,46.2491773],[24.9615444,46.2492146],[24.9593507,46.2494303],[24.9580556,46.24937],[24.9571963,46.2495983],[24.9569568,46.2498811],[24.9555192,46.250018],[24.953527,46.2503417],[24.9531674,46.2501878],[24.9531065,46.2499352],[24.9527535,46.2495942],[24.9527989,46.2492698],[24.9542935,46.2484914],[24.9543848,46.2477463],[24.9548962,46.2470264],[24.9549418,46.2466656],[24.9543851,46.2463352],[24.9532811,46.2461628],[24.952723,46.2461129],[24.952163,46.2462182],[24.951846,46.2465213],[24.9517673,46.2469085],[24.9515969,46.2471822],[24.9512954,46.2472936],[24.9503183,46.2473785],[24.9499001,46.2473626],[24.9481526,46.2472467],[24.9476701,46.2473393],[24.9469485,46.2475742],[24.946384,46.2478897],[24.9459877,46.2481156],[24.9453728,46.2485936],[24.9448961,46.2487597],[24.9443575,46.2489441],[24.9427741,46.2491621],[24.9422208,46.2491589],[24.9418346,46.2490808],[24.9415214,46.2489205],[24.941134,46.2484599],[24.9407363,46.2481781],[24.9403781,46.248086],[24.9400057,46.2480685],[24.939598,46.2481692],[24.939173,46.2484024],[24.9386306,46.2488109],[24.9380639,46.2490363],[24.9376391,46.2490618],[24.9373246,46.2489685],[24.9369146,46.2486753],[24.9365461,46.2482625],[24.9363572,46.2481308],[24.9360931,46.2480381],[24.9343324,46.2477122],[24.9338396,46.2476591],[24.9332257,46.2477858],[24.9327061,46.2480581],[24.9323743,46.2482915],[24.9319414,46.2489977],[24.9313713,46.2494463],[24.9312346,46.2495581],[24.9310391,46.2496478],[24.9308025,46.2497057],[24.9305552,46.2497378],[24.930365,46.2497577],[24.929636,46.2497543],[24.9292996,46.2497764],[24.9276675,46.250034],[24.9259935,46.2509676],[24.9251143,46.2508094],[24.9239506,46.2505383],[24.9232049,46.2506558],[24.9231716,46.2510934],[24.9229829,46.2513467],[24.9221733,46.2517094],[24.9216619,46.2519685],[24.9210181,46.2520529],[24.9206184,46.251861],[24.9205962,46.2516537],[24.9202989,46.2513973],[24.9196804,46.2513749],[24.9190532,46.2516077],[24.9186425,46.2521911],[24.917881,46.2534131],[24.9176767,46.253734],[24.9172549,46.2538568],[24.9169246,46.2537052],[24.9166998,46.2534806],[24.9165333,46.2529357],[24.9161291,46.2525301],[24.9162114,46.252145],[24.9161781,46.2518073],[24.9158159,46.2515452],[24.9150365,46.2514241],[24.9145018,46.2515693],[24.9142738,46.2517475],[24.9141688,46.2519378],[24.914413,46.2523753],[24.9142858,46.2525627],[24.9140268,46.2526833],[24.9137853,46.2527203],[24.9134824,46.2526784],[24.9131049,46.252473],[24.9129123,46.2520378],[24.9127812,46.2514849],[24.9129477,46.2508554],[24.9129537,46.2505618],[24.9128367,46.2503411],[24.9123483,46.2501031],[24.9118607,46.250113],[24.911457,46.2501879],[24.9111938,46.2504025],[24.9112052,46.250635],[24.9116267,46.251032],[24.9116859,46.2512028],[24.9116045,46.2514465],[24.9111161,46.2517382],[24.9105555,46.2519361],[24.9102058,46.2519761],[24.9099584,46.2519372],[24.9098164,46.2517525],[24.9099584,46.2515127],[24.9097881,46.2513713],[24.90901,46.25137],[24.9088182,46.2513697],[24.907586,46.2508861],[24.9068977,46.2503872],[24.9066091,46.2499266],[24.9057922,46.2495916],[24.905291,46.2495848],[24.9048161,46.2497603],[24.9043029,46.2501398],[24.9037796,46.2501408],[24.9032089,46.2493521],[24.9027406,46.2490305],[24.9023865,46.2489338],[24.901815,46.2490118],[24.9014104,46.2492842],[24.9013814,46.2496136],[24.9015457,46.2499004],[24.9022346,46.2503914],[24.9023194,46.2511022],[24.9018219,46.2516669],[24.9012317,46.2526234],[24.9002355,46.2526747],[24.8990401,46.2533404],[24.8986957,46.2539303],[24.8985138,46.2545509],[24.8981161,46.254671],[24.8974899,46.254706],[24.8964808,46.2545751],[24.8955906,46.2543993],[24.8951313,46.2540688],[24.8946691,46.2531398],[24.8940208,46.2524216],[24.8937532,46.252359],[24.8934329,46.2523693],[24.8926692,46.2525236],[24.8919678,46.2523096],[24.891479,46.2519181],[24.8887438,46.2514146],[24.8875402,46.2511886],[24.8861345,46.2511814],[24.884694,46.250936],[24.8841252,46.2506514],[24.884031,46.2503242],[24.884218,46.2500092],[24.8845104,46.2498036],[24.8843332,46.2496307],[24.8836815,46.2496036],[24.881429,46.2497318],[24.8806555,46.2499117],[24.8794164,46.2509314],[24.8790208,46.2511671],[24.8785411,46.2512629],[24.8770772,46.2513041],[24.8765128,46.25124],[24.8759045,46.251097],[24.8738004,46.2500574],[24.8734761,46.2499592],[24.873033,46.2499182],[24.8683545,46.2499867],[24.8658718,46.2499923],[24.8638983,46.2499968],[24.8613503,46.2499201],[24.8604455,46.2497339],[24.8598186,46.2495383],[24.8592444,46.2492151],[24.8584039,46.2486625],[24.8578227,46.2484661],[24.8571421,46.2483946],[24.856278,46.2484392],[24.8550867,46.2486222],[24.8540338,46.248457],[24.8522458,46.2481805],[24.8520622,46.2480338],[24.851996,46.2478684],[24.8519071,46.2474538],[24.8517634,46.247199],[24.8514481,46.2469568],[24.8512197,46.2467402],[24.8511794,46.2465881],[24.8513018,46.2462924],[24.8516665,46.2460086],[24.8521078,46.2458163],[24.8523323,46.2456428],[24.8523107,46.2455356],[24.8521671,46.2454096],[24.8519997,46.2454008],[24.8515206,46.2455419],[24.8503836,46.24592],[24.8497507,46.2461891],[24.8492488,46.2463708],[24.8486297,46.2465321],[24.8478946,46.2464524],[24.8473894,46.2460149],[24.8468972,46.2453109],[24.8463406,46.2447346],[24.8452814,46.2445986],[24.8444801,46.2445327],[24.8436885,46.2446246],[24.8427392,46.2453153],[24.8414093,46.2456708],[24.8407775,46.2455482],[24.8405857,46.2448626],[24.840893,46.2444246],[24.8414994,46.2440226],[24.8416621,46.2437128],[24.8414951,46.2431295],[24.8410785,46.2426595],[24.8401889,46.2426294],[24.8396857,46.2428373],[24.8392116,46.2430333],[24.8387894,46.2435173],[24.8389496,46.2439806],[24.8384611,46.2451193],[24.838094,46.2458182],[24.8381328,46.2461536],[24.8382851,46.2463647],[24.838651,46.2468264],[24.8387127,46.2471195],[24.8385314,46.2474187],[24.8383138,46.2476628],[24.8382099,46.247827],[24.8382313,46.2481076],[24.8383059,46.2484116],[24.8383431,46.2486425],[24.8383729,46.2491611],[24.8383109,46.2493025],[24.8380758,46.2494355],[24.8376932,46.2494652],[24.836823,46.2493045],[24.8364407,46.2491062],[24.8361426,46.2487528],[24.8357844,46.2475549],[24.8358926,46.2470147],[24.8360467,46.2466589],[24.8359263,46.2462895],[24.8355766,46.2460069],[24.8345982,46.2457268],[24.8333042,46.2453824],[24.8325956,46.2451683],[24.8322128,46.2451412],[24.8318517,46.2451743],[24.8308714,46.2455173],[24.8305047,46.2455507],[24.8301433,46.2455293],[24.8299849,46.2454172],[24.8294652,46.2445123],[24.8289239,46.2438734],[24.8285282,46.2434202],[24.8281027,46.2432387],[24.8275952,46.243149],[24.8259129,46.2434217],[24.8245941,46.2435839],[24.8231629,46.2439331],[24.8226857,46.2440356],[24.8222115,46.2439685],[24.8214411,46.2435941],[24.821241,46.2434533],[24.8211327,46.2432358],[24.821325,46.2421803],[24.8216625,46.2416061],[24.8218566,46.2412445],[24.8218204,46.2411407],[24.821747,46.2409308],[24.8214588,46.2405937],[24.8205318,46.2397986],[24.8197903,46.2393437],[24.8191592,46.2387795],[24.818436,46.2380368],[24.8162589,46.2371779],[24.8147796,46.2366497],[24.8139671,46.2363374],[24.8133857,46.2361231],[24.8117296,46.2355335],[24.8114069,46.2352948],[24.8113186,46.2352109],[24.811205,46.2351028],[24.8109121,46.2347289],[24.8104213,46.2334668],[24.809882,46.2324621],[24.8097741,46.2321517],[24.8096363,46.2318254],[24.8094381,46.2315274],[24.8091214,46.2311686],[24.8075541,46.2298347],[24.8072816,46.229592],[24.8070649,46.2292851],[24.8066682,46.2280351],[24.8064572,46.2271847],[24.8063386,46.2268345],[24.8058502,46.2260565],[24.8055571,46.2251814],[24.8054859,46.2249862],[24.8052575,46.2244603]],[[24.9758326,46.2565885],[24.9755324,46.256591],[24.9753809,46.2566548],[24.9753033,46.256711],[24.9751075,46.2567034],[24.9750299,46.2566369],[24.9749966,46.2565143],[24.9749195,46.2563892]],[[25.0357166,46.2794713],[25.0345713,46.279438],[25.0334904,46.2795455]],[[25.0357166,46.2794713],[25.0354073,46.2791783],[25.0350103,46.2789707],[25.0345812,46.2789188],[25.0341949,46.2789707],[25.0338302,46.2791264],[25.0336156,46.2793488],[25.0334904,46.2795455]],[[25.1173044,46.2687771],[25.1170626,46.2687894],[25.1168972,46.2688293],[25.1167279,46.2689037],[25.1165702,46.2689888],[25.1164818,46.2691164],[25.1163815,46.2692649]],[[25.2044112,46.259135],[25.2040862,46.2594053],[25.203696,46.2596125],[25.2035266,46.2598647],[25.2032596,46.2600178],[25.2030186,46.2600595]],[[25.283653,46.292302],[25.2840673,46.2918314],[25.2843414,46.2913574],[25.2843857,46.2907247],[25.2842865,46.2895097],[25.2838195,46.2883015],[25.2836309,46.2876678],[25.2836996,46.2873838],[25.28362,46.2868727],[25.2832975,46.2865844],[25.2830655,46.286439],[25.2826579,46.2863938],[25.2823343,46.2864585],[25.2820431,46.2866482],[25.2816411,46.2867067],[25.2807976,46.2870532],[25.2806176,46.2870425],[25.2804806,46.2869651],[25.2804264,46.2868604],[25.2803993,46.2866726],[25.2804871,46.2863566],[25.2810391,46.2854741],[25.2821251,46.2842082],[25.2823631,46.2838362],[25.282358,46.2836073],[25.282279,46.2834065],[25.2814597,46.2828868],[25.2802186,46.2823173],[25.2793217,46.2821164],[25.2791527,46.2819464],[25.2791372,46.2817208],[25.2793086,46.2815692],[25.2796816,46.2815212],[25.2801105,46.2813768],[25.2803002,46.2810839],[25.280147,46.2808008],[25.279797,46.280732],[25.2792485,46.2808316],[25.2786227,46.2810783],[25.2781807,46.2811295],[25.2778467,46.2809877],[25.2776695,46.2807046],[25.2774956,46.2801489],[25.2771067,46.2797757],[25.2761612,46.2791576],[25.2753771,46.27854],[25.2750474,46.27807],[25.2745148,46.2775302],[25.2742362,46.2772583],[25.2738826,46.277094],[25.273656,46.2770286],[25.2733331,46.277015],[25.2719175,46.2770422],[25.2709446,46.2766663],[25.2707424,46.2762942],[25.2708059,46.2758172],[25.2707947,46.2757068],[25.2707234,46.2755818],[25.2705808,46.2754516],[25.2702205,46.2754521],[25.2699735,46.2756133],[25.2698522,46.2756901],[25.2696943,46.2757225],[25.2695434,46.2756913],[25.2694771,46.2755734],[25.269379,46.2753919],[25.2691944,46.2750214],[25.2693289,46.2747903],[25.2694988,46.2745959],[25.2701247,46.2744775],[25.2704299,46.274077],[25.2702673,46.2738051],[25.2701377,46.2733606],[25.2699061,46.2727178],[25.2696562,46.2720239],[25.2698017,46.2717496],[25.2697124,46.271601],[25.2694639,46.271562],[25.269361,46.2715129],[25.2692225,46.2712744],[25.2687093,46.270426],[25.2689302,46.270241],[25.2694422,46.2701215],[25.2699727,46.2700402],[25.2701653,46.2698537],[25.2701831,46.2694408],[25.2699259,46.2690585],[25.2695389,46.2688561],[25.2690791,46.2687945],[25.268829,46.2686814],[25.2685763,46.268425],[25.2685658,46.2680229],[25.2688796,46.2672188],[25.2688578,46.2664151],[25.2688518,46.2661916],[25.2683961,46.2657994],[25.268169,46.2655569],[25.2681245,46.2637976],[25.2681425,46.2635615],[25.2680149,46.2633657],[25.2676288,46.2632759],[25.2670603,46.2632171],[25.2668694,46.263341],[25.2666511,46.2634751],[25.2663964,46.2634918],[25.2661489,46.2634279],[25.2656642,46.2631353],[25.265574,46.2629481],[25.2657123,46.2628004],[25.2660034,46.262592],[25.2659452,46.2623664],[25.2655498,46.2621301],[25.2651551,46.2617813],[25.2648044,46.2616495],[25.263666,46.2606809],[25.2630103,46.2604291],[25.2627966,46.2603731],[25.2622952,46.2602839],[25.2617018,46.2603448],[25.2613282,46.2605424],[25.2608688,46.260838],[25.2603335,46.2608658],[25.2598144,46.2607058],[25.2589812,46.2602152],[25.2586435,46.2601455],[25.2583478,46.2602806],[25.258172,46.2605318],[25.2581617,46.2608932],[25.2583976,46.2612991],[25.2584391,46.2615033],[25.2582991,46.2616582],[25.2579116,46.2619292],[25.2574485,46.262126],[25.2569411,46.2622099],[25.2561458,46.2621712],[25.2555281,46.2622358],[25.2550031,46.2623012],[25.2539748,46.2626732],[25.2533848,46.2626439],[25.2528607,46.2624318],[25.2505774,46.262358],[25.249659,46.2625808],[25.2494747,46.2626255],[25.2479064,46.2626044],[25.2458024,46.2620593],[25.2452523,46.2620306],[25.2450192,46.2620427],[25.2447484,46.2621348],[25.2446584,46.2622223],[25.244598,46.2624175],[25.2445241,46.2625063],[25.2436093,46.263003],[25.2433096,46.2628891],[25.2404067,46.2610397],[25.2398225,46.2603076],[25.238753,46.2597469],[25.2363445,46.2591862],[25.2351464,46.2591473],[25.2339046,46.2592945],[25.2319406,46.2595814],[25.2301338,46.2601366],[25.2293095,46.2603381],[25.2285344,46.2602415],[25.2278052,46.2599694],[25.2275316,46.2597801],[25.2272684,46.2594777],[25.2266097,46.2583796],[25.226407,46.2581395],[25.2261731,46.2580955],[25.2250641,46.2580846],[25.2234379,46.2575468],[25.2228534,46.2570336],[25.2225249,46.2569109],[25.2214158,46.256914],[25.2202341,46.2566743],[25.2197154,46.256659],[25.2179459,46.2569321],[25.2157057,46.2576154],[25.2146559,46.2579929],[25.2139279,46.2585558],[25.2124941,46.2604465],[25.2118741,46.2610398],[25.2114973,46.2611449],[25.2107613,46.2610511],[25.2103412,46.2608209],[25.2086322,46.2605242],[25.2078178,46.2606114],[25.2067173,46.2607515],[25.2065027,46.2606577],[25.2063955,46.2604334],[25.2064066,46.2600589],[25.2075567,46.2592512],[25.2076194,46.2591173],[25.2074686,46.2589643],[25.2070036,46.2589023],[25.2068797,46.2588217],[25.2067479,46.2586672],[25.2065067,46.2583248],[25.2064113,46.2582471],[25.2062843,46.2581968],[25.2061186,46.2581884],[25.205937,46.2582347],[25.2058692,46.2583258],[25.2058979,46.2584035],[25.2064081,46.2587848],[25.2064248,46.2588655],[25.2063664,46.2589572],[25.2056669,46.2590731],[25.205494,46.2590797],[25.2052974,46.2589714],[25.2051199,46.25883],[25.2049279,46.2587893],[25.204569,46.2588772],[25.2044576,46.2589651],[25.2044112,46.259135],[25.2042815,46.2596102],[25.2041411,46.259876],[25.2039616,46.2600473],[25.2036416,46.2601107],[25.2032975,46.2601211],[25.2030186,46.2600595],[25.2026173,46.2597535],[25.2019341,46.2596867],[25.2014595,46.2599937],[25.201089,46.260206],[25.2007771,46.2602428],[25.2004588,46.2601747],[25.1995868,46.2596543],[25.1992423,46.2598239],[25.1987676,46.2599755],[25.1984433,46.2596664],[25.1977208,46.2595795],[25.1973695,46.2596007],[25.1968755,46.2598143],[25.1965648,46.2601333],[25.1963082,46.2602039],[25.1958606,46.2599805],[25.1956563,46.2598785],[25.1953691,46.259508],[25.1941305,46.2592805],[25.1914578,46.2592307],[25.1910193,46.2595079],[25.1906881,46.2604674],[25.1904119,46.2606657],[25.1884659,46.2609577],[25.1892504,46.2620176],[25.1891981,46.2628105],[25.1875759,46.2626628],[25.1864881,46.2631484],[25.1851356,46.2625823],[25.1840518,46.2614415],[25.1836797,46.2612029],[25.1837026,46.2609877],[25.1839154,46.2605974],[25.1838505,46.2604841],[25.1836122,46.2603887],[25.1833265,46.2603643],[25.1829567,46.2604222],[25.1827639,46.2605376],[25.1825593,46.2609675],[25.182232,46.2611185],[25.1819048,46.2611738],[25.1812632,46.2610514],[25.1810803,46.2609044],[25.1810604,46.2607755],[25.1812777,46.2605071],[25.1810796,46.2601727],[25.1813205,46.2596934],[25.1812946,46.2594346],[25.1809879,46.2593699],[25.1805142,46.2590878],[25.1801315,46.2590599],[25.1798006,46.2591487],[25.1795238,46.2593573],[25.1793815,46.2594129],[25.1791974,46.2593876],[25.1790015,46.2593733],[25.1786164,46.2593919],[25.1782116,46.2594653],[25.178064,46.2595673],[25.1779507,46.2598889],[25.1778249,46.2599622],[25.1776595,46.2599645],[25.177532,46.2598973],[25.1773517,46.2596532],[25.1771713,46.259513],[25.1769815,46.2594328],[25.1767521,46.2594019],[25.1764199,46.2593837],[25.1758956,46.2597499],[25.1755137,46.2602474],[25.175592,46.2603776],[25.1758127,46.2605079],[25.175914,46.2607027],[25.1759425,46.260819],[25.1758533,46.2609141],[25.1756216,46.2609982],[25.1753957,46.2610188],[25.1751824,46.2609806],[25.1740358,46.260084],[25.1737752,46.2600513],[25.1731807,46.2602892],[25.1729817,46.260303],[25.1717627,46.2600161],[25.1714355,46.2600049],[25.1697627,46.2599475],[25.1686807,46.2601482],[25.1682338,46.2603295],[25.1676722,46.2608802],[25.167615,46.2611596],[25.1678533,46.2613341],[25.167907,46.2617198],[25.167848,46.262061],[25.167767,46.262159],[25.167574,46.2621988],[25.1673515,46.2621699],[25.1667697,46.2620944],[25.1655091,46.2621982],[25.1645592,46.2618279],[25.1627031,46.2622284],[25.1625533,46.2624949],[25.1627518,46.262799],[25.1623169,46.2638491],[25.1620505,46.263927],[25.1613951,46.2639428],[25.1602788,46.2642899],[25.1598767,46.264366],[25.1594522,46.2643646],[25.1585514,46.2637967],[25.1578124,46.2636182],[25.1573601,46.2636303],[25.1570683,46.2637775],[25.156384,46.2643466],[25.1561212,46.2644406],[25.1559051,46.2646186],[25.1555523,46.2647094],[25.1553463,46.2647048],[25.1544913,46.2644581],[25.1537671,46.2643018],[25.153157,46.264303],[25.1518137,46.2641267],[25.1513412,46.2639084],[25.1505258,46.2625325],[25.1501086,46.2623744],[25.1496622,46.2623471],[25.1475189,46.2626941],[25.1469911,46.2628398],[25.1464865,46.2633299],[25.1463088,46.2634133],[25.1457163,46.2634465],[25.1448367,46.2632187],[25.1444426,46.2629964],[25.1441211,46.2623169],[25.1434019,46.2617871],[25.1429996,46.261721],[25.1425973,46.2618204],[25.1422784,46.2619557],[25.1412413,46.2625669],[25.1410963,46.2632091],[25.141101,46.2639858],[25.1410337,46.2642605],[25.1408592,46.2645352],[25.1403549,46.264971],[25.1398399,46.2652658],[25.1395463,46.2653704],[25.1391776,46.2654676],[25.1388265,46.2654989],[25.1381584,46.2653749],[25.1379195,46.2653845],[25.1376944,46.2654732],[25.1374102,46.2656843],[25.1347384,46.2666231],[25.1334455,46.2667232],[25.1321156,46.2665224],[25.1312193,46.266115],[25.1304818,46.2660452],[25.129981,46.2659895],[25.1297945,46.2659803],[25.1295995,46.266015],[25.1291651,46.2661479],[25.1285156,46.2665303],[25.1275934,46.2670082],[25.127314,46.2676058],[25.1260751,46.2689531],[25.1257773,46.2692452],[25.1256021,46.2693604],[25.1254677,46.2694159],[25.125334,46.2694362],[25.1251958,46.2694282],[25.124883,46.2693557],[25.1237578,46.2693111],[25.1233503,46.2692304],[25.1229967,46.2691147],[25.1227975,46.2689989],[25.122648,46.2688538],[25.1222987,46.2683507],[25.1221275,46.2682436],[25.1218102,46.2681843],[25.121592,46.2681943],[25.1209277,46.2684808],[25.1207365,46.2685254],[25.1205453,46.2685434],[25.120205,46.2684815],[25.1199839,46.2682841],[25.1192417,46.2676711],[25.1190249,46.2676566],[25.1188234,46.267706],[25.1185436,46.2679057],[25.1183094,46.2685469],[25.1182293,46.268636],[25.1180704,46.2687003],[25.1177201,46.2687743],[25.1173044,46.2687771],[25.1170201,46.2690627],[25.1163815,46.2692649],[25.1158024,46.2694483],[25.1142731,46.2697343],[25.1133884,46.2700787],[25.1131414,46.2705515],[25.11297,46.2708797],[25.1134742,46.2712431],[25.1129642,46.2719593],[25.1117898,46.2721553],[25.1111675,46.271651],[25.1102927,46.2713956],[25.1093543,46.2716213],[25.1086619,46.2725822],[25.1091183,46.2733493],[25.1086297,46.2745622],[25.1080235,46.274652],[25.1065269,46.2748738],[25.1059673,46.2751524],[25.1055198,46.2756762],[25.1050114,46.2759589],[25.1046187,46.2760624],[25.1036377,46.2761304],[25.102759,46.2763116],[25.1019123,46.2766966],[25.1011775,46.2776648],[25.0980932,46.2789401],[25.0980177,46.2791012],[25.0981775,46.2794231],[25.098396,46.2800413],[25.0984085,46.2802056],[25.0976102,46.2808944],[25.0969999,46.2814662],[25.0966063,46.281835],[25.0953818,46.283303],[25.0952131,46.2838021],[25.0949409,46.284015],[25.0946843,46.2841992],[25.0934331,46.285032],[25.0922214,46.2853013],[25.0909351,46.285335],[25.0897828,46.2856617],[25.0890416,46.2858076],[25.087886,46.2858026],[25.0872286,46.285879],[25.0869167,46.2861162],[25.0868148,46.2864857],[25.0870329,46.2870049],[25.0869253,46.2872225],[25.0865967,46.2873546],[25.0864645,46.2873677],[25.0863504,46.2872678],[25.0857044,46.287407],[25.0839896,46.2874845],[25.0831972,46.2872605],[25.0815513,46.2869225],[25.0789596,46.2868926],[25.0783873,46.2868066],[25.0781447,46.2867293],[25.0768039,46.2859857],[25.0761847,46.2856924],[25.0756259,46.2854684],[25.0748393,46.285226],[25.0740024,46.2851],[25.0734862,46.2851847],[25.0731393,46.285365],[25.0727784,46.2856055],[25.0727713,46.2859204],[25.0731263,46.2865289],[25.0728658,46.2869055],[25.0722054,46.2873086],[25.0717066,46.2875556],[25.0712848,46.2875581],[25.070595,46.2874143],[25.0697659,46.2869931],[25.0691675,46.2863593],[25.0683752,46.2858762],[25.067497,46.2860838],[25.0671113,46.2871975],[25.0663786,46.2874316],[25.0660459,46.2873361],[25.0653317,46.286813],[25.0649515,46.2866737],[25.0645713,46.2866407],[25.0640672,46.2867127],[25.0635785,46.2869974],[25.063201,46.2875029],[25.0617748,46.287722],[25.0612229,46.2876993],[25.0609326,46.2875703],[25.0606799,46.2874236],[25.0594733,46.2864264],[25.0583094,46.2855734],[25.0576952,46.2853316],[25.0549528,46.285792],[25.0545186,46.2857265],[25.0504859,46.2848131],[25.0487414,46.2848545],[25.0474113,46.2845436],[25.0464352,46.2835283],[25.044762,46.2828768],[25.0442782,46.2828822],[25.0437391,46.283013],[25.0424705,46.2830549],[25.0414183,46.2828592],[25.0409454,46.2829008],[25.0402142,46.2832361],[25.0375464,46.2834504],[25.0368765,46.283272],[25.0363277,46.2830116],[25.0364025,46.2803832],[25.0363164,46.2800777],[25.0357166,46.2794713]],[[25.1321156,46.2665224],[25.1310553,46.2663897],[25.1304818,46.2660452]],[[25.0952131,46.2838021],[25.0951979,46.2841743],[25.0951245,46.2843298],[25.0944566,46.2849366],[25.0943586,46.2850011],[25.0941157,46.2850592],[25.0934331,46.285032]],[[25.4044978,46.4636773],[25.4036676,46.4624647],[25.4022595,46.4612326],[25.4011846,46.4608723]]]},"properties":{"name":"Târnava Mare","name_ro":"Târnava Mare","type":"river","source":"manual_premap","source_detail":"HOTOSM Waterways HDX snapshot 2026-08-07, waterway=river name match (19 segments, 3010 points), ANCPI validation: see README","osm_type":"way","osm_id":"way/1013003473","geocode_tier":"tier1","confidence":"high"}}]}